State,Store Name,Address,City,Zip,Phone,Type,Email
AK,Anchorage,515 E Tudor Rd,Anchorage,99503,(907)563-9800,Rental House/Dealer,thdrentalkeyaccount@homedepot.com
AK,NE Anchorage,400 Rodeo Place,Anchorage,99508,(907)276-2006,Rental House/Dealer,thdrentalkeyaccount@homedepot.com
AK,SE Anchorage,1715 Abbott Road,Anchorage,99507,(907)644-5646,Rental House/Dealer,thdrentalkeyaccount@homedepot.com
AK,Fairbanks,1301 Old Steese Hwy,Fairbanks,99701,(907)451-9003,Rental House/Dealer,thdrentalkeyaccount@homedepot.com
AK,Juneau,5201 Commercial Blvd,Juneau,99801,(907)463-5034,Rental House/Dealer,thdrentalkeyaccount@homedepot.com
AK,Kenai,10480 Spur Hwy,Kenai,99611,(907)283-2228,Rental House/Dealer,thdrentalkeyaccount@homedepot.com
AK,Wasilla,1255 E Palmer Wasilla Hwy,Wasilla,99654,(907)357-8181,Rental House/Dealer,thdrentalkeyaccount@homedepot.com
AL,Alexander City,1460 Hwy 280,Alexander City,35010,(256)234-6399,Rental House/Dealer,thdrentalkeyaccount@homedepot.com
AL,Hoover,3670 Galleria Circle,Birmingham,35244,(205)988-8141,Rental House/Dealer,thdrentalkeyaccount@homedepot.com
AL,Inverness,4995 Highway 280,Birmingham,35242,(205)995-9357,Rental House/Dealer,thdrentalkeyaccount@homedepot.com
AL,Eastwood,"7001 Crestwood Blvd, Suite 1300",Birmingham,35210,(205)595-7780,Rental House/Dealer,thdrentalkeyaccount@homedepot.com
AL,Daphne,7100 Hwy 90,Daphne,36526,(251)625-0890,Rental House/Dealer,thdrentalkeyaccount@homedepot.com
AL,Decatur,1225 Wimberly Dr Sw,Decatur,35603,(256)353-2031,Rental House/Dealer,thdrentalkeyaccount@homedepot.com
AL,Dothan,3489 Ross Clark Cir,Dothan,36303,(334)677-2790,Rental House/Dealer,thdrentalkeyaccount@homedepot.com
AL,Fairfield,6405 Flintridge Dr,Fairfield,35064,(205)781-0110,Rental House/Dealer,thdrentalkeyaccount@homedepot.com
AL,Florence,351 Seville St,Florence,35630,(256)764-5037,Rental House/Dealer,thdrentalkeyaccount@homedepot.com
AL,Foley,2899 S Mckenzie St,Foley,36535,(251)955-2401,Rental House/Dealer,thdrentalkeyaccount@homedepot.com
AL,South Huntsville,10012 Memorial Pkwy Sw,Huntsville,35803,(256)881-8270,Rental House/Dealer,thdrentalkeyaccount@homedepot.com
AL,North Huntsville,1035 Memorial Pkwy Nw,Huntsville,35801,(256)536-2216,Rental House/Dealer,thdrentalkeyaccount@homedepot.com
AL,Jasper,1808 Hwy 78 E,Jasper,35501,(205)221-0367,Rental House/Dealer,thdrentalkeyaccount@homedepot.com
AL,West Huntsville,4045 Lawson Ridge Dr,Madison,35757,(256)837-6658,Rental House/Dealer,thdrentalkeyaccount@homedepot.com
AL,West Mobile,755 Schillinger Rd S,Mobile,36695,(251)634-0351,Rental House/Dealer,thdrentalkeyaccount@homedepot.com
AL,Mobile,851 Montlimar Dr,Mobile,36609,(251)380-0017,Rental House/Dealer,thdrentalkeyaccount@homedepot.com
AL,East Montgomery,10655 Chantilly Pkwy,Montgomery,36117,(334)260-8702,Rental House/Dealer,thdrentalkeyaccount@homedepot.com
AL,Montgomery,2312 Eastern Blvd,Montgomery,36117,(334)272-8552,Rental House/Dealer,thdrentalkeyaccount@homedepot.com
AL,Auburn (Opelika),2190 Tigertown Parkway,Opelika,36801,(334)745-4242,Rental House/Dealer,thdrentalkeyaccount@homedepot.com
AL,Oxford,350 Crystal Water Drive,Oxford,36203,(256)832-2279,Rental House/Dealer,thdrentalkeyaccount@homedepot.com
AL,Pelham,3191 Pelham Pkwy,Pelham,35124,(205)685-1837,Rental House/Dealer,thdrentalkeyaccount@homedepot.com
AL,Pell City,289 Vaughan Lane,Pell City,35125,(205)338-1070,Rental House/Dealer,thdrentalkeyaccount@homedepot.com
AL,Phenix City,3784 Us Highway 431 N,Phenix City,36867,(334)297-2045,Rental House/Dealer,thdrentalkeyaccount@homedepot.com
AL,Prattville,2710 Legends Parkway,Prattville,36066,(334)285-1693,Rental House/Dealer,thdrentalkeyaccount@homedepot.com
AL,Scottsboro,24635 John T Reid Pkwy,Scottsboro,35768,(256)575-2100,Rental House/Dealer,thdrentalkeyaccount@homedepot.com
AL,Sylacauga,41310 Us Hwy 280,Sylacauga,35150,(256)245-4953,Rental House/Dealer,thdrentalkeyaccount@homedepot.com
AL,Trussville,1600 Gadsden Hwy,Trussville,35173,(205)661-9415,Rental House/Dealer,thdrentalkeyaccount@homedepot.com
AL,Tuscaloosa,1601 13th Ave East,Tuscaloosa,35404,(205)633-2038,Rental House/Dealer,thdrentalkeyaccount@homedepot.com
AR,Batesville,3000 E Harrison St,Batesville,72501,(870)307-0300,Rental House/Dealer,thdrentalkeyaccount@homedepot.com
AR,Benton,17060 Interstate 30,Benton,72019,(501)860-6288,Rental House/Dealer,thdrentalkeyaccount@homedepot.com
AR,Cabot,555 Going Road,Cabot,72023,(501)941-4350,Rental House/Dealer,thdrentalkeyaccount@homedepot.com
AR,Conway,500 Elsinger Blvd,Conway,72032,(501)329-6763,Rental House/Dealer,thdrentalkeyaccount@homedepot.com
AR,El Dorado,507 West 19th St,El Dorado,71730,(870)875-1427,Rental House/Dealer,thdrentalkeyaccount@homedepot.com
AR,Fayetteville,675 E Joyce Blvd,Fayetteville,72703,(479)571-4700,Rental House/Dealer,thdrentalkeyaccount@homedepot.com
AR,Fort Smith,5101 Phoenix Avenue,Fort Smith,72903,(479)649-5888,Rental House/Dealer,thdrentalkeyaccount@homedepot.com
AR,Harrison,312 Hester Drive,Harrison,72601,(870)741-2900,Rental House/Dealer,thdrentalkeyaccount@homedepot.com
AR,Jonesboro,711 E Parker Rd,Jonesboro,72404,(870)268-0619,Rental House/Dealer,thdrentalkeyaccount@homedepot.com
AR,West Little Rock,12610 Chenal Pkwy,Little Rock,72211,(501)219-9600,Rental House/Dealer,thdrentalkeyaccount@homedepot.com
AR,S Little Rock,11 Mabelvale Plaza Lane,Little Rock,72209,(501)565-7168,Rental House/Dealer,thdrentalkeyaccount@homedepot.com
AR,Mountain Home,100 Pendella Drive,Mountain Home,72653,(870)492-2270,Rental House/Dealer,thdrentalkeyaccount@homedepot.com
AR,North Little Rock,4325 E Mccain Blvd,North Little Rock,72117,(501)945-3500,Rental House/Dealer,thdrentalkeyaccount@homedepot.com
AR,Rogers,1701 S 46th Street,Rogers,72758,(479)619-2730,Rental House/Dealer,thdrentalkeyaccount@homedepot.com
AZ,Bullhead City,660 Hwy 95,Bullhead City,86429,(928)754-5600,Rental House/Dealer,thdrentalkeyaccount@homedepot.com
AZ,Casa Grande,1546 E Florence Blvd,Casa Grande,85122,(520)836-1028,Rental House/Dealer,thdrentalkeyaccount@homedepot.com
AZ,Chandler,1155 W Chandler Blvd,Chandler,85224,(480)899-5013,Rental House/Dealer,thdrentalkeyaccount@homedepot.com
AZ,Ray Road,"650 N 54th St, Suite A",Chandler,85226,(480)753-3320,Rental House/Dealer,thdrentalkeyaccount@homedepot.com
AZ,Cottonwood,1030 South State Route 260,Cottonwood,86326,(928)649-3758,Rental House/Dealer,thdrentalkeyaccount@homedepot.com
AZ,Flagstaff East,5005 E Marketplace Dr Ste 110,Flagstaff,86004,(928)526-1692,Rental House/Dealer,thdrentalkeyaccount@homedepot.com
AZ,Flagstaff,1325 N Rte 66,Flagstaff,86001,(928)556-1529,Rental House/Dealer,thdrentalkeyaccount@homedepot.com
AZ,Gilbert,745 S Val Vista Dr,Gilbert,85296,(480)497-1466,Rental House/Dealer,thdrentalkeyaccount@homedepot.com
AZ,Kingman,3860 Stockton Hill Rd,Kingman,86409,(928)681-5600,Rental House/Dealer,thdrentalkeyaccount@homedepot.com
AZ,Lake Havasu City,100 Retail Centre Blvd,Lake Havasu City,86404,(928)764-5111,Rental House/Dealer,thdrentalkeyaccount@homedepot.com
AZ,Maricopa (Stonegate),42410 W Maricopa-casa Grande Hwy,Maricopa,85138,(520)607-5500,Rental House/Dealer,thdrentalkeyaccount@homedepot.com
AZ,Apache Junction,1545 S Crismon Rd,Mesa,85209,(480)380-1821,Rental House/Dealer,thdrentalkeyaccount@homedepot.com
AZ,Superstition,6838 E Superstition Springs,Mesa,85209,(480)981-6405,Rental House/Dealer,thdrentalkeyaccount@homedepot.com
AZ,North Mesa,425 S 54th St,Mesa,85204,(480)396-0227,Rental House/Dealer,thdrentalkeyaccount@homedepot.com
AZ,Nogales,430 White Park Drive,Nogales,85621,(520)375-6545,Rental House/Dealer,thdrentalkeyaccount@homedepot.com
AZ,North Tucson (Oro Valley),10855 N Oracle Rd,Oro Valley,85737,(520)877-3533,Rental House/Dealer,thdrentalkeyaccount@homedepot.com
AZ,Payson,2000 North Beeline Hwy,Payson,85541,(928)468-0339,Rental House/Dealer,thdrentalkeyaccount@homedepot.com
AZ,Peoria/Happy Valley,25650 North Lake Pleasant Pkwy,Peoria,85383,(623)376-6735,Rental House/Dealer,thdrentalkeyaccount@homedepot.com
AZ,Peoria,9201 W Peoria Ave,Peoria,85345,(623)412-1750,Rental House/Dealer,thdrentalkeyaccount@homedepot.com
AZ,Thomas Rd,3609 E Thomas Rd,Phoenix,85018,(602)225-0980,Rental House/Dealer,thdrentalkeyaccount@homedepot.com
AZ,Prescott,"1941 E, Az-69",Prescott,86301,(928)717-8467,Rental House/Dealer,thdrentalkeyaccount@homedepot.com
AZ,Prescott Valley,5500 E State Route 69,Prescott Valley,86314,(928)277-2400,Rental House/Dealer,thdrentalkeyaccount@homedepot.com
AZ,Scottsdale,9170 N Talking Stick Way,Scottsdale,85250,(480)951-8211,Rental House/Dealer,thdrentalkeyaccount@homedepot.com
AZ,North Scottsdale,15499 N Hayden Rd,Scottsdale,85260,(480)991-3738,Rental House/Dealer,thdrentalkeyaccount@homedepot.com
AZ,Show Low,5601 S White Mountain Rd,Show Low,85901,(928)532-1552,Rental House/Dealer,thdrentalkeyaccount@homedepot.com
AZ,Sierra Vista,3500 Avenida Cochise,Sierra Vista,85635,(520)439-2806,Rental House/Dealer,thdrentalkeyaccount@homedepot.com
AZ,Prasada South,16601 Cactus Rd,Surprise,85388,(602)759-5501,Rental House/Dealer,thdrentalkeyaccount@homedepot.com
AZ,Tempe,725 W Warner Rd,Tempe,85284,(480)496-9700,Rental House/Dealer,thdrentalkeyaccount@homedepot.com
AZ,Thatcher,750 S 20th Avenue,Thatcher,85552,(928)348-3287,Rental House/Dealer,thdrentalkeyaccount@homedepot.com
AZ,Tucson,7677 E Broadway Blvd,Tucson,85710,(520)722-6171,Rental House/Dealer,thdrentalkeyaccount@homedepot.com
AZ,Tucson / Oracle,4302 North Oracle Road,Tucson,85705,(520)408-7201,Rental House/Dealer,thdrentalkeyaccount@homedepot.com
AZ,Irvington,1155 W Irvington Rd,Tucson,85714,(520)294-1233,Rental House/Dealer,thdrentalkeyaccount@homedepot.com
AZ,Central Tucson (El Con),3689 E Broadway Blvd,Tucson,85716,(520)327-3050,Rental House/Dealer,thdrentalkeyaccount@homedepot.com
AZ,Rita Ranch,10072 E. Old Vail Road,Tucson,85747,(520)697-7600,Rental House/Dealer,thdrentalkeyaccount@homedepot.com
AZ,Marana (NW Tucson),3925 W Costco Dr,Tucson,85741,(520)575-8750,Rental House/Dealer,thdrentalkeyaccount@homedepot.com
AZ,Yuma,1111 S Redondo Center Dr,Yuma,85365,(928)373-9453,Rental House/Dealer,thdrentalkeyaccount@homedepot.com
CA,Anaheim Hills,5765 E Santa Ana Canyon Rd,Anaheim,92807,(714)998-1701,Rental House/Dealer,thdrentalkeyaccount@homedepot.com
CA,Atascadero,905 El Camino Real,Atascadero,93422,(805)464-0960,Rental House/Dealer,thdrentalkeyaccount@homedepot.com
CA,Bakersfield Central,4001 Ming Ave,Bakersfield,93309,(661)837-4860,Rental House/Dealer,thdrentalkeyaccount@homedepot.com
CA,NE Bakersfield,2655 Mt Vernon Ave,Bakersfield,93306,(661)872-2041,Rental House/Dealer,thdrentalkeyaccount@homedepot.com
CA,NW Bakersfield,8700 Rosedale Hwy,Bakersfield,93312,(661)587-1545,Rental House/Dealer,thdrentalkeyaccount@homedepot.com
CA,SW Bakersfield,4700 Gosford Rd,Bakersfield,93313,(661)835-1133,Rental House/Dealer,thdrentalkeyaccount@homedepot.com
CA,Barstow,1100 E. Avenue,Barstow,92311,(760)256-3018,Rental House/Dealer,thdrentalkeyaccount@homedepot.com
CA,Beaumont,625 Highland Springs Ave,Beaumont,92223,(951)769-0301,Rental House/Dealer,thdrentalkeyaccount@homedepot.com
CA,East Brea,2455 E Imperial Hwy,Brea,92821,(714)990-8493,Rental House/Dealer,thdrentalkeyaccount@homedepot.com
CA,Campbell,480 E Hamilton Ave,Campbell,95008,(408)866-1900,Rental House/Dealer,thdrentalkeyaccount@homedepot.com
CA,Cerritos,10640 Artesia Blvd,Cerritos,90703,(562)809-1966,Rental House/Dealer,thdrentalkeyaccount@homedepot.com
CA,Chula Vista,575 East H Street,Chula Vista,91910,(619)591-7300,Rental House/Dealer,thdrentalkeyaccount@homedepot.com
CA,Colma II,2 Colma Blvd,Colma,94014,(650)755-9600,Rental House/Dealer,thdrentalkeyaccount@homedepot.com
CA,Compton,1002 N Central Ave,Compton,90220,(310)764-9600,Rental House/Dealer,thdrentalkeyaccount@homedepot.com
CA,Concord,2090 Meridan Park Blvd,Concord,94520,(925)825-9600,Rental House/Dealer,thdrentalkeyaccount@homedepot.com
CA,Crescent City,520 Highway Us 101 North,Crescent City,95531,(707)464-9463,Rental House/Dealer,thdrentalkeyaccount@homedepot.com
CA,Cypress,5800 Lincoln Ave,Cypress,90630,(714)816-0624,Rental House/Dealer,thdrentalkeyaccount@homedepot.com
CA,Delano,601 Woollomes Ave,Delano,93215,(661)720-0926,Rental House/Dealer,thdrentalkeyaccount@homedepot.com
CA,East Palo Alto,1781 E Bayshore Rd,East Palo Alto,94303,(650)462-6800,Rental House/Dealer,thdrentalkeyaccount@homedepot.com
CA,El Centro,320 Wake Ave,El Centro,92243,(760)353-0362,Rental House/Dealer,thdrentalkeyaccount@homedepot.com
CA,El Cerrito,11939 San Pablo Ave,El Cerrito,94530,(510)235-0800,Rental House/Dealer,thdrentalkeyaccount@homedepot.com
CA,Elk Grove,9150 W Stockton Blvd,Elk Grove,95758,(916)478-2388,Rental House/Dealer,thdrentalkeyaccount@homedepot.com
CA,Emeryville,3838 Hollis Ave,Emeryville,94608,(510)601-9400,Rental House/Dealer,thdrentalkeyaccount@homedepot.com
CA,Encinitas,1001 N El Camino Real,Encinitas,92024,(760)943-9600,Rental House/Dealer,thdrentalkeyaccount@homedepot.com
CA,Fairfield,2121 Cadenasso Dr,Fairfield,94533,(707)426-9600,Rental House/Dealer,thdrentalkeyaccount@homedepot.com
CA,South Fresno,5088 E Kings Canyon Rd,Fresno,93727,(559)255-9600,Rental House/Dealer,thdrentalkeyaccount@homedepot.com
CA,Gilroy,8850 San Ysidro Ave,Gilroy,95020,(408)847-7712,Rental House/Dealer,thdrentalkeyaccount@homedepot.com
CA,Glendale,5040 San Fernando Rd,Glendale,91204,(818)246-9600,Rental House/Dealer,thdrentalkeyaccount@homedepot.com
CA,Goleta,6975 Market Place Dr,Goleta,93117,(805)961-4746,Rental House/Dealer,thdrentalkeyaccount@homedepot.com
CA,Hanford,501 N 12th Ave,Hanford,93230,(559)582-9120,Rental House/Dealer,thdrentalkeyaccount@homedepot.com
CA,Hawthorne,14603 Ocean Gate Ave,Hawthorne,90250,(310)644-9600,Rental House/Dealer,thdrentalkeyaccount@homedepot.com
CA,Hemet,3400 W Florida Ave,Hemet,92545,(951)929-9742,Rental House/Dealer,thdrentalkeyaccount@homedepot.com
CA,Sunset,5600 Sunset Blvd,Hollywood,90028,(323)461-3303,Rental House/Dealer,thdrentalkeyaccount@homedepot.com
CA,Huntington Beach II,7100 Warner Ave,Huntington Beach,92647,(714)847-7100,Rental House/Dealer,thdrentalkeyaccount@homedepot.com
CA,Huntington Beach,19101 Magnolia Street,Huntington Beach,92646,(714)965-4049,Rental House/Dealer,thdrentalkeyaccount@homedepot.com
CA,La Mirada,12300 La Mirada Blvd,La Mirada,90638,(562)947-3742,Rental House/Dealer,thdrentalkeyaccount@homedepot.com
CA,Lancaster,44226 20th St West,Lancaster,93534,(661)951-3669,Rental House/Dealer,thdrentalkeyaccount@homedepot.com
CA,Lincoln,1000 Groveland Lane,Lincoln,95648,(916)434-7337,Rental House/Dealer,thdrentalkeyaccount@homedepot.com
CA,Lompoc,1701 East Ocean Avenue,Lompoc,93436,(805)737-0314,Rental House/Dealer,thdrentalkeyaccount@homedepot.com
CA,Cypress Park,2055 N Figueroa St,Los Angeles,90065,(323)342-9495,Rental House/Dealer,thdrentalkeyaccount@homedepot.com
CA,Hyde Park,1830 W Slauson Ave,Los Angeles,90047,(323)292-1397,Rental House/Dealer,thdrentalkeyaccount@homedepot.com
CA,Wilshire/Union,1675 Wilshire Blvd,Los Angeles,90017,(213)273-8464,Rental House/Dealer,thdrentalkeyaccount@homedepot.com
CA,Los Banos,1955 E Pacheco Blvd,Los Banos,93635,(209)509-3940,Rental House/Dealer,thdrentalkeyaccount@homedepot.com
CA,Martinez,1037 Arnold Drive,Martinez,94553,(925)335-0223,Rental House/Dealer,thdrentalkeyaccount@homedepot.com
CA,Merced,1735 Hwy 140,Merced,95341,(209)722-2600,Rental House/Dealer,thdrentalkeyaccount@homedepot.com
CA,Moreno Valley,12200 Day St,Moreno Valley,92557,(951)247-9600,Rental House/Dealer,thdrentalkeyaccount@homedepot.com
CA,Napa,225 Soscol Ave,Napa,94559,(707)224-9600,Rental House/Dealer,thdrentalkeyaccount@homedepot.com
CA,Oceanside,3838 W Vista Way,Oceanside,92056,(760)945-9600,Rental House/Dealer,thdrentalkeyaccount@homedepot.com
CA,East Palmdale,37945 47th St E,Palmdale,93552,(661)538-9600,Rental House/Dealer,thdrentalkeyaccount@homedepot.com
CA,Panorama City,7870 Van Nuys Blvd,Panorama City,91402,(818)373-0046,Rental House/Dealer,thdrentalkeyaccount@homedepot.com
CA,Pasadena,3163 E Foothill Blvd,Pasadena,91107,(626)795-9600,Rental House/Dealer,thdrentalkeyaccount@homedepot.com
CA,Perris,3150 Case Road,Perris,92570,(951)943-6800,Rental House/Dealer,thdrentalkeyaccount@homedepot.com
CA,Pittsburg,2300 N Park Blvd,Pittsburg,94565,(925)473-1900,Rental House/Dealer,thdrentalkeyaccount@homedepot.com
CA,Placerville,600 Placerville Drive,Placerville,95667,(530)622-9600,Rental House/Dealer,thdrentalkeyaccount@homedepot.com
CA,Pomona,2707 S Towne Ave,Pomona,91766,(909)364-0078,Rental House/Dealer,thdrentalkeyaccount@homedepot.com
CA,Porterville,750 S Jaye St,Porterville,93257,(559)782-4611,Rental House/Dealer,thdrentalkeyaccount@homedepot.com
CA,Rancho Cordova,2756 Sunrise Blvd,Rancho Cordova,95742,(916)852-0900,Rental House/Dealer,thdrentalkeyaccount@homedepot.com
CA,Rancho Cucamonga,10640 Foothill Blvd,Rancho Cucamonga,91730,(909)581-9600,Rental House/Dealer,thdrentalkeyaccount@homedepot.com
CA,Rancho Mirage,34249 Monterey Ave,Rancho Mirage,92270,(760)324-0100,Rental House/Dealer,thdrentalkeyaccount@homedepot.com
CA,Red Bluff,120 Belle Mill Rd,Red Bluff,96080,(530)528-8579,Rental House/Dealer,thdrentalkeyaccount@homedepot.com
CA,Redding,1200 Churn Creek Rd,Redding,96003,(530)222-1313,Rental House/Dealer,thdrentalkeyaccount@homedepot.com
CA,Ridgecrest,575 N China Lake Blvd,Ridgecrest,93555,(760)375-4614,Rental House/Dealer,thdrentalkeyaccount@homedepot.com
CA,Riverbank,5230 Squire Wells Road,Riverbank,95367,(209)863-1370,Rental House/Dealer,thdrentalkeyaccount@homedepot.com
CA,Roseville,324 N Sunrise Ave,Roseville,95661,(916)782-9600,Rental House/Dealer,thdrentalkeyaccount@homedepot.com
CA,Meadowview,1461 Meadowview Rd,Sacramento,95832,(916)399-9905,Rental House/Dealer,thdrentalkeyaccount@homedepot.com
CA,Truxel Rd,4620 Truxel Rd,Sacramento,95834,(916)928-0722,Rental House/Dealer,thdrentalkeyaccount@homedepot.com
CA,San Bernardino,1055 W 21st St,San Bernardino,92405,(909)881-1851,Rental House/Dealer,thdrentalkeyaccount@homedepot.com
CA,Sports Arena,3555 Sports Arena Blvd,San Diego,92110,(619)224-9200,Rental House/Dealer,thdrentalkeyaccount@homedepot.com
CA,Mira Mesa,10680 Westview Pkwy,San Diego,92126,(858)653-6761,Rental House/Dealer,thdrentalkeyaccount@homedepot.com
CA,Fairmount Ave,5920 Fairmount Ave,San Diego,92120,(619)280-0230,Rental House/Dealer,thdrentalkeyaccount@homedepot.com
CA,San Leandro,1933 Davis St,San Leandro,94577,(510)636-9600,Rental House/Dealer,thdrentalkeyaccount@homedepot.com
CA,San Pedro,2115 N Gaffey St,San Pedro,90731,(310)221-0257,Rental House/Dealer,thdrentalkeyaccount@homedepot.com
CA,San Ramon,2750 Crow Canyon Rd,San Ramon,94583,(925)838-0194,Rental House/Dealer,thdrentalkeyaccount@homedepot.com
CA,Santa Clara,2435 Lafayette St,Santa Clara,95050,(408)492-9600,Rental House/Dealer,thdrentalkeyaccount@homedepot.com
CA,Newhall,28033 Newhall Ranch Rd,Santa Clarita,91355,(661)702-9925,Rental House/Dealer,thdrentalkeyaccount@homedepot.com
CA,Santa Maria,2120 S Bradley Rd,Santa Maria,93455,(805)739-1141,Rental House/Dealer,thdrentalkeyaccount@homedepot.com
CA,Santee,255 Town Ctr Pky,Santee,92071,(619)258-9600,Rental House/Dealer,thdrentalkeyaccount@homedepot.com
CA,Seaside,1590 Canyon Del Rey Blvd,Seaside,93955,(831)583-0778,Rental House/Dealer,thdrentalkeyaccount@homedepot.com
CA,Signal Hill,2450 Cherry Ave,Signal Hill,90755,(562)595-9200,Rental House/Dealer,thdrentalkeyaccount@homedepot.com
CA,Soquel,2600 41st Avenue,Soquel,95073,(831)462-5650,Rental House/Dealer,thdrentalkeyaccount@homedepot.com
CA,Stockton,3818 E Hammer Ln,Stockton,95212,(209)476-9600,Rental House/Dealer,thdrentalkeyaccount@homedepot.com
CA,Tehachapi,1000 W Tehachapi Blvd,Tehachapi,93561,(661)823-9600,Rental House/Dealer,thdrentalkeyaccount@homedepot.com
CA,Torrance,2501 Pacific Coast Hwy,Torrance,90505,(310)517-9600,Rental House/Dealer,thdrentalkeyaccount@homedepot.com
CA,Tracy,2461 Naglee Rd,Tracy,95304,(209)834-8975,Rental House/Dealer,thdrentalkeyaccount@homedepot.com
CA,Tustin,2782 El Camino Real,Tustin,92782,(714)838-9200,Rental House/Dealer,thdrentalkeyaccount@homedepot.com
CA,Ukiah,350 North Orchard Avenue,Ukiah,95482,(707)462-3009,Rental House/Dealer,thdrentalkeyaccount@homedepot.com
CA,Upland,250 S Mountain Ave,Upland,91786,(909)949-4119,Rental House/Dealer,thdrentalkeyaccount@homedepot.com
CA,Vallejo,1175 Admiral Callaghan Ln,Vallejo,94591,(707)552-9600,Rental House/Dealer,thdrentalkeyaccount@homedepot.com
CA,Van Nuys,6600 Sepulveda Blvd,Van Nuys,91411,(818)782-9600,Rental House/Dealer,thdrentalkeyaccount@homedepot.com
CA,Visalia,1620 E Noble Ave,Visalia,93292,(559)636-3600,Rental House/Dealer,thdrentalkeyaccount@homedepot.com
CA,Westminster,6633 Westminister Blvd,Westminster,92683,(714)373-5333,Rental House/Dealer,thdrentalkeyaccount@homedepot.com
CA,Whittier,10925 E Whittier Blvd,Whittier,90606,(562)789-4121,Rental House/Dealer,thdrentalkeyaccount@homedepot.com
CA,Windsor,6280 Hembree Ln,Windsor,95492,(707)836-0377,Rental House/Dealer,thdrentalkeyaccount@homedepot.com
CA,Yuba City,1100 Tharp Rd,Yuba City,95993,(530)755-1715,Rental House/Dealer,thdrentalkeyaccount@homedepot.com
CO,Aurora,14001 E Mississippi Ave,Aurora,80012,(303)751-7557,Rental House/Dealer,thdrentalkeyaccount@homedepot.com
CO,Pioneer Hills,5600 S Chambers Rd,Aurora,80015,(303)699-5006,Rental House/Dealer,thdrentalkeyaccount@homedepot.com
CO,Avon/Vail,295 Yoder Ave,Avon,81620,(970)748-9483,Rental House/Dealer,thdrentalkeyaccount@homedepot.com
CO,Boulder,1600 29th Street,Boulder,80301,(303)444-1221,Rental House/Dealer,thdrentalkeyaccount@homedepot.com
CO,Broomfield,12171 Sheridan Blvd,Broomfield,80020,(303)410-0861,Rental House/Dealer,thdrentalkeyaccount@homedepot.com
CO,Canon City,141 Mackenzie Avenue,Canon City,81212,(719)276-2452,Rental House/Dealer,thdrentalkeyaccount@homedepot.com
CO,Bear Valley,3130 S Sheridan Blvd,Denver,80227,(303)922-0444,Rental House/Dealer,thdrentalkeyaccount@homedepot.com
CO,Durango,1301 S Camino Del Rio,Durango,81303,(970)259-7954,Rental House/Dealer,thdrentalkeyaccount@homedepot.com
CO,Evergreen,1014 El Rancho Rd,Evergreen,80439,(303)526-4347,Rental House/Dealer,thdrentalkeyaccount@homedepot.com
CO,Firestone,10858 Jake Jabs Blvd,Firestone,80504,(303)678-1100,Rental House/Dealer,thdrentalkeyaccount@homedepot.com
CO,Fort Collins,4502 John F Kennedy P,Fort Collins,80525,(970)206-0771,Rental House/Dealer,thdrentalkeyaccount@homedepot.com
CO,Glendale,860 S Colorado Blvd,Glendale,80246,(720)524-2480,Rental House/Dealer,thdrentalkeyaccount@homedepot.com
CO,Grand Junction,2436 F Road,Grand Junction,81505,(970)241-8577,Rental House/Dealer,thdrentalkeyaccount@homedepot.com
CO,Park Meadows,8477 S Yosemite Ave,Lone Tree,80124,(303)706-1500,Rental House/Dealer,thdrentalkeyaccount@homedepot.com
CO,Longmont,393 S Hover Rd,Longmont,80501,(720)494-0319,Rental House/Dealer,thdrentalkeyaccount@homedepot.com
CO,Montrose,1401 Ogden Rd,Montrose,81401,(970)252-0272,Rental House/Dealer,thdrentalkeyaccount@homedepot.com
CO,Parker,11111 South Parker Road,Parker,80134,(303)805-9991,Rental House/Dealer,thdrentalkeyaccount@homedepot.com
CO,Pueblo,4450 N Freeway Rd,Pueblo,81008,(719)545-5400,Rental House/Dealer,thdrentalkeyaccount@homedepot.com
CO,Sterling,1614 W Main Street,Sterling,80751,(970)522-1599,Rental House/Dealer,thdrentalkeyaccount@homedepot.com
CO,Westminster,7125 W 88th Ave,Westminster,80021,(303)429-2498,Rental House/Dealer,thdrentalkeyaccount@homedepot.com
CT,Berlin,225 Berlin Turnpike,Berlin,06037,(860)828-9440,Rental House/Dealer,thdrentalkeyaccount@homedepot.com
CT,Bridgeport,656 Reservoir Ave,Bridgeport,06606,(203)372-7299,Rental House/Dealer,thdrentalkeyaccount@homedepot.com
CT,Danbury,114 Federal Rd,Danbury,06811,(203)730-9600,Rental House/Dealer,thdrentalkeyaccount@homedepot.com
CT,Derby,117 Main Street,Derby,06418,(203)734-1371,Rental House/Dealer,thdrentalkeyaccount@homedepot.com
CT,East Haven,75 Frontage Rd N,East Haven,06512,(203)467-2001,Rental House/Dealer,thdrentalkeyaccount@homedepot.com
CT,Enfield,136 Elm Street,Enfield,06082,(860)745-1900,Rental House/Dealer,thdrentalkeyaccount@homedepot.com
CT,Fairfield,541 Kings Hwy Cut-off,Fairfield,06824,(203)254-3888,Rental House/Dealer,thdrentalkeyaccount@homedepot.com
CT,Hamden,1873 Dixwell Avenue,Hamden,06514,(203)248-5925,Rental House/Dealer,thdrentalkeyaccount@homedepot.com
CT,Lisbon,142 River Rd,Lisbon,06351,(860)376-2047,Rental House/Dealer,thdrentalkeyaccount@homedepot.com
CT,New Hartford,1580 Litchfield Tpke,New Hartford,06057,(860)496-8620,Rental House/Dealer,thdrentalkeyaccount@homedepot.com
CT,New Milford,104 Danbury Road,New Milford,06776,(860)350-0304,Rental House/Dealer,thdrentalkeyaccount@homedepot.com
CT,North Haven,111 Universal Drive N,North Haven,06473,(203)234-1300,Rental House/Dealer,thdrentalkeyaccount@homedepot.com
CT,Windham,418 Boston Post Road,North Windham,06256,(860)465-5631,Rental House/Dealer,thdrentalkeyaccount@homedepot.com
CT,Norwalk,600 Connecticut Ave,Norwalk,06854,(203)854-9111,Rental House/Dealer,thdrentalkeyaccount@homedepot.com
CT,Orange,440 Boston Post Rd,Orange,06477,(203)799-1900,Rental House/Dealer,thdrentalkeyaccount@homedepot.com
CT,Southington,89 Interstate Park Drive,Southington,06489,(860)621-6770,Rental House/Dealer,thdrentalkeyaccount@homedepot.com
CT,Stratford,350 Barnum Ave Cutoff,Stratford,06614,(203)386-9815,Rental House/Dealer,thdrentalkeyaccount@homedepot.com
CT,Trumbull,90 Monroe Turnpike,Trumbull,06611,(203)880-2300,Rental House/Dealer,thdrentalkeyaccount@homedepot.com
CT,Montville,1932 Norwich-new London Tpke,Uncasville,06382,(860)848-9217,Rental House/Dealer,thdrentalkeyaccount@homedepot.com
CT,Waterford,816 Hartford Turnpike,Waterford,06385,(860)437-1900,Rental House/Dealer,thdrentalkeyaccount@homedepot.com
CT,West Hartford,503 New Park Ave,West Hartford,06110,(860)231-1919,Rental House/Dealer,thdrentalkeyaccount@homedepot.com
DC,NE Washington DC,901 Rhode Island Ave Ne,Washington,20018,(202)526-8760,Rental House/Dealer,thdrentalkeyaccount@homedepot.com
DE,Brandywine,601 Naamans Rd,Claymont,19703,(302)791-0200,Rental House/Dealer,thdrentalkeyaccount@homedepot.com
DE,Rehoboth Beach,17832 Coastal Hwy,Lewes,19958,(302)644-8270,Rental House/Dealer,thdrentalkeyaccount@homedepot.com
DE,Middletown,350 Auto Park Drive,Middletown,19709,(302)376-5063,Rental House/Dealer,thdrentalkeyaccount@homedepot.com
DE,Christiana,1301 New Churchmans Rd,Newark,19713,(302)369-6713,Rental House/Dealer,thdrentalkeyaccount@homedepot.com
DE,Wilmington,3600 Miller Road,Wilmington,19802,(302)762-3501,Rental House/Dealer,thdrentalkeyaccount@homedepot.com
FL,Forest City,750 E Altamonte Dr,Altamonte Springs,32714,(407)865-5410,Rental House/Dealer,thdrentalkeyaccount@homedepot.com
FL,Boynton Beach,1500 Sw 8th St,Boynton Beach,33426,(561)364-9600,Rental House/Dealer,thdrentalkeyaccount@homedepot.com
FL,E Bradenton,4605 14th St W,Bradenton,34207,(941)756-9600,Rental House/Dealer,thdrentalkeyaccount@homedepot.com
FL,Coral Springs,750 N University Dr,Coral Springs,33071,(954)752-4188,Rental House/Dealer,thdrentalkeyaccount@homedepot.com
FL,Crystal River,1500 N Suncoast Blvd,Crystal River,34429,(352)564-9600,Rental House/Dealer,thdrentalkeyaccount@homedepot.com
FL,Davie,2300 S University Dr,Davie,33324,(954)476-9600,Rental House/Dealer,thdrentalkeyaccount@homedepot.com
FL,Daytona Beach,2455 W Int'l Speedway Blvd,Daytona Beach,32114,(386)257-5114,Rental House/Dealer,thdrentalkeyaccount@homedepot.com
FL,Deerfield Beach,60 Sw 12th Ave,Deerfield Beach,33442,(954)427-0028,Rental House/Dealer,thdrentalkeyaccount@homedepot.com
FL,West Delray,15050 Jog Rd,Delray Beach,33446,(561)498-1251,Rental House/Dealer,thdrentalkeyaccount@homedepot.com
FL,East Delray Beach,1400 Waterford Place,Delray Beach,33444,(561)272-5127,Rental House/Dealer,thdrentalkeyaccount@homedepot.com
FL,Destin,4385 Commons Dr West,Destin,32541,(850)650-4175,Rental House/Dealer,thdrentalkeyaccount@homedepot.com
FL,E Fort Lauderdale,1951 N Federal Hwy,Fort Lauderdale,33305,(954)565-9600,Rental House/Dealer,thdrentalkeyaccount@homedepot.com
FL,West Griffin,2501 Griffin Rd,Fort Lauderdale,33312,(954)987-9600,Rental House/Dealer,thdrentalkeyaccount@homedepot.com
FL,Estero,16972 Three Oaks Marketplace Dr,Fort Myers,33912,(239)387-6600,Rental House/Dealer,thdrentalkeyaccount@homedepot.com
FL,Ft Myers East,3402 Forum Blvd,Fort Myers,33905,(239)278-5201,Rental House/Dealer,thdrentalkeyaccount@homedepot.com
FL,Ft Pierce,5880 Okeechobee Rd,Fort Pierce,34947,(772)489-3688,Rental House/Dealer,thdrentalkeyaccount@homedepot.com
FL,Ft Walton,230 Miracle Strip Pkwy,Fort Walton Beach,32548,(850)243-3400,Rental House/Dealer,thdrentalkeyaccount@homedepot.com
FL,Gainesville Ne,5150 Nw 13th Street,Gainesville,32609,(352)371-8459,Rental House/Dealer,thdrentalkeyaccount@homedepot.com
FL,Gainesville,7107 Nw 4th Blvd,Gainesville,32607,(352)332-7440,Rental House/Dealer,thdrentalkeyaccount@homedepot.com
FL,Hialeah,1590 W 49th St,Hialeah,33012,(305)827-6693,Rental House/Dealer,thdrentalkeyaccount@homedepot.com
FL,Jacksonville W (Oakleaf),9751 Crosshill Blvd,Jacksonville,32222,(904)771-3228,Rental House/Dealer,thdrentalkeyaccount@homedepot.com
FL,Deerwood,9950 Gate Pkwy N,Jacksonville,32246,(904)363-9600,Rental House/Dealer,thdrentalkeyaccount@homedepot.com
FL,Jacksonville Beach,3790 Third Street South,Jacksonville Beach,32250,(904)247-7225,Rental House/Dealer,thdrentalkeyaccount@homedepot.com
FL,Jensen Beach,3531 Nw Federal Hwy,Jensen Beach,34957,(772)692-9000,Rental House/Dealer,thdrentalkeyaccount@homedepot.com
FL,Key West,2015 N Roosevelt Blvd,Key West,33040,(305)295-1478,Rental House/Dealer,thdrentalkeyaccount@homedepot.com
FL,Kissimmee,2601 W Vine St,Kissimmee,34741,(407)935-9600,Rental House/Dealer,thdrentalkeyaccount@homedepot.com
FL,Lake City,215 Sw Home Depot Drive,Lake City,32025,(386)755-0761,Rental House/Dealer,thdrentalkeyaccount@homedepot.com
FL,Lake Mary,4600 W Lake Mary Blvd,Lake Mary,32746,(407)333-9650,Rental House/Dealer,thdrentalkeyaccount@homedepot.com
FL,Lake Worth,4241 Lake Worth Rd,Lake Worth,33461,(561)642-2626,Rental House/Dealer,thdrentalkeyaccount@homedepot.com
FL,Lake Worth II,5750 Jog Rd,Lake Worth,33467,(561)964-2168,Rental House/Dealer,thdrentalkeyaccount@homedepot.com
FL,Lantana,7233 Seacrest Blvd,Lantana,33462,(561)764-2100,Rental House/Dealer,thdrentalkeyaccount@homedepot.com
FL,Largo,13151 Walsingham Rd,Largo,33774,(727)581-3808,Rental House/Dealer,thdrentalkeyaccount@homedepot.com
FL,Leesburg,10825 Us Hwy 441,Leesburg,34788,(352)742-1252,Rental House/Dealer,thdrentalkeyaccount@homedepot.com
FL,Marathon,4555 Overseas Hwy,Marathon,33050,(305)289-1966,Rental House/Dealer,thdrentalkeyaccount@homedepot.com
FL,N Melbourne,1395 N Wickham Rd,Melbourne,32935,(321)242-9600,Rental House/Dealer,thdrentalkeyaccount@homedepot.com
FL,West Dade,11305 Sw 40th St,Miami,33165,(305)552-9005,Rental House/Dealer,thdrentalkeyaccount@homedepot.com
FL,Kendall,12700 Sw 88th St,Miami,33186,(305)386-1900,Rental House/Dealer,thdrentalkeyaccount@homedepot.com
FL,Coconut Grove,2901 Sw 27th Ave,Miami,33133,(305)443-5534,Rental House/Dealer,thdrentalkeyaccount@homedepot.com
FL,Miramar,3183 Sw 160th Ave,Miramar,33027,(954)392-0767,Rental House/Dealer,thdrentalkeyaccount@homedepot.com
FL,South Naples,1651 Airport Pulling Rd S,Naples,34112,(239)793-2203,Rental House/Dealer,thdrentalkeyaccount@homedepot.com
FL,Naples,6391 Naples Blvd,Naples,34109,(239)597-1515,Rental House/Dealer,thdrentalkeyaccount@homedepot.com
FL,N Miami Beach,16250 Biscayne Blvd,North Miami Beach,33160,(305)949-8566,Rental House/Dealer,thdrentalkeyaccount@homedepot.com
FL,North Port,18000 Tamiami Trail,North Port,34287,(941)240-5935,Rental House/Dealer,thdrentalkeyaccount@homedepot.com
FL,Oakland Park,3003 N Dixie Hwy,Oakland Park,33334,(954)566-9600,Rental House/Dealer,thdrentalkeyaccount@homedepot.com
FL,Ocala,3300 Sw 35th Terrace,Ocala,34474,(352)873-1144,Rental House/Dealer,thdrentalkeyaccount@homedepot.com
FL,Okeechobee,2700 Hwy 441 South,Okeechobee,34974,(863)467-0292,Rental House/Dealer,thdrentalkeyaccount@homedepot.com
FL,Orange City,2500 Enterprise Rd,Orange City,32763,(386)775-9600,Rental House/Dealer,thdrentalkeyaccount@homedepot.com
FL,Orange Park,1400 Park Ave,Orange Park,32073,(904)276-9600,Rental House/Dealer,thdrentalkeyaccount@homedepot.com
FL,Millenia,4101 Millenia Blvd,Orlando,32839,(407)226-1066,Rental House/Dealer,thdrentalkeyaccount@homedepot.com
FL,East Colonial,11500 E Colonial Dr,Orlando,32817,(407)380-9600,Rental House/Dealer,thdrentalkeyaccount@homedepot.com
FL,West Colonial,4001 W Colonial Dr,Orlando,32808,(407)295-9600,Rental House/Dealer,thdrentalkeyaccount@homedepot.com
FL,Oviedo,450 S Alafaya Trl,Oviedo,32765,(407)977-8566,Rental House/Dealer,thdrentalkeyaccount@homedepot.com
FL,Pace,4829 Highway 90,Pace,32571,(850)994-2260,Rental House/Dealer,thdrentalkeyaccount@homedepot.com
FL,Panama City,409 23rd St East,Panama City,32405,(850)913-8860,Rental House/Dealer,thdrentalkeyaccount@homedepot.com
FL,Panama City Beach,11500 Panama City Beach Pkwy,Panama City,32407,(850)234-2018,Rental House/Dealer,thdrentalkeyaccount@homedepot.com
FL,Pensacola West,5200 Mobile Hwy,Pensacola,32506,(850)453-3348,Rental House/Dealer,thdrentalkeyaccount@homedepot.com
FL,Englewood,12621 Mccall Road,Port Charlotte,33981,(941)698-4014,Rental House/Dealer,thdrentalkeyaccount@homedepot.com
FL,Port Orange,1551 Dunlawton Ave,Port Orange,32127,(386)760-6498,Rental House/Dealer,thdrentalkeyaccount@homedepot.com
FL,Sun City,3730 Sun City Center Blvd,Ruskin,33573,(813)633-3161,Rental House/Dealer,thdrentalkeyaccount@homedepot.com
FL,World Commerce Center,2905 International Golf Parkway,Saint Augustine,32092,(904)815-6300,Rental House/Dealer,thdrentalkeyaccount@homedepot.com
FL,West St Petersburg,2070 Tyrone Blvd N,Saint Petersburg,33710,(727)347-1833,Rental House/Dealer,thdrentalkeyaccount@homedepot.com
FL,St Pete,295 34th St N,Saint Petersburg,33713,(727)898-1100,Rental House/Dealer,thdrentalkeyaccount@homedepot.com
FL,Sebring,3600 Us Hwy 27 South,Sebring,33870,(863)471-6119,Rental House/Dealer,thdrentalkeyaccount@homedepot.com
FL,Stuart,3030 Se Federal Hwy,Stuart,34994,(772)223-7216,Rental House/Dealer,thdrentalkeyaccount@homedepot.com
FL,Sunrise,2901 N University Dr,Sunrise,33322,(954)747-8226,Rental House/Dealer,thdrentalkeyaccount@homedepot.com
FL,Sawgrass,12525 W Sunrise Blvd,Sunrise,33323,(954)835-9379,Rental House/Dealer,thdrentalkeyaccount@homedepot.com
FL,Tallahassee,3200 Capital Cir Ne,Tallahassee,32308,(850)422-2777,Rental House/Dealer,thdrentalkeyaccount@homedepot.com
FL,West Tallahassee,1490 Capital Cir Nw,Tallahassee,32303,(850)350-9001,Rental House/Dealer,thdrentalkeyaccount@homedepot.com
FL,Hillsborough,6730 Memorial Hwy,Tampa,33615,(813)888-7111,Rental House/Dealer,thdrentalkeyaccount@homedepot.com
FL,Bruce B Downs,17601 Bruce B Downs Blvd,Tampa,33647,(813)971-7791,Rental House/Dealer,thdrentalkeyaccount@homedepot.com
FL,Tampa,11315 Causeway Blvd,Tampa,33619,(813)620-9600,Rental House/Dealer,thdrentalkeyaccount@homedepot.com
FL,Venice,2450 Jacaranda Blvd,Venice,34293,(941)408-9400,Rental House/Dealer,thdrentalkeyaccount@homedepot.com
FL,Royal Palm,220 South State Road 7,West Palm Beach,33414,(561)793-7048,Rental House/Dealer,thdrentalkeyaccount@homedepot.com
FL,Wildwood,7368 Powell Road,Wildwood,34785,(352)461-5700,Rental House/Dealer,thdrentalkeyaccount@homedepot.com
GA,Albany,1219 Westover Blvd,Albany,31707,(229)446-2010,Rental House/Dealer,thdrentalkeyaccount@homedepot.com
GA,Athens,1740 Epps Bridge Rd,Athens,30606,(706)353-6079,Rental House/Dealer,thdrentalkeyaccount@homedepot.com
GA,Augusta,499 Bobby Jones Expy Ste B,Augusta,30907,(706)650-7662,Rental House/Dealer,thdrentalkeyaccount@homedepot.com
GA,Bainbridge,1414 Tallahassee Hwy,Bainbridge,39819,(229)246-1804,Rental House/Dealer,thdrentalkeyaccount@homedepot.com
GA,Blairsville,17 Hwy 515,Blairsville,30512,(706)781-1865,Rental House/Dealer,thdrentalkeyaccount@homedepot.com
GA,Blue Ridge,10012 Blueridge Drive,Blue Ridge,30513,(706)258-3555,Rental House/Dealer,thdrentalkeyaccount@homedepot.com
GA,Brunswick,200 Altama Connector,Brunswick,31520,(912)264-2025,Rental House/Dealer,thdrentalkeyaccount@homedepot.com
GA,Calhoun,1280 Curtis Pkwy Se,Calhoun,30701,(706)629-2509,Rental House/Dealer,thdrentalkeyaccount@homedepot.com
GA,Cartersville,100 Gentilly Blvd,Cartersville,30120,(770)606-0298,Rental House/Dealer,thdrentalkeyaccount@homedepot.com
GA,Cedartown,1500 Rome Highway,Cedartown,30125,(678)246-0107,Rental House/Dealer,thdrentalkeyaccount@homedepot.com
GA,Clayton,1551 Hwy 441 South,Clayton,30525,(706)782-4664,Rental House/Dealer,thdrentalkeyaccount@homedepot.com
GA,Columbus,2891 Sowega Dr,Columbus,31909,(706)322-9240,Rental House/Dealer,thdrentalkeyaccount@homedepot.com
GA,Commerce,230 Steven B Tanger Blvd,Commerce,30529,(706)335-5883,Rental House/Dealer,thdrentalkeyaccount@homedepot.com
GA,Cordele,2011 Central Ave Ext,Cordele,31015,(229)273-4380,Rental House/Dealer,thdrentalkeyaccount@homedepot.com
GA,Dahlonega,140 Maxwell Lane,Dahlonega,30533,(706)867-9618,Rental House/Dealer,thdrentalkeyaccount@homedepot.com
GA,Dalton,875 Shugart,Dalton,30720,(706)278-8881,Rental House/Dealer,thdrentalkeyaccount@homedepot.com
GA,Dublin,1833 Veterans Blvd,Dublin,31021,(478)272-4869,Rental House/Dealer,thdrentalkeyaccount@homedepot.com
GA,Augusta North,520 N Belair Rd,Evans,30809,(706)854-7832,Rental House/Dealer,thdrentalkeyaccount@homedepot.com
GA,Fayetteville,103 Pavillion Pkwy,Fayetteville,30214,(770)461-9819,Rental House/Dealer,thdrentalkeyaccount@homedepot.com
GA,Flowery Branch,5851 Spout Springs Rd,Flowery Branch,30542,(770)965-7877,Rental House/Dealer,thdrentalkeyaccount@homedepot.com
GA,Fort Oglethorpe,2055 Battlefield Pkwy,Fort Oglethorpe,30742,(706)858-0398,Rental House/Dealer,thdrentalkeyaccount@homedepot.com
GA,Greensboro,2490 Meadow Crest Road,Greensboro,30642,(706)454-1623,Rental House/Dealer,thdrentalkeyaccount@homedepot.com
GA,Griffin,1435 Highway 16 W,Griffin,30223,(770)233-9411,Rental House/Dealer,thdrentalkeyaccount@homedepot.com
GA,Hartwell,1700 Anderson Hwy,Hartwell,30643,(706)376-1748,Rental House/Dealer,thdrentalkeyaccount@homedepot.com
GA,Kennesaw,449 Roberts Ct Nw,Kennesaw,30144,(770)424-1309,Rental House/Dealer,thdrentalkeyaccount@homedepot.com
GA,Lagrange,1500 Lafayette Pkwy,Lagrange,30241,(706)882-9869,Rental House/Dealer,thdrentalkeyaccount@homedepot.com
GA,Lawrenceville,875 Lawrenceville-suwanee Rd,Lawrenceville,30043,(770)338-9830,Rental House/Dealer,thdrentalkeyaccount@homedepot.com
GA,Lilburn,4121 Hwy 78,Lilburn,30047,(770)985-1077,Rental House/Dealer,thdrentalkeyaccount@homedepot.com
GA,North Lilburn,4028 Lawrenceville Hwy,Lilburn,30047,(770)279-0632,Rental House/Dealer,thdrentalkeyaccount@homedepot.com
GA,Loganville,4141 Atlanta Hwy,Loganville,30052,(770)554-0472,Rental House/Dealer,thdrentalkeyaccount@homedepot.com
GA,W Macon,4635 Presidential Pkwy,Macon,31206,(478)477-0266,Rental House/Dealer,thdrentalkeyaccount@homedepot.com
GA,Monroe,2150 West Spring Street,Monroe,30655,(770)266-0550,Rental House/Dealer,thdrentalkeyaccount@homedepot.com
GA,Moultrie,450 Veterans Parkway North,Moultrie,31788,(229)985-6618,Rental House/Dealer,thdrentalkeyaccount@homedepot.com
GA,Newnan,1100 Bullsboro Dr,Newnan,30265,(770)252-1585,Rental House/Dealer,thdrentalkeyaccount@homedepot.com
GA,Pooler,190 Pooler Pkwy,Pooler,31322,(912)748-1642,Rental House/Dealer,thdrentalkeyaccount@homedepot.com
GA,NW Roswell/Westwind,870 Woodstock Rd,Roswell,30075,(678)461-0155,Rental House/Dealer,thdrentalkeyaccount@homedepot.com
GA,East Savannah,1901 E Victory Drive,Savannah,31404,(912)352-3562,Rental House/Dealer,thdrentalkeyaccount@homedepot.com
GA,Savannah,11180 Abercorn St,Savannah,31419,(912)921-0158,Rental House/Dealer,thdrentalkeyaccount@homedepot.com
GA,Brookwood,2635 Peachtree Pkwy,Suwanee,30024,(770)887-1256,Rental House/Dealer,thdrentalkeyaccount@homedepot.com
GA,Thomaston,1025 Highway 19 North,Thomaston,30286,(706)648-4800,Rental House/Dealer,thdrentalkeyaccount@homedepot.com
GA,Toccoa,302 Memorial Drive,Toccoa,30577,(706)886-5390,Rental House/Dealer,thdrentalkeyaccount@homedepot.com
GA,Valdosta,1825 Norman Dr,Valdosta,31601,(229)293-9008,Rental House/Dealer,thdrentalkeyaccount@homedepot.com
GA,Warner Robins,2620 Watson Blvd,Warner Robins,31093,(478)923-4594,Rental House/Dealer,thdrentalkeyaccount@homedepot.com
HI,Hilo,380 Makaala Street,Hilo,96720,(808)920-8400,Rental House/Dealer,thdrentalkeyaccount@homedepot.com
HI,Honolulu,421 Alakawa St,Honolulu,96817,(808)521-7355,Rental House/Dealer,thdrentalkeyaccount@homedepot.com
HI,Mapunapuna,1151 Mapunapuna Street,Honolulu,96819,(808)582-9100,Rental House/Dealer,thdrentalkeyaccount@homedepot.com
HI,Maui,100 Pakaula St,Kahului,96732,(808)893-7800,Rental House/Dealer,thdrentalkeyaccount@homedepot.com
HI,Kona,73-5598 Olowalu St,Kailua Kona,96740,(808)326-6013,Rental House/Dealer,thdrentalkeyaccount@homedepot.com
HI,Kapolei,4600 Kapolei Pkwy,Kapolei,96707,(808)674-6120,Rental House/Dealer,thdrentalkeyaccount@homedepot.com
HI,Lihue-Kauai,4320 Nuhou Street,Lihue,96766,(808)632-2740,Rental House/Dealer,thdrentalkeyaccount@homedepot.com
HI,Pearl City,1021 Kamehameha Hwy,Pearl City,96782,(808)455-1200,Rental House/Dealer,thdrentalkeyaccount@homedepot.com
IA,Ankeny,2335 Se Delaware Ave,Ankeny,50021,(515)963-1890,Rental House/Dealer,thdrentalkeyaccount@homedepot.com
IA,Bettendorf,920 Middle Rd,Bettendorf,52722,(563)359-7228,Rental House/Dealer,thdrentalkeyaccount@homedepot.com
IA,Cedar Rapids,4501 1st Avenue Se,Cedar Rapids,52402,(319)294-0480,Rental House/Dealer,thdrentalkeyaccount@homedepot.com
IA,Clinton,1850 Lincoln Way,Clinton,52732,(563)242-0349,Rental House/Dealer,thdrentalkeyaccount@homedepot.com
IA,Council Bluffs,3101 Manawa Center Dr,Council Bluffs,51501,(712)366-7814,Rental House/Dealer,thdrentalkeyaccount@homedepot.com
IA,Southeast Des Moines,4900 Se 14th St,Des Moines,50320,(515)287-7269,Rental House/Dealer,thdrentalkeyaccount@homedepot.com
IA,Sioux City,415 Cunningham Dr Ste 2114,Sioux City,51106,(712)255-5310,Rental House/Dealer,thdrentalkeyaccount@homedepot.com
IA,Urbandale,10850 Plum Drive,Urbandale,50322,(515)251-5819,Rental House/Dealer,thdrentalkeyaccount@homedepot.com
IA,Waterloo,1050 Southtown Dr,Waterloo,50702,(319)232-8889,Rental House/Dealer,thdrentalkeyaccount@homedepot.com
IA,West Des Moines,3700 University Ave,West Des Moines,50266,(515)221-2233,Rental House/Dealer,thdrentalkeyaccount@homedepot.com
ID,Boise,1200 Milwaukee St,Boise,83704,(208)375-1186,Rental House/Dealer,thdrentalkeyaccount@homedepot.com
ID,East Boise,3639 E Federal Way,Boise,83705,(208)388-8500,Rental House/Dealer,thdrentalkeyaccount@homedepot.com
ID,Caldwell,4106 Hwy 20/26,Caldwell,83605,(208)504-4427,Rental House/Dealer,thdrentalkeyaccount@homedepot.com
ID,Pocatello,4340 Hawthorne Rd,Chubbuck,83202,(208)637-1008,Rental House/Dealer,thdrentalkeyaccount@homedepot.com
ID,Coeur D Alene,220 W Kathleen Ave,Coeur D Alene,83815,(208)676-1441,Rental House/Dealer,thdrentalkeyaccount@homedepot.com
ID,Eagle,2808 E State Street,Eagle,83616,(208)939-7648,Rental House/Dealer,thdrentalkeyaccount@homedepot.com
ID,Idaho Falls,2075 S Holmes Ave,Idaho Falls,83404,(208)542-2520,Rental House/Dealer,thdrentalkeyaccount@homedepot.com
ID,Lewiston,2425 Thain Grade,Lewiston,83501,(208)743-5097,Rental House/Dealer,thdrentalkeyaccount@homedepot.com
ID,Moscow,271 Farm Rd,Moscow,83843,(208)997-5200,Rental House/Dealer,thdrentalkeyaccount@homedepot.com
ID,Nampa,2003 N Cassia St,Nampa,83651,(208)461-6476,Rental House/Dealer,thdrentalkeyaccount@homedepot.com
ID,Sandpoint,500 Kootenai Cut-off Rd,Ponderay,83852,(208)263-2373,Rental House/Dealer,thdrentalkeyaccount@homedepot.com
ID,Twin Falls,1650 Pole Line Rd E,Twin Falls,83301,(208)737-0731,Rental House/Dealer,thdrentalkeyaccount@homedepot.com
IL,Alsip,12000 South Cicero Ave,Alsip,60803,(708)239-1873,Rental House/Dealer,thdrentalkeyaccount@homedepot.com
IL,Alton,1710 Homer Adams Pkwy,Alton,62002,(618)465-5803,Rental House/Dealer,thdrentalkeyaccount@homedepot.com
IL,West Aurora,1250 N Orchard Rd,Aurora,60506,(630)907-1480,Rental House/Dealer,thdrentalkeyaccount@homedepot.com
IL,Bartlett,950 Il Rte 59,Bartlett,60103,(630)289-6247,Rental House/Dealer,thdrentalkeyaccount@homedepot.com
IL,Belleville,5501 Belleville Crossing St,Belleville,62226,(618)239-3351,Rental House/Dealer,thdrentalkeyaccount@homedepot.com
IL,Bolingbrook,105 N Weber Rd,Bolingbrook,60490,(630)771-1109,Rental House/Dealer,thdrentalkeyaccount@homedepot.com
IL,Broadview,700 Broadview Village Sq,Broadview,60155,(708)865-9900,Rental House/Dealer,thdrentalkeyaccount@homedepot.com
IL,Calumet City,1550 Torrence Ave,Calumet City,60409,(708)730-9100,Rental House/Dealer,thdrentalkeyaccount@homedepot.com
IL,Champaign,820 Bloomington Rd,Champaign,61820,(217)356-2629,Rental House/Dealer,thdrentalkeyaccount@homedepot.com
IL,Dan Ryan,200 W 87th St #232,Chicago,60620,(773)602-1301,Rental House/Dealer,thdrentalkeyaccount@homedepot.com
IL,Brickyard,2555 N Normandy Ave,Chicago,60707,(773)745-9900,Rental House/Dealer,thdrentalkeyaccount@homedepot.com
IL,Kimball & Addison,3500 N Kimball Ave,Chicago,60618,(773)463-6306,Rental House/Dealer,thdrentalkeyaccount@homedepot.com
IL,Elston/Leavitt,2570 N Elston Ave,Chicago,60647,(773)289-4615,Rental House/Dealer,thdrentalkeyaccount@homedepot.com
IL,47th And Western,4555 S Western Blvd,Chicago,60609,(773)247-4766,Rental House/Dealer,thdrentalkeyaccount@homedepot.com
IL,Armitage / Cicero,1919 N Cicero Ave,Chicago,60639,(773)622-8860,Rental House/Dealer,thdrentalkeyaccount@homedepot.com
IL,South Loop,1300 S Clinton Street,Chicago,60607,(312)850-4836,Rental House/Dealer,thdrentalkeyaccount@homedepot.com
IL,Lincoln Park,2665 N Halsted,Chicago,60614,(773)472-7740,Rental House/Dealer,thdrentalkeyaccount@homedepot.com
IL,Cicero,2803 S Cicero Ave,Cicero,60804,(708)863-9600,Rental House/Dealer,thdrentalkeyaccount@homedepot.com
IL,Crystal Lake,4447 Us Highway 14,Crystal Lake,60014,(815)479-1030,Rental House/Dealer,thdrentalkeyaccount@homedepot.com
IL,Darien,2101 West 75th St,Darien,60561,(630)271-9600,Rental House/Dealer,thdrentalkeyaccount@homedepot.com
IL,Deerfield,655 Lake Cook Rd,Deerfield,60015,(847)564-8601,Rental House/Dealer,thdrentalkeyaccount@homedepot.com
IL,Edwardsville,2500 Troy Rd,Edwardsville,62025,(618)659-3682,Rental House/Dealer,thdrentalkeyaccount@homedepot.com
IL,Geneva,2111 So Randall Rd,Geneva,60134,(630)262-0380,Rental House/Dealer,thdrentalkeyaccount@homedepot.com
IL,Glenview,2850 Patriot Blvd,Glenview,60026,(847)400-5390,Rental House/Dealer,thdrentalkeyaccount@homedepot.com
IL,Jacksonville,1601 W Morton Avenue,Jacksonville,62650,(217)243-6051,Rental House/Dealer,thdrentalkeyaccount@homedepot.com
IL,Joliet,3001 Plainfield Rd,Joliet,60435,(815)577-9854,Rental House/Dealer,thdrentalkeyaccount@homedepot.com
IL,Machesney Park,1580 W Ln Rd,Machesney Park,61115,(815)282-8234,Rental House/Dealer,thdrentalkeyaccount@homedepot.com
IL,Marion,3200 Banterra Dr,Marion,62959,(618)997-7100,Rental House/Dealer,thdrentalkeyaccount@homedepot.com
IL,Matteson,20808 Cicero Ave,Matteson,60443,(708)481-1551,Rental House/Dealer,thdrentalkeyaccount@homedepot.com
IL,Mattoon,1301 Fort Worth Way,Mattoon,61938,(217)235-0700,Rental House/Dealer,thdrentalkeyaccount@homedepot.com
IL,Mchenry,2461 N Richmond Road,Mchenry,60051,(815)385-9503,Rental House/Dealer,thdrentalkeyaccount@homedepot.com
IL,Randhurst,350 E Kensington Rd,Mount Prospect,60056,(847)342-1800,Rental House/Dealer,thdrentalkeyaccount@homedepot.com
IL,Mundelein,3200 West Route 60,Mundelein,60060,(847)566-6532,Rental House/Dealer,thdrentalkeyaccount@homedepot.com
IL,Naperville,2920 Audrey Ave,Naperville,60540,(630)637-9200,Rental House/Dealer,thdrentalkeyaccount@homedepot.com
IL,Niles,901 Civic Center Dr,Niles,60714,(847)967-3200,Rental House/Dealer,thdrentalkeyaccount@homedepot.com
IL,Normal,795 Veterans Parkway,Normal,61761,(309)452-4031,Rental House/Dealer,thdrentalkeyaccount@homedepot.com
IL,Northlake,37 W North Ave,Northlake,60164,(708)409-0222,Rental House/Dealer,thdrentalkeyaccount@homedepot.com
IL,Oak Lawn,4060 W 95th St,Oak Lawn,60453,(708)423-3126,Rental House/Dealer,thdrentalkeyaccount@homedepot.com
IL,Oakbrook Terrace,17w734 22nd St,Oakbrook Terrace,60181,(630)261-1240,Rental House/Dealer,thdrentalkeyaccount@homedepot.com
IL,Orland Park,7300 W 159th St,Orland Park,60462,(708)614-9200,Rental House/Dealer,thdrentalkeyaccount@homedepot.com
IL,Oswego,3080 Rte 34,Oswego,60543,(630)554-7092,Rental House/Dealer,thdrentalkeyaccount@homedepot.com
IL,Peoria,5026 W Holiday Dr,Peoria,61615,(309)693-3819,Rental House/Dealer,thdrentalkeyaccount@homedepot.com
IL,Peru,4242 Venture Dr,Peru,61354,(815)224-2968,Rental House/Dealer,thdrentalkeyaccount@homedepot.com
IL,Quincy,5432 Broadway St,Quincy,62305,(217)228-2475,Rental House/Dealer,thdrentalkeyaccount@homedepot.com
IL,Rockford,6930 Argus Dr,Rockford,61107,(815)391-8880,Rental House/Dealer,thdrentalkeyaccount@homedepot.com
IL,Schaumburg,100 Barrington Road,Schaumburg,60194,(847)798-8700,Rental House/Dealer,thdrentalkeyaccount@homedepot.com
IL,Shorewood,621 Brookforest Ave,Shorewood,60404,(815)725-6301,Rental House/Dealer,thdrentalkeyaccount@homedepot.com
IL,South Elgin,440 Randall Road,South Elgin,60177,(847)214-8718,Rental House/Dealer,thdrentalkeyaccount@homedepot.com
IL,Vernon Hills,493 N Milwaukee Ave,Vernon Hills,60061,(847)549-0110,Rental House/Dealer,thdrentalkeyaccount@homedepot.com
IL,Waukegan,2001 Belvedere Rd,Waukegan,60085,(847)625-1020,Rental House/Dealer,thdrentalkeyaccount@homedepot.com
IL,Woodridge,7200 Woodward Ave,Woodridge,60517,(630)795-1950,Rental House/Dealer,thdrentalkeyaccount@homedepot.com
IL,Yorkville,735 Edward Lane,Yorkville,60560,(630)882-8159,Rental House/Dealer,thdrentalkeyaccount@homedepot.com
IN,Auburn,403 Smaltz Way,Auburn,46706,(260)920-1866,Rental House/Dealer,thdrentalkeyaccount@homedepot.com
IN,Carmel,9855 North Michigan Rd,Carmel,46032,(317)870-7680,Rental House/Dealer,thdrentalkeyaccount@homedepot.com
IN,Clarksville,1000 E Hwy 131,Clarksville,47129,(812)282-0470,Rental House/Dealer,thdrentalkeyaccount@homedepot.com
IN,Crawfordsville,1710 Us 231 South,Crawfordsville,47933,(765)361-9306,Rental House/Dealer,thdrentalkeyaccount@homedepot.com
IN,Evansville,333 N Burkhardt Rd,Evansville,47715,(812)471-1132,Rental House/Dealer,thdrentalkeyaccount@homedepot.com
IN,West Evansville,5230 Pearl Dr,Evansville,47712,(812)423-7710,Rental House/Dealer,thdrentalkeyaccount@homedepot.com
IN,Ft Wayne,6235 Lima Rd,Fort Wayne,46818,(260)749-9315,Rental House/Dealer,thdrentalkeyaccount@homedepot.com
IN,Greenfield,2055 Barrett Dr,Greenfield,46140,(317)467-6920,Rental House/Dealer,thdrentalkeyaccount@homedepot.com
IN,Greenwood,850 S St Rd 135,Greenwood,46143,(317)881-5017,Rental House/Dealer,thdrentalkeyaccount@homedepot.com
IN,Hammond,1624 E 165th Street,Hammond,46320,(219)844-5134,Rental House/Dealer,thdrentalkeyaccount@homedepot.com
IN,Post Road,2225 N Post Rd,Indianapolis,46219,(317)890-9791,Rental House/Dealer,thdrentalkeyaccount@homedepot.com
IN,Southport,4850 E Southport Rd,Indianapolis,46237,(317)780-8881,Rental House/Dealer,thdrentalkeyaccount@homedepot.com
IN,Eagle Creek,3902 N High School Rd,Indianapolis,46254,(317)293-4256,Rental House/Dealer,thdrentalkeyaccount@homedepot.com
IN,Castleton,9320 Corporation Dr,Indianapolis,46256,(317)915-8534,Rental House/Dealer,thdrentalkeyaccount@homedepot.com
IN,Jasper,4250 Newton St,Jasper,47546,(812)482-3533,Rental House/Dealer,thdrentalkeyaccount@homedepot.com
IN,Lafayette,311 Sagamore Pkwy,Lafayette,47904,(765)449-1546,Rental House/Dealer,thdrentalkeyaccount@homedepot.com
IN,Logansport,4120 E Market St,Logansport,46947,(574)739-1337,Rental House/Dealer,thdrentalkeyaccount@homedepot.com
IN,Southlake,2851 E Us Hwy 30,Merrillville,46410,(219)942-2136,Rental House/Dealer,thdrentalkeyaccount@homedepot.com
IN,Mishawaka,317 Indian Ridge Blvd,Mishawaka,46545,(574)273-8601,Rental House/Dealer,thdrentalkeyaccount@homedepot.com
IN,New Albany,2239 State St,New Albany,47150,(812)941-4121,Rental House/Dealer,thdrentalkeyaccount@homedepot.com
IN,Noblesville,3300 Conner St,Noblesville,46060,(317)774-8087,Rental House/Dealer,thdrentalkeyaccount@homedepot.com
IN,Seymour,1714 Tipton St,Seymour,47274,(812)524-8012,Rental House/Dealer,thdrentalkeyaccount@homedepot.com
IN,Valparaiso,2430 Laporte Ave,Valparaiso,46383,(219)531-6687,Rental House/Dealer,thdrentalkeyaccount@homedepot.com
KS,Garden City,3110 E Kansas Ave,Garden City,67846,(620)275-5943,Rental House/Dealer,thdrentalkeyaccount@homedepot.com
KS,Hays,1310 East 41st Street,Hays,67601,(785)625-0044,Rental House/Dealer,thdrentalkeyaccount@homedepot.com
KS,Hutchinson,1907 E 17th Ave,Hutchinson,67501,(620)728-0460,Rental House/Dealer,thdrentalkeyaccount@homedepot.com
KS,Leavenworth,5000 S 4th St,Leavenworth,66048,(913)727-1978,Rental House/Dealer,thdrentalkeyaccount@homedepot.com
KS,Manhattan,605 S Seth Child Rd,Manhattan,66502,(785)537-6810,Rental House/Dealer,thdrentalkeyaccount@homedepot.com
KS,Merriam,5700 Antioch Rd,Merriam,66202,(913)789-8899,Rental House/Dealer,thdrentalkeyaccount@homedepot.com
KS,Olathe,11850 S Strang Line Rd,Olathe,66062,(913)768-1600,Rental House/Dealer,thdrentalkeyaccount@homedepot.com
KS,S Overland Park,8000 W 135th St,Overland Park,66223,(913)851-9961,Rental House/Dealer,thdrentalkeyaccount@homedepot.com
KS,Pittsburg,3001 N Broadway,Pittsburg,66762,(620)231-0831,Rental House/Dealer,thdrentalkeyaccount@homedepot.com
KS,Shawnee,15501 W 67th St,Shawnee,66217,(913)631-1005,Rental House/Dealer,thdrentalkeyaccount@homedepot.com
KS,Topeka,5900 Sw Huntoon St,Topeka,66604,(785)272-5949,Rental House/Dealer,thdrentalkeyaccount@homedepot.com
KS,East Wichita,3350 N Woodlawn,Wichita,67220,(316)681-0899,Rental House/Dealer,thdrentalkeyaccount@homedepot.com
KS,West Wichita,8444 W Mccormick Ave,Wichita,67209,(316)773-1988,Rental House/Dealer,thdrentalkeyaccount@homedepot.com
KY,Bowling Green,2233 Gary Farms Blvd,Bowling Green,42104,(270)393-0464,Rental House/Dealer,thdrentalkeyaccount@homedepot.com
KY,Cold Spring,415 Crossroads Blvd,Cold Spring,41076,(859)572-0018,Rental House/Dealer,thdrentalkeyaccount@homedepot.com
KY,Crescent Springs,500 Clock Tower Way,Crescent Springs,41017,(859)331-4500,Rental House/Dealer,thdrentalkeyaccount@homedepot.com
KY,Elizabethtown,1510 Ring Rd,Elizabethtown,42701,(270)763-6827,Rental House/Dealer,thdrentalkeyaccount@homedepot.com
KY,Florence,99 Spiral Blvd,Florence,41042,(859)283-1460,Rental House/Dealer,thdrentalkeyaccount@homedepot.com
KY,Lexington,2397 Richmond Rd,Lexington,40502,(859)269-4774,Rental House/Dealer,thdrentalkeyaccount@homedepot.com
KY,Turfland,2021 Harrodsburg Rd,Lexington,40504,(859)373-0594,Rental House/Dealer,thdrentalkeyaccount@homedepot.com
KY,Hurstbourne Road,2600 S Hurstbourne Pkwy,Louisville,40220,(502)491-3682,Rental House/Dealer,thdrentalkeyaccount@homedepot.com
KY,Dixie Highway,6840 Dixie Hwy,Louisville,40258,(502)933-3332,Rental House/Dealer,thdrentalkeyaccount@homedepot.com
KY,Westport,10301 Westport Rd,Louisville,40241,(502)339-7909,Rental House/Dealer,thdrentalkeyaccount@homedepot.com
KY,Preston Hwy,8232 Preston Hwy,Louisville,40219,(502)964-1845,Rental House/Dealer,thdrentalkeyaccount@homedepot.com
KY,St Matthews,964 Breckenridge Ln,Louisville,40207,(502)899-3706,Rental House/Dealer,thdrentalkeyaccount@homedepot.com
KY,Owensboro,5150 Frederica St,Owensboro,42301,(270)683-9923,Rental House/Dealer,thdrentalkeyaccount@homedepot.com
KY,Paducah,2801 James Sanders Rd,Paducah,42001,(270)442-0817,Rental House/Dealer,thdrentalkeyaccount@homedepot.com
LA,Alexandria,5000 Masonic Dr,Alexandria,71301,(318)767-8988,Rental House/Dealer,thdrentalkeyaccount@homedepot.com
LA,Southeast Baton Rouge,18139 Highland Rd,Baton Rouge,70810,(225)755-1729,Rental House/Dealer,thdrentalkeyaccount@homedepot.com
LA,North Baton Rouge,8181 Airline Hwy,Baton Rouge,70815,(225)201-1778,Rental House/Dealer,thdrentalkeyaccount@homedepot.com
LA,Bossier City,2800 Airline Dr,Bossier City,71111,(318)752-3601,Rental House/Dealer,thdrentalkeyaccount@homedepot.com
LA,Gretna,62 Westbank Expy,Gretna,70053,(504)362-3460,Rental House/Dealer,thdrentalkeyaccount@homedepot.com
LA,Harahan,5151 Citrus Blvd,Harahan,70123,(504)729-4400,Rental House/Dealer,thdrentalkeyaccount@homedepot.com
LA,Houma,1111 Martin Luther King Blvd,Houma,70360,(985)223-1485,Rental House/Dealer,thdrentalkeyaccount@homedepot.com
LA,Lake Charles,3200 E Prien Lake Rd,Lake Charles,70615,(337)475-9998,Rental House/Dealer,thdrentalkeyaccount@homedepot.com
LA,Marrero,4600 Lapalco,Marrero,70072,(504)341-3682,Rental House/Dealer,thdrentalkeyaccount@homedepot.com
LA,Monroe,3750 Millhaven Rd,Monroe,71203,(318)324-0220,Rental House/Dealer,thdrentalkeyaccount@homedepot.com
LA,I-10 Bullard,12300 I-10 Service Rd,New Orleans,70128,(504)246-4572,Rental House/Dealer,thdrentalkeyaccount@homedepot.com
LA,West Shreveport,6900 Pines Road,Shreveport,71129,(318)686-3054,Rental House/Dealer,thdrentalkeyaccount@homedepot.com
MA,Avon,60 Stockwell Dr,Avon,02322,(508)580-0600,Rental House/Dealer,thdrentalkeyaccount@homedepot.com
MA,South Bay/Boston,5 Allstate Road South Ctr,Boston,02125,(617)442-6110,Rental House/Dealer,thdrentalkeyaccount@homedepot.com
MA,Bridgewater,1453 Pleasant Street,Bridgewater,02324,(508)697-6927,Rental House/Dealer,thdrentalkeyaccount@homedepot.com
MA,Brockton,715 Crescent Street,Brockton,02302,(508)427-9970,Rental House/Dealer,thdrentalkeyaccount@homedepot.com
MA,Chelsea,1100 Revere Beach Pkwy,Chelsea,02150,(617)887-9560,Rental House/Dealer,thdrentalkeyaccount@homedepot.com
MA,Danvers East,235 Independence Way,Danvers,01923,(978)750-8883,Rental House/Dealer,thdrentalkeyaccount@homedepot.com
MA,Danvers,92 Newbury St,Danvers,01923,(978)774-0400,Rental House/Dealer,thdrentalkeyaccount@homedepot.com
MA,Greenfield,264 Mohawk Trail - Rt 2,Greenfield,01301,(413)773-9150,Rental House/Dealer,thdrentalkeyaccount@homedepot.com
MA,Hadley,350 Russell Street,Hadley,01035,(413)587-2790,Rental House/Dealer,thdrentalkeyaccount@homedepot.com
MA,Hyannis,65 Independence Drive,Hyannis,02601,(508)771-0148,Rental House/Dealer,thdrentalkeyaccount@homedepot.com
MA,Natick,339 Speen St,Natick,01760,(508)647-9600,Rental House/Dealer,thdrentalkeyaccount@homedepot.com
MA,Oxford,99 Sutton Avenue,Oxford,01540,(508)987-2151,Rental House/Dealer,thdrentalkeyaccount@homedepot.com
MA,Pittsfield,"555 Hubbard Ave, Unit 21",Pittsfield,01201,(413)445-9901,Rental House/Dealer,thdrentalkeyaccount@homedepot.com
MA,Quincy,177 Willard St,Quincy,02169,(617)376-0380,Rental House/Dealer,thdrentalkeyaccount@homedepot.com
MA,Rockland,1149 Hingham St,Rockland,02370,(781)871-6200,Rental House/Dealer,thdrentalkeyaccount@homedepot.com
MA,Salem,50 Traders Way,Salem,01970,(978)741-9299,Rental House/Dealer,thdrentalkeyaccount@homedepot.com
MA,Saugus,564 Broadway,Saugus,01906,(781)231-9500,Rental House/Dealer,thdrentalkeyaccount@homedepot.com
MA,Seekonk,95 Highland Ave,Seekonk,02771,(508)336-2563,Rental House/Dealer,thdrentalkeyaccount@homedepot.com
MA,Taunton,899 County Street,Taunton,02780,(508)880-5960,Rental House/Dealer,thdrentalkeyaccount@homedepot.com
MA,Waltham,100 First Ave,Waltham,02451,(781)672-0900,Rental House/Dealer,thdrentalkeyaccount@homedepot.com
MA,Watertown,615 Arsenal St,Watertown,02472,(617)926-0299,Rental House/Dealer,thdrentalkeyaccount@homedepot.com
MA,West Roxbury,1213 Vfw Parkway,West Roxbury,02132,(617)327-5000,Rental House/Dealer,thdrentalkeyaccount@homedepot.com
MD,Aberdeen,979 Beards Hill Rd,Aberdeen,21001,(410)272-8930,Rental House/Dealer,thdrentalkeyaccount@homedepot.com
MD,Annapolis,145 Defense Hwy,Annapolis,21401,(410)571-1106,Rental House/Dealer,thdrentalkeyaccount@homedepot.com
MD,S Annapolis,55 Forest Plaza,Annapolis,21401,(410)897-9077,Rental House/Dealer,thdrentalkeyaccount@homedepot.com
MD,Aspen Hill,14000 Georgia Ave,Aspen Hill,20906,(301)871-0603,Rental House/Dealer,thdrentalkeyaccount@homedepot.com
MD,White Marsh,9955 Pulaski Hwy (white Marsh),Baltimore,21220,(410)686-0150,Rental House/Dealer,thdrentalkeyaccount@homedepot.com
MD,Dundalk,6315 Eastern Ave (dundalk),Baltimore,21224,(410)631-4440,Rental House/Dealer,thdrentalkeyaccount@homedepot.com
MD,Reisterstown,6620 Reisterstown Rd,Baltimore,21215,(410)358-4046,Rental House/Dealer,thdrentalkeyaccount@homedepot.com
MD,Ocean City,11408 Ocean Gateway,Berlin,21811,(410)629-1465,Rental House/Dealer,thdrentalkeyaccount@homedepot.com
MD,Bethesda,7111 Westlake Terrace,Bethesda,20817,(301)365-3726,Rental House/Dealer,thdrentalkeyaccount@homedepot.com
MD,Capitol Heights,150 Hampton Park Blvd,Capitol Heights,20743,(301)324-0180,Rental House/Dealer,thdrentalkeyaccount@homedepot.com
MD,Catonsville,6000 Baltimore National Pike,Catonsville,21228,(410)719-9200,Rental House/Dealer,thdrentalkeyaccount@homedepot.com
MD,College Park,4700 Cherry Hill Rd,College Park,20740,(301)345-6774,Rental House/Dealer,thdrentalkeyaccount@homedepot.com
MD,Columbia,9051 Snowden River Pkwy,Columbia,21046,(410)872-0688,Rental House/Dealer,thdrentalkeyaccount@homedepot.com
MD,West Frederick,51 N Mccain Drive,Frederick,21702,(301)644-2840,Rental House/Dealer,thdrentalkeyaccount@homedepot.com
MD,Frederick,5517 Urbana Pike,Frederick,21704,(301)620-0571,Rental House/Dealer,thdrentalkeyaccount@homedepot.com
MD,Gaithersburg,15740 Shady Grove Rd,Gaithersburg,20877,(301)330-4900,Rental House/Dealer,thdrentalkeyaccount@homedepot.com
MD,Germantown,21010 Frederick Rd,Germantown,20876,(301)515-7944,Rental House/Dealer,thdrentalkeyaccount@homedepot.com
MD,Pasadena,66 Mountain Rd,Glen Burnie,21060,(443)572-0077,Rental House/Dealer,thdrentalkeyaccount@homedepot.com
MD,Hagerstown,17610 Garland Groh Blvd,Hagerstown,21740,(301)791-2886,Rental House/Dealer,thdrentalkeyaccount@homedepot.com
MD,Hyattsville,3301 E West Hwy,Hyattsville,20782,(301)891-1105,Rental House/Dealer,thdrentalkeyaccount@homedepot.com
MD,Lanham,10301 M L King Jr. Hwy,Lanham,20706,(301)805-8149,Rental House/Dealer,thdrentalkeyaccount@homedepot.com
MD,Laurel,210 Fort Meade Road,Laurel,20707,(301)497-7604,Rental House/Dealer,thdrentalkeyaccount@homedepot.com
MD,Owings Mills,9818 Reisterstown Rd,Owings Mills,21117,(410)356-1037,Rental House/Dealer,thdrentalkeyaccount@homedepot.com
MD,Oxon Hill,6003 Oxon Hill Rd,Oxon Hill,20745,(301)839-9600,Rental House/Dealer,thdrentalkeyaccount@homedepot.com
MD,Towson,1971 E Joppa Rd (towson),Parkville,21234,(410)882-1900,Rental House/Dealer,thdrentalkeyaccount@homedepot.com
MD,Parkville,2501 Cleanleigh Dr,Parkville,21234,(410)661-8555,Rental House/Dealer,thdrentalkeyaccount@homedepot.com
MD,Randallstown,8729 Liberty Road,Randallstown,21133,(410)496-7041,Rental House/Dealer,thdrentalkeyaccount@homedepot.com
MD,Salisbury,115 E Northpointe Dr,Salisbury,21804,(410)543-9000,Rental House/Dealer,thdrentalkeyaccount@homedepot.com
MD,Eldersburg,1326 Londontown Blvd,Sykesville,21784,(410)549-3559,Rental House/Dealer,thdrentalkeyaccount@homedepot.com
MD,Upper Marlboro,15410 Checelor Drive,Upper Marlboro,20772,(301)780-6555,Rental House/Dealer,thdrentalkeyaccount@homedepot.com
MD,Waldorf,12050 Jefferson Farm Pl,Waldorf,20601,(301)638-7222,Rental House/Dealer,thdrentalkeyaccount@homedepot.com
MD,Westminster,835 N Market St,Westminster,21157,(410)857-4719,Rental House/Dealer,thdrentalkeyaccount@homedepot.com
ME,Auburn,149 Mt Auburn Ave,Auburn,04210,(207)777-0042,Rental House/Dealer,thdrentalkeyaccount@homedepot.com
ME,Augusta,26 Stephen King Dr,Augusta,04330,(207)621-6888,Rental House/Dealer,thdrentalkeyaccount@homedepot.com
ME,Bangor,650 Stillwater Avenue,Bangor,04401,(207)990-3133,Rental House/Dealer,thdrentalkeyaccount@homedepot.com
ME,Biddeford,550 Alfred St,Biddeford,04005,(207)284-1115,Rental House/Dealer,thdrentalkeyaccount@homedepot.com
ME,Ellsworth,56 Myrick Street,Ellsworth,04605,(207)667-1986,Rental House/Dealer,thdrentalkeyaccount@homedepot.com
ME,Portland,245 Riverside St,Portland,04103,(207)761-0600,Rental House/Dealer,thdrentalkeyaccount@homedepot.com
ME,Rockland,270 Camden Lane,Rockland,04841,(207)594-6401,Rental House/Dealer,thdrentalkeyaccount@homedepot.com
ME,South Portland,300 Clarks Pond Pkwy,South Portland,04106,(207)879-2500,Rental House/Dealer,thdrentalkeyaccount@homedepot.com
ME,Topsham,154 Topsham Fair Mall Rd,Topsham,04086,(207)798-6931,Rental House/Dealer,thdrentalkeyaccount@homedepot.com
ME,Waterville,60 Waterville Commons Dr,Waterville,04901,(207)873-9299,Rental House/Dealer,thdrentalkeyaccount@homedepot.com
ME,North Windham,20 Franklin Drive,Windham,04062,(207)892-1793,Rental House/Dealer,thdrentalkeyaccount@homedepot.com
MI,Allen Park,3163 Fairlane Drive,Allen Park,48101,(313)271-8842,Rental House/Dealer,thdrentalkeyaccount@homedepot.com
MI,Alpena,1348 M-32,Alpena,49707,(989)358-0900,Rental House/Dealer,thdrentalkeyaccount@homedepot.com
MI,Bay City,3860 State St,Bay City,48706,(989)671-9402,Rental House/Dealer,thdrentalkeyaccount@homedepot.com
MI,Benton Harbor,2075 Pipestone Road,Benton Harbor,49022,(269)926-2173,Rental House/Dealer,thdrentalkeyaccount@homedepot.com
MI,Brighton,8053 Challis Rd,Brighton,48116,(810)229-0085,Rental House/Dealer,thdrentalkeyaccount@homedepot.com
MI,Cadillac,3786 S Mackinaw Trail,Cadillac,49601,(231)779-2776,Rental House/Dealer,thdrentalkeyaccount@homedepot.com
MI,Canton,39825 Ford Rd,Canton,48187,(734)844-7300,Rental House/Dealer,thdrentalkeyaccount@homedepot.com
MI,South Canton Rentals,41661 Ford Rd,Canton,48187,(734)844-7300,Rental House/Dealer,thdrentalkeyaccount@homedepot.com
MI,South Canton Home Services,41661 Ford Rd,Canton,48187,(734)844-7300,Rental House/Dealer,thdrentalkeyaccount@homedepot.com
MI,South Canton Garden Center,41661 Ford Rd,Canton,48187,(734)844-7300,Rental House/Dealer,thdrentalkeyaccount@homedepot.com
MI,South Canton Pro Desk,41661 Ford Rd,Canton,48187,(734)844-7300,Rental House/Dealer,thdrentalkeyaccount@homedepot.com
MI,Detroit 7 Mile/Meyers,18700 Meyers Rd,Detroit,48235,(313)341-7750,Rental House/Dealer,thdrentalkeyaccount@homedepot.com
MI,Fenton,15255 Silver Pkwy,Fenton,48430,(810)714-2962,Rental House/Dealer,thdrentalkeyaccount@homedepot.com
MI,West Flint,4380 W Corunna Rd,Flint,48532,(810)230-8784,Rental House/Dealer,thdrentalkeyaccount@homedepot.com
MI,Mundy Township,1222 West Hill Rd,Flint,48507,(810)232-7113,Rental House/Dealer,thdrentalkeyaccount@homedepot.com
MI,Gaylord,1381 W Main St,Gaylord,49735,(989)705-8471,Rental House/Dealer,thdrentalkeyaccount@homedepot.com
MI,Grand Haven,900 Jackson St,Grand Haven,49417,(616)850-8401,Rental House/Dealer,thdrentalkeyaccount@homedepot.com
MI,Kentwood,"4646 28th St, Se",Grand Rapids,49512,(616)975-4440,Rental House/Dealer,thdrentalkeyaccount@homedepot.com
MI,West Wyoming,4900 Wilson Ave Sw,Grandville,49418,(616)249-9559,Rental House/Dealer,thdrentalkeyaccount@homedepot.com
MI,Harper Woods Garden Center,20000 Vernier Rd,Harper Woods,48225,(313)886-7520,Rental House/Dealer,thdrentalkeyaccount@homedepot.com
MI,Harper Woods Pro Desk,20000 Vernier Rd,Harper Woods,48225,(313)886-7520,Rental House/Dealer,thdrentalkeyaccount@homedepot.com
MI,Houghton Lake,2241 W Houghton Lake Dr,Houghton Lake,48629,(989)366-0908,Rental House/Dealer,thdrentalkeyaccount@homedepot.com
MI,Howell,3330 E Grand River Ave,Howell,48843,(517)548-3742,Rental House/Dealer,thdrentalkeyaccount@homedepot.com
MI,Iron Mountain Rentals,2401 S Stephenson Ave,Iron Mountain,49801,(906)774-0002,Rental House/Dealer,thdrentalkeyaccount@homedepot.com
MI,Iron Mountain Home Services,2401 S Stephenson Ave,Iron Mountain,49801,(906)774-0002,Rental House/Dealer,thdrentalkeyaccount@homedepot.com
MI,Iron Mountain Garden Center,2401 S Stephenson Ave,Iron Mountain,49801,(906)774-0002,Rental House/Dealer,thdrentalkeyaccount@homedepot.com
MI,Iron Mountain Pro Desk,2401 S Stephenson Ave,Iron Mountain,49801,(906)774-0002,Rental House/Dealer,thdrentalkeyaccount@homedepot.com
MI,Jackson,1400 N Wisner Rd,Jackson,49202,(517)817-5401,Rental House/Dealer,thdrentalkeyaccount@homedepot.com
MI,West Lansing,936 S Waverly Rd,Lansing,48917,(517)323-0229,Rental House/Dealer,thdrentalkeyaccount@homedepot.com
MI,Lapeer,1500 Summit St,Lapeer,48446,(810)245-3485,Rental House/Dealer,thdrentalkeyaccount@homedepot.com
MI,Ludington,3865 West Us Hwy 10,Ludington,49431,(231)843-9108,Rental House/Dealer,thdrentalkeyaccount@homedepot.com
MI,Madison Heights Garden Center,30600 Dequindre Rd,Madison Heights,48071,(248)585-9900,Rental House/Dealer,thdrentalkeyaccount@homedepot.com
MI,Madison Heights Pro Desk,30600 Dequindre Rd,Madison Heights,48071,(248)585-9900,Rental House/Dealer,thdrentalkeyaccount@homedepot.com
MI,Midland,1100 Joe Mann Blvd,Midland,48642,(989)633-9381,Rental House/Dealer,thdrentalkeyaccount@homedepot.com
MI,Mount Pleasant,5650 E Pickard St,Mount Pleasant,48858,(989)779-1501,Rental House/Dealer,thdrentalkeyaccount@homedepot.com
MI,Roosevelt Park,2699 Henry St,Muskegon,49441,(231)755-0440,Rental House/Dealer,thdrentalkeyaccount@homedepot.com
MI,Northville,39500 W 7 Mile Rd,Northville,48167,(248)347-9600,Rental House/Dealer,thdrentalkeyaccount@homedepot.com
MI,Novi,47950 Grand River Ave,Novi,48374,(248)347-6746,Rental House/Dealer,thdrentalkeyaccount@homedepot.com
MI,E Lansing,1749 Newman Rd,Okemos,48864,(517)381-0650,Rental House/Dealer,thdrentalkeyaccount@homedepot.com
MI,Caledonia Township,2205 E M 21,Owosso,48867,(989)723-7033,Rental House/Dealer,thdrentalkeyaccount@homedepot.com
MI,Bear Creek,1700 Anderson Rd,Petoskey,49770,(231)439-5300,Rental House/Dealer,thdrentalkeyaccount@homedepot.com
MI,Plainwell,1227 M89,Plainwell,49080,(269)685-8632,Rental House/Dealer,thdrentalkeyaccount@homedepot.com
MI,Plymouth Rentals,44675 Five Mile Rd,Plymouth,48170,(734)254-0520,Rental House/Dealer,thdrentalkeyaccount@homedepot.com
MI,Plymouth Home Services,44675 Five Mile Rd,Plymouth,48170,(734)254-0520,Rental House/Dealer,thdrentalkeyaccount@homedepot.com
MI,Plymouth Garden Center,44675 Five Mile Rd,Plymouth,48170,(734)254-0520,Rental House/Dealer,thdrentalkeyaccount@homedepot.com
MI,Plymouth Pro Desk,44675 Five Mile Rd,Plymouth,48170,(734)254-0520,Rental House/Dealer,thdrentalkeyaccount@homedepot.com
MI,Pontiac,465 N Telegraph Rd,Pontiac,48341,(248)334-6600,Rental House/Dealer,thdrentalkeyaccount@homedepot.com
MI,Portage (Kalamazoo),6685 S Westnedge Ave,Portage,49002,(269)324-8100,Rental House/Dealer,thdrentalkeyaccount@homedepot.com
MI,Rochester Hills,225 West Avon Rd,Rochester Hills,48307,(248)601-2643,Rental House/Dealer,thdrentalkeyaccount@homedepot.com
MI,Saginaw,3132 Bueker Dr,Saginaw,48604,(989)249-1440,Rental House/Dealer,thdrentalkeyaccount@homedepot.com
MI,Thomas Township,8670 Gratiot Rd,Saginaw,48609,(989)781-3611,Rental House/Dealer,thdrentalkeyaccount@homedepot.com
MI,Shelby Township,8760 26 Mile Rd,Shelby Township,48316,(586)991-9191,Rental House/Dealer,thdrentalkeyaccount@homedepot.com
MI,Southfield,29801 Southfield Rd,Southfield,48076,(248)423-0040,Rental House/Dealer,thdrentalkeyaccount@homedepot.com
MI,Three Rivers,1301 S Us Highway 131,Three Rivers,49093,(269)273-5250,Rental House/Dealer,thdrentalkeyaccount@homedepot.com
MI,Traverse City,2522 Crossing Cir,Traverse City,49684,(231)947-4900,Rental House/Dealer,thdrentalkeyaccount@homedepot.com
MI,Walker,2727 Alpine Ave Nw,Walker,49544,(616)447-0100,Rental House/Dealer,thdrentalkeyaccount@homedepot.com
MI,Warren Garden Center,30600 Van Dyke Ave,Warren,48093,(586)574-0130,Rental House/Dealer,thdrentalkeyaccount@homedepot.com
MI,Warren Pro Desk,30600 Van Dyke Ave,Warren,48093,(586)574-0130,Rental House/Dealer,thdrentalkeyaccount@homedepot.com
MI,West Branch,2892 Cook Road,West Branch,48661,(989)345-7601,Rental House/Dealer,thdrentalkeyaccount@homedepot.com
MI,Woodhaven,23300 W Allen,Woodhaven,48183,(734)671-4400,Rental House/Dealer,thdrentalkeyaccount@homedepot.com
MN,Albert Lea,2400 Consul St,Albert Lea,56007,(507)377-9891,Rental House/Dealer,thdrentalkeyaccount@homedepot.com
MN,Apple Valley,15101 Flagstaff Ave,Apple Valley,55124,(952)432-7171,Rental House/Dealer,thdrentalkeyaccount@homedepot.com
MN,Brainerd/Baxter,7207 Foley Rd,Baxter,56425,(218)829-0341,Rental House/Dealer,thdrentalkeyaccount@homedepot.com
MN,Bemidji,2425 Middle School Dr Nw,Bemidji,56601,(218)759-4007,Rental House/Dealer,thdrentalkeyaccount@homedepot.com
MN,Blaine,4550 Pheasant Ridge Dr,Blaine,55449,(763)717-0316,Rental House/Dealer,thdrentalkeyaccount@homedepot.com
MN,SW Blaine,99 Northtown Drive,Blaine,55434,(763)795-2060,Rental House/Dealer,thdrentalkeyaccount@homedepot.com
MN,Brooklyn Park,6701 Boone Ave North,Brooklyn Park,55428,(763)533-1200,Rental House/Dealer,thdrentalkeyaccount@homedepot.com
MN,Burnsville,155 Nicollet Blvd W,Burnsville,55337,(952)898-6960,Rental House/Dealer,thdrentalkeyaccount@homedepot.com
MN,Chaska,"300 Pioneer Trail, East",Chaska,55318,(952)368-0281,Rental House/Dealer,thdrentalkeyaccount@homedepot.com
MN,Coon Rapids,3550 124th Ave Nw,Coon Rapids,55433,(763)422-1200,Rental House/Dealer,thdrentalkeyaccount@homedepot.com
MN,Duluth,1101 Mall Dr,Duluth,55811,(218)720-0938,Rental House/Dealer,thdrentalkeyaccount@homedepot.com
MN,Eagan,3220 Denmark Ave,Eagan,55121,(651)452-2323,Rental House/Dealer,thdrentalkeyaccount@homedepot.com
MN,Eden Prairie,13100 Valley View Rd,Eden Prairie,55344,(952)949-0982,Rental House/Dealer,thdrentalkeyaccount@homedepot.com
MN,Elk River,"18011 Zane St, Nw",Elk River,55330,(763)274-0543,Rental House/Dealer,thdrentalkeyaccount@homedepot.com
MN,Fergus Falls,2025 West Lincoln Ave,Fergus Falls,56537,(218)736-4234,Rental House/Dealer,thdrentalkeyaccount@homedepot.com
MN,Forest Lake,1943 W Broadway Ave,Forest Lake,55025,(651)464-5277,Rental House/Dealer,thdrentalkeyaccount@homedepot.com
MN,Fridley,"5650 Main St, Ne",Fridley,55432,(763)571-9600,Rental House/Dealer,thdrentalkeyaccount@homedepot.com
MN,Grand Rapids,2600 So Hwy 169,Grand Rapids,55744,(218)327-9791,Rental House/Dealer,thdrentalkeyaccount@homedepot.com
MN,Inver Grove Heights,1300 E Mendota Road,Inver Grove Heights,55077,(651)552-9020,Rental House/Dealer,thdrentalkeyaccount@homedepot.com
MN,Mankato,375 St Andrews Dr,Mankato,56001,(507)385-7990,Rental House/Dealer,thdrentalkeyaccount@homedepot.com
MN,Maple Grove,15800 Grove Circle North,Maple Grove,55369,(763)494-0117,Rental House/Dealer,thdrentalkeyaccount@homedepot.com
MN,Maplewood,"2360 White Bear Ave, North",Maplewood,55109,(651)770-9600,Rental House/Dealer,thdrentalkeyaccount@homedepot.com
MN,Minneapolis Ne,1520 New Brighton Blvd,Minneapolis,55413,(612)782-9594,Rental House/Dealer,thdrentalkeyaccount@homedepot.com
MN,Monticello,1385 7th Street East,Monticello,55362,(763)295-9500,Rental House/Dealer,thdrentalkeyaccount@homedepot.com
MN,Plymouth,1705 Annapolis Ln,Plymouth,55441,(763)509-9590,Rental House/Dealer,thdrentalkeyaccount@homedepot.com
MN,Richfield,6301 Richfield Parkway,Richfield,55423,(612)243-2400,Rental House/Dealer,thdrentalkeyaccount@homedepot.com
MN,Rochester,3050 41st St Nw,Rochester,55901,(507)288-6700,Rental House/Dealer,thdrentalkeyaccount@homedepot.com
MN,St Louis Park,5800 Cedar Lake Rd,Saint Louis Park,55416,(952)512-0109,Rental House/Dealer,thdrentalkeyaccount@homedepot.com
MN,Shakopee,1701 County Road 18,Shakopee,55379,(952)496-3076,Rental House/Dealer,thdrentalkeyaccount@homedepot.com
MN,St Cloud,"401 2nd St, South",Waite Park,56387,(320)252-3262,Rental House/Dealer,thdrentalkeyaccount@homedepot.com
MN,Willmar,300 28th Ave S E,Willmar,56201,(320)235-1975,Rental House/Dealer,thdrentalkeyaccount@homedepot.com
MN,Woodbury,8334 Tamarack Village,Woodbury,55125,(651)714-8751,Rental House/Dealer,thdrentalkeyaccount@homedepot.com
MO,Arnold,3865 Vogel Rd,Arnold,63010,(636)287-1111,Rental House/Dealer,thdrentalkeyaccount@homedepot.com
MO,Manchester Road,13929 Manchester Road,Ballwin,63011,(636)207-8875,Rental House/Dealer,thdrentalkeyaccount@homedepot.com
MO,Belton,1306 E North Avenue,Belton,64012,(816)322-2531,Rental House/Dealer,thdrentalkeyaccount@homedepot.com
MO,Branson,1000 Branson Hills Parkway,Branson,65616,(417)336-2322,Rental House/Dealer,thdrentalkeyaccount@homedepot.com
MO,Bridgeton,11210 Charles Rock Rd,Bridgeton,63044,(314)291-5288,Rental House/Dealer,thdrentalkeyaccount@homedepot.com
MO,Chesterfield,390 Thf Boulevard,Chesterfield,63005,(636)536-0675,Rental House/Dealer,thdrentalkeyaccount@homedepot.com
MO,Columbia,3215 Clark Ln,Columbia,65202,(573)814-1900,Rental House/Dealer,thdrentalkeyaccount@homedepot.com
MO,Gladstone,4949 Old Pike Rd,Gladstone,64118,(816)459-9950,Rental House/Dealer,thdrentalkeyaccount@homedepot.com
MO,Joplin,3110 E 20th Street,Joplin,64801,(417)206-7510,Rental House/Dealer,thdrentalkeyaccount@homedepot.com
MO,Bannister Mall,5007 E Bannister Rd,Kansas City,64137,(816)767-8807,Rental House/Dealer,thdrentalkeyaccount@homedepot.com
MO,Liberty,8598 N Church Rd,Kansas City,64157,(816)415-2269,Rental House/Dealer,thdrentalkeyaccount@homedepot.com
MO,Kirksville,3015 N Baltimore,Kirksville,63501,(660)627-2777,Rental House/Dealer,thdrentalkeyaccount@homedepot.com
MO,Lees Summit,651 Se Oldham Pkwy,Lees Summit,64081,(816)525-3498,Rental House/Dealer,thdrentalkeyaccount@homedepot.com
MO,O'Fallon,1525 Hwy K,O'Fallon,63366,(636)281-9535,Rental House/Dealer,thdrentalkeyaccount@homedepot.com
MO,Osage Beach,4030 Osage Beach Pkwy,Osage Beach,65065,(573)348-0082,Rental House/Dealer,thdrentalkeyaccount@homedepot.com
MO,Poplar Bluff,639 S Westwood Blvd,Poplar Bluff,63901,(573)686-1729,Rental House/Dealer,thdrentalkeyaccount@homedepot.com
MO,St Charles County,3891 Mexico Rd,Saint Charles,63303,(636)936-9494,Rental House/Dealer,thdrentalkeyaccount@homedepot.com
MO,St Joseph,5201 N Belt Hwy Bldg C,Saint Joseph,64506,(816)232-2053,Rental House/Dealer,thdrentalkeyaccount@homedepot.com
MO,South County,7481 S Lindberg Blvd,Saint Louis,63125,(314)894-6099,Rental House/Dealer,thdrentalkeyaccount@homedepot.com
MO,Ferguson,10930 New Halls Ferry Rd,Saint Louis,63136,(314)869-1515,Rental House/Dealer,thdrentalkeyaccount@homedepot.com
MO,Cottleville,5100 Mid Rivers Mall Dr,Saint Peters,63304,(636)922-1281,Rental House/Dealer,thdrentalkeyaccount@homedepot.com
MO,Springfield,2104 E Independence,Springfield,65804,(417)881-7277,Rental House/Dealer,thdrentalkeyaccount@homedepot.com
MO,Sunset Hills,10890 Sunset Hills,St Louis,63127,(314)966-7771,Rental House/Dealer,thdrentalkeyaccount@homedepot.com
MO,Wentzville,1920 Wentzville Pkwy,Wentzville,63385,(636)327-0897,Rental House/Dealer,thdrentalkeyaccount@homedepot.com
MS,Biloxi,1680 Elizabeth Blvd,Biloxi,39532,(228)354-8872,Rental House/Dealer,thdrentalkeyaccount@homedepot.com
MS,Brandon,200 Orleans Way,Brandon,39042,(601)825-1427,Rental House/Dealer,thdrentalkeyaccount@homedepot.com
MS,Brookhaven,101 Stribling Road,Brookhaven,39601,(601)833-2696,Rental House/Dealer,thdrentalkeyaccount@homedepot.com
MS,Clinton,5000 Hampstead Blvd,Clinton,39056,(601)924-1332,Rental House/Dealer,thdrentalkeyaccount@homedepot.com
MS,Gulfport,15220 Creosote Rd,Gulfport,39503,(228)867-9925,Rental House/Dealer,thdrentalkeyaccount@homedepot.com
MS,Hattiesburg,4100 Oferral St,Hattiesburg,39402,(601)296-1098,Rental House/Dealer,thdrentalkeyaccount@homedepot.com
MS,Northeast Jackson,6325 I-55 North,Jackson,39213,(601)952-0740,Rental House/Dealer,thdrentalkeyaccount@homedepot.com
MS,Madison,211 Colony Way,Madison,39110,(601)856-4660,Rental House/Dealer,thdrentalkeyaccount@homedepot.com
MS,Oxford,201 Home Depot Dr,Oxford,38655,(662)234-7863,Rental House/Dealer,thdrentalkeyaccount@homedepot.com
MS,Picayune,2000 Hwy 43 South,Picayune,39466,(601)749-2180,Rental House/Dealer,thdrentalkeyaccount@homedepot.com
MS,Tupelo,1074 Cross Creek Dr,Saltillo,38866,(662)840-8390,Rental House/Dealer,thdrentalkeyaccount@homedepot.com
MS,Vicksburg,50 Halls Ferry Park Rd,Vicksburg,39180,(601)619-0142,Rental House/Dealer,thdrentalkeyaccount@homedepot.com
MT,Billings,2784 King Ave West,Billings,59102,(406)655-9038,Rental House/Dealer,thdrentalkeyaccount@homedepot.com
MT,Bozeman,1771 N19th Ave,Bozeman,59718,(406)556-0161,Rental House/Dealer,thdrentalkeyaccount@homedepot.com
MT,Great Falls,1500 Market Pl Dr,Great Falls,59404,(406)727-1542,Rental House/Dealer,thdrentalkeyaccount@homedepot.com
MT,Helena,1801 E Custer Ave,Helena,59602,(406)442-7311,Rental House/Dealer,thdrentalkeyaccount@homedepot.com
MT,Kalispell,2455 Hwy 93 N,Kalispell,59901,(406)755-5333,Rental House/Dealer,thdrentalkeyaccount@homedepot.com
MT,Missoula,2725 Radio Way,Missoula,59808,(406)523-0901,Rental House/Dealer,thdrentalkeyaccount@homedepot.com
NC,Apex,1000 Vision Dr,Apex,27523,(919)387-6554,Rental House/Dealer,thdrentalkeyaccount@homedepot.com
NC,West Asheville,127 Acton Cir,Asheville,28806,(828)667-9298,Rental House/Dealer,thdrentalkeyaccount@homedepot.com
NC,Asheville,795 Fairview Rd,Asheville,28803,(828)274-5400,Rental House/Dealer,thdrentalkeyaccount@homedepot.com
NC,Burlington,2771-t Kirkwood Drive,Burlington,27215,(336)513-2218,Rental House/Dealer,thdrentalkeyaccount@homedepot.com
NC,Cary,2031 Walnut St,Cary,27518,(919)851-5554,Rental House/Dealer,thdrentalkeyaccount@homedepot.com
NC,University,8135 University City Blvd,Charlotte,28213,(704)596-1550,Rental House/Dealer,thdrentalkeyaccount@homedepot.com
NC,East Charlotte,9501 Albemarle Rd,Charlotte,28227,(704)535-6982,Rental House/Dealer,thdrentalkeyaccount@homedepot.com
NC,South Charlotte,5415 Ballantyne Commons Pkwy,Charlotte,28277,(704)814-6131,Rental House/Dealer,thdrentalkeyaccount@homedepot.com
NC,Steele Creek,14310 Rivergate Parkway,Charlotte,28273,(704)504-9836,Rental House/Dealer,thdrentalkeyaccount@homedepot.com
NC,Cornelius,17111 Statesville Rd,Cornelius,28031,(704)987-0490,Rental House/Dealer,thdrentalkeyaccount@homedepot.com
NC,Durham,3701 Mt Moriah Rd,Durham,27707,(919)419-0208,Rental House/Dealer,thdrentalkeyaccount@homedepot.com
NC,North Durham,1700 N Pointe Dr,Durham,27705,(919)220-5811,Rental House/Dealer,thdrentalkeyaccount@homedepot.com
NC,Fayetteville,2060 Skibo Rd,Fayetteville,28314,(910)864-4002,Rental House/Dealer,thdrentalkeyaccount@homedepot.com
NC,Fuquay Varina,901 E Broad St,Fuquay Varina,27526,(919)552-2881,Rental House/Dealer,thdrentalkeyaccount@homedepot.com
NC,Garner,2540 Timber Dr,Garner,27529,(919)661-1393,Rental House/Dealer,thdrentalkeyaccount@homedepot.com
NC,E Greensboro,2912 S Elm Eugene St,Greensboro,27406,(336)691-0613,Rental House/Dealer,thdrentalkeyaccount@homedepot.com
NC,Greensboro,4425 W Wendover Ave,Greensboro,27407,(336)218-0655,Rental House/Dealer,thdrentalkeyaccount@homedepot.com
NC,Battleground,3215 Brassfield Rd,Greensboro,27410,(336)545-1125,Rental House/Dealer,thdrentalkeyaccount@homedepot.com
NC,Hendersonville,401 Linda Vista Dr,Hendersonville,28792,(828)692-8080,Rental House/Dealer,thdrentalkeyaccount@homedepot.com
NC,Hickory,1530 8th Street Dr Se,Hickory,28602,(828)327-9200,Rental House/Dealer,thdrentalkeyaccount@homedepot.com
NC,High Point,2300 N Main St,High Point,27262,(336)883-0500,Rental House/Dealer,thdrentalkeyaccount@homedepot.com
NC,Hillsborough,625 Hampton Point Blvd,Hillsborough,27278,(919)245-0132,Rental House/Dealer,thdrentalkeyaccount@homedepot.com
NC,Jacksonville,479 Western Blvd,Jacksonville,28546,(910)346-3074,Rental House/Dealer,thdrentalkeyaccount@homedepot.com
NC,Kitty Hawk,5300 N Croatan Hwy,Kitty Hawk,27949,(252)261-4115,Rental House/Dealer,thdrentalkeyaccount@homedepot.com
NC,Knightdale,1020 Shoppes At Midway Dr,Knightdale,27545,(919)217-3093,Rental House/Dealer,thdrentalkeyaccount@homedepot.com
NC,NW Raleigh,9517 Strickland Rd,Raleigh,27615,(919)844-7418,Rental House/Dealer,thdrentalkeyaccount@homedepot.com
NC,Raleigh,4901 Capital Blvd,Raleigh,27616,(919)878-8771,Rental House/Dealer,thdrentalkeyaccount@homedepot.com
NC,Shallotte,"150 Shallotte Crossing Pkwy, Ste 1",Shallotte,28470,(910)755-5444,Rental House/Dealer,thdrentalkeyaccount@homedepot.com
NC,Statesville,240 Turnersburg Hwy,Statesville,28625,(704)872-5942,Rental House/Dealer,thdrentalkeyaccount@homedepot.com
NC,Wake Forest,11915 Retail Dr,Wake Forest,27587,(919)562-2202,Rental House/Dealer,thdrentalkeyaccount@homedepot.com
NC,Myrtle Grove,5511 Carolina Beach Road,Wilmington,28412,(910)790-0247,Rental House/Dealer,thdrentalkeyaccount@homedepot.com
NC,Wilmington,210 Eastwood Rd,Wilmington,28403,(910)790-3770,Rental House/Dealer,thdrentalkeyaccount@homedepot.com
NC,Winston-Salem,1000 Hanes Mall Blvd,Winston Salem,27103,(336)659-1181,Rental House/Dealer,thdrentalkeyaccount@homedepot.com
NC,Winston Salem,5721 University Pkwy,Winston Salem,27105,(336)744-2336,Rental House/Dealer,thdrentalkeyaccount@homedepot.com
ND,Fargo,4700 17th Ave Sw,Fargo,58103,(701)282-2078,Rental House/Dealer,thdrentalkeyaccount@homedepot.com
ND,Minot,3425 South Broadway,Minot,58701,(701)420-8400,Rental House/Dealer,thdrentalkeyaccount@homedepot.com
NE,Grand Island,911 Allen Dr,Grand Island,68803,(308)389-3515,Rental House/Dealer,thdrentalkeyaccount@homedepot.com
NE,North Lincoln,3300 N 27th St,Lincoln,68521,(402)325-6200,Rental House/Dealer,thdrentalkeyaccount@homedepot.com
NE,South Lincoln,6800 S 70th St,Lincoln,68516,(402)328-9669,Rental House/Dealer,thdrentalkeyaccount@homedepot.com
NE,NW Omaha,3950 N 144th St,Omaha,68116,(402)964-9700,Rental House/Dealer,thdrentalkeyaccount@homedepot.com
NE,SW Omaha,12710 L St,Omaha,68137,(402)333-9477,Rental House/Dealer,thdrentalkeyaccount@homedepot.com
NE,Central Omaha,4545 N 72nd St,Omaha,68134,(402)573-6393,Rental House/Dealer,thdrentalkeyaccount@homedepot.com
NE,Papillion,712 N Washington St,Papillion,68046,(402)331-2879,Rental House/Dealer,thdrentalkeyaccount@homedepot.com
NE,Scottsbluff,3102 Avenue I,Scottsbluff,69361,(308)630-2398,Rental House/Dealer,thdrentalkeyaccount@homedepot.com
NH,Claremont,451 Washington St,Claremont,03743,(603)542-4471,Rental House/Dealer,thdrentalkeyaccount@homedepot.com
NH,Concord,42 Damante Drive,Concord,03301,(603)227-0580,Rental House/Dealer,thdrentalkeyaccount@homedepot.com
NH,Keene,22 Ash Brook Rd,Keene,03431,(603)355-2113,Rental House/Dealer,thdrentalkeyaccount@homedepot.com
NH,Littleton,895 Meadow Street,Littleton,03561,(603)444-7520,Rental House/Dealer,thdrentalkeyaccount@homedepot.com
NH,Londonderry,41 Nashua Rd,Londonderry,03053,(603)537-1927,Rental House/Dealer,thdrentalkeyaccount@homedepot.com
NH,North Nashua,12 Coliseum Ave,Nashua,03063,(603)879-9666,Rental House/Dealer,thdrentalkeyaccount@homedepot.com
NH,South Nashua,288 Daniel Webster Hwy,Nashua,03060,(603)891-4300,Rental House/Dealer,thdrentalkeyaccount@homedepot.com
NH,North Conway,53 Barnes Road,North Conway,03860,(603)356-4130,Rental House/Dealer,thdrentalkeyaccount@homedepot.com
NH,North Hampton,35 Lafayette Rd,North Hampton,03862,(603)964-1526,Rental House/Dealer,thdrentalkeyaccount@homedepot.com
NH,Rochester,280 N Main Street,Rochester,03867,(603)335-1300,Rental House/Dealer,thdrentalkeyaccount@homedepot.com
NH,Salem,289 South Broadway,Salem,03079,(603)894-1900,Rental House/Dealer,thdrentalkeyaccount@homedepot.com
NH,Somersworth,12 Commercial Dr,Somersworth,03878,(603)692-0007,Rental House/Dealer,thdrentalkeyaccount@homedepot.com
NH,Tilton,160 Laconia Rd,Tilton,03276,(603)286-9599,Rental House/Dealer,thdrentalkeyaccount@homedepot.com
NH,West Lebanon,296 Plainfield Rd,West Lebanon,03784,(603)298-9540,Rental House/Dealer,thdrentalkeyaccount@homedepot.com
NJ,Bloomfield,60 Orange St,Bloomfield,07003,(973)680-8700,Rental House/Dealer,thdrentalkeyaccount@homedepot.com
NJ,Cape May,21 Indian Trail Rd,Cape May Court House,08210,(609)463-8794,Rental House/Dealer,thdrentalkeyaccount@homedepot.com
NJ,East Hanover,902 Murray Rd,East Hanover,07936,(973)887-4444,Rental House/Dealer,thdrentalkeyaccount@homedepot.com
NJ,East Windsor,739 Route 33 West,East Windsor,08520,(609)426-2441,Rental House/Dealer,thdrentalkeyaccount@homedepot.com
NJ,Egg Harbor,6 Tower Avenue,Egg Harbor Township,08234,(609)407-9600,Rental House/Dealer,thdrentalkeyaccount@homedepot.com
NJ,Vh-Elizabeth,977 W Grand Street,Elizabeth,07202,(908)259-2600,Rental House/Dealer,thdrentalkeyaccount@homedepot.com
NJ,Freehold,300 Trotters Way,Freehold,07728,(732)625-3000,Rental House/Dealer,thdrentalkeyaccount@homedepot.com
NJ,Vh-Garwood,200 South Ave,Garwood,07027,(908)518-0011,Rental House/Dealer,thdrentalkeyaccount@homedepot.com
NJ,Hackensack,450 Hackensack Ave,Hackensack,07601,(201)336-3041,Rental House/Dealer,thdrentalkeyaccount@homedepot.com
NJ,Jersey City,440 State Rt 440,Jersey City,07305,(201)521-9437,Rental House/Dealer,thdrentalkeyaccount@homedepot.com
NJ,Holland Tunnel,180 Twelfth Street,Jersey City,07310,(201)963-6513,Rental House/Dealer,thdrentalkeyaccount@homedepot.com
NJ,Lawnside,"310 Whitehorse Pike, Suite 1",Lawnside,08045,(856)547-9600,Rental House/Dealer,thdrentalkeyaccount@homedepot.com
NJ,Linden,701 West Edgar Rd,Linden,07036,(908)523-1520,Rental House/Dealer,thdrentalkeyaccount@homedepot.com
NJ,Lodi,99 State Route 17 North,Lodi,07644,(201)226-9929,Rental House/Dealer,thdrentalkeyaccount@homedepot.com
NJ,Mahwah,465 State Rt 17,Mahwah,07430,(201)818-9754,Rental House/Dealer,thdrentalkeyaccount@homedepot.com
NJ,Montville,79 Route 46 E,Montville,07045,(973)575-0823,Rental House/Dealer,thdrentalkeyaccount@homedepot.com
NJ,Mount Laurel,1200 Nixon Dr,Mount Laurel,08054,(856)234-0880,Rental House/Dealer,thdrentalkeyaccount@homedepot.com
NJ,Newark,399-443 Springfield Ave,Newark,07103,(973)643-9600,Rental House/Dealer,thdrentalkeyaccount@homedepot.com
NJ,Paramus,520 Rt 17 North,Paramus,07652,(201)262-3344,Rental House/Dealer,thdrentalkeyaccount@homedepot.com
NJ,Parsippany,780 Route 46 West,Parsippany,07054,(973)335-5917,Rental House/Dealer,thdrentalkeyaccount@homedepot.com
NJ,Passaic,103-19 Dayton Ave,Passaic,07055,(973)471-2111,Rental House/Dealer,thdrentalkeyaccount@homedepot.com
NJ,Paterson,75 Market Blvd,Paterson,07514,(973)357-1305,Rental House/Dealer,thdrentalkeyaccount@homedepot.com
NJ,Phillipsburg,1209 Us Highway 22,Phillipsburg,08865,(908)213-0403,Rental House/Dealer,thdrentalkeyaccount@homedepot.com
NJ,West Windsor,701 Nassau Park Blvd,Princeton,08540,(609)987-8686,Rental House/Dealer,thdrentalkeyaccount@homedepot.com
NJ,Riverdale,106 Route 23,Riverdale,07457,(973)248-0585,Rental House/Dealer,thdrentalkeyaccount@homedepot.com
NJ,Secaucus,1055 Paterson Plank Rd,Secaucus,07094,(201)271-1200,Rental House/Dealer,thdrentalkeyaccount@homedepot.com
NJ,Roxbury,281 Route 10 Ste 04,Succasunna,07876,(973)927-7700,Rental House/Dealer,thdrentalkeyaccount@homedepot.com
NJ,Totowa,545 Route 46,Totowa,07512,(973)812-8390,Rental House/Dealer,thdrentalkeyaccount@homedepot.com
NJ,Vineland,3849 South Delsea Dr,Vineland,08360,(856)293-1155,Rental House/Dealer,thdrentalkeyaccount@homedepot.com
NJ,Berlin Township,116 Walker Ave,West Berlin,08091,(856)719-0335,Rental House/Dealer,thdrentalkeyaccount@homedepot.com
NJ,West Long Branch,310 State Hwy 36 Ste 100,West Long Branch,07764,(732)935-0100,Rental House/Dealer,thdrentalkeyaccount@homedepot.com
NM,Alamogordo,3400 N White Sand Blvd,Alamogordo,88310,(575)443-8015,Rental House/Dealer,thdrentalkeyaccount@homedepot.com
NM,West Albuquerque,10200 Coors Dr Nw,Albuquerque,87114,(505)899-1290,Rental House/Dealer,thdrentalkeyaccount@homedepot.com
NM,Farmington,3560 E Main Street,Farmington,87402,(505)327-0710,Rental House/Dealer,thdrentalkeyaccount@homedepot.com
NM,Gallup,530 Kachina Street,Gallup,87301,(505)726-2362,Rental House/Dealer,thdrentalkeyaccount@homedepot.com
NM,Hobbs,900 W Joe Harvey Blvd,Hobbs,88240,(575)492-9117,Rental House/Dealer,thdrentalkeyaccount@homedepot.com
NM,Las Cruces,225 Telshor Blvd,Las Cruces,88011,(575)521-1327,Rental House/Dealer,thdrentalkeyaccount@homedepot.com
NM,Roswell,2350 N Main St,Roswell,88201,(575)622-2026,Rental House/Dealer,thdrentalkeyaccount@homedepot.com
NV,Carson City,921 Jacks Valley Rd,Carson City,89705,(775)267-3434,Rental House/Dealer,thdrentalkeyaccount@homedepot.com
NV,N Carson City,3185 Market Street,Carson City,89706,(775)886-4455,Rental House/Dealer,thdrentalkeyaccount@homedepot.com
NV,Elko,2955 Mountain City Hwy,Elko,89801,(775)738-0455,Rental House/Dealer,thdrentalkeyaccount@homedepot.com
NV,Henderson,1030 Sunset Rd,Henderson,89014,(702)435-9200,Rental House/Dealer,thdrentalkeyaccount@homedepot.com
NV,Rainbow Rd,861 S Rainbow Blvd,Las Vegas,89145,(702)870-9600,Rental House/Dealer,thdrentalkeyaccount@homedepot.com
NV,Centennial Parkway,7881 W Tropical Pkwy,Las Vegas,89149,(702)839-5100,Rental House/Dealer,thdrentalkeyaccount@homedepot.com
NV,Rainbow-Arroyo Crossing,7015 Arroyo Crossing Pkwy 3,Las Vegas,89113,(702)270-6446,Rental House/Dealer,thdrentalkeyaccount@homedepot.com
NV,Summerlin,9705 W Charleston Blvd,Las Vegas,89117,(702)940-2426,Rental House/Dealer,thdrentalkeyaccount@homedepot.com
NV,South Las Vegas,2200 E Serene Ave,Las Vegas,89123,(702)837-4300,Rental House/Dealer,thdrentalkeyaccount@homedepot.com
NV,Pecos,6025 S Pecos Rd,Las Vegas,89120,(702)434-1948,Rental House/Dealer,thdrentalkeyaccount@homedepot.com
NV,E Las Vegas,1401 S Lamb Blvd,Las Vegas,89104,(702)641-9600,Rental House/Dealer,thdrentalkeyaccount@homedepot.com
NV,W Central Las Vegas,4750 S Decatur Blvd,Las Vegas,89103,(702)871-5035,Rental House/Dealer,thdrentalkeyaccount@homedepot.com
NV,SW Las Vegas,4195 S Fort Apache Rd,Las Vegas,89147,(702)220-4903,Rental House/Dealer,thdrentalkeyaccount@homedepot.com
NV,Nv Aliante,855 East Dorrell Lane,North Las Vegas,89086,(702)399-3566,Rental House/Dealer,thdrentalkeyaccount@homedepot.com
NV,North Las Vegas,1275 W Craig Rd,North Las Vegas,89032,(702)642-2600,Rental House/Dealer,thdrentalkeyaccount@homedepot.com
NV,Pahrump,301 N Hwy 160,Pahrump,89060,(775)751-6004,Rental House/Dealer,thdrentalkeyaccount@homedepot.com
NV,West Reno,5125 Summit Ridge Ct,Reno,89523,(775)787-9690,Rental House/Dealer,thdrentalkeyaccount@homedepot.com
NV,N Reno,2955 Northtowne Ln,Reno,89512,(775)674-2900,Rental House/Dealer,thdrentalkeyaccount@homedepot.com
NV,Reno,6590 S Virginia St,Reno,89511,(775)851-9600,Rental House/Dealer,thdrentalkeyaccount@homedepot.com
NV,S Reno,1001 Steamboat Pkwy,Reno,89521,(775)851-6000,Rental House/Dealer,thdrentalkeyaccount@homedepot.com
NV,Spanish Springs,4755 Galleria Parkway,Sparks,89436,(775)354-2245,Rental House/Dealer,thdrentalkeyaccount@homedepot.com
NY,Albany,161 Washington Ave Ext,Albany,12205,(518)452-9600,Rental House/Dealer,thdrentalkeyaccount@homedepot.com
NY,Albany Central,979 Central Ave,Albany,12205,(518)438-1586,Rental House/Dealer,thdrentalkeyaccount@homedepot.com
NY,Amherst,2065 Niagara Falls Blvd,Amherst,14228,(716)639-9600,Rental House/Dealer,thdrentalkeyaccount@homedepot.com
NY,Amsterdam,135 Hannaford Plaza,Amsterdam,12010,(518)843-1275,Rental House/Dealer,thdrentalkeyaccount@homedepot.com
NY,Auburn,1634 Clark Street Rd,Auburn,13021,(315)252-4540,Rental House/Dealer,thdrentalkeyaccount@homedepot.com
NY,Batavia,4181 Veterans Memorial Dr,Batavia,14020,(585)813-0144,Rental House/Dealer,thdrentalkeyaccount@homedepot.com
NY,Bayshore,1881 Sunrise Hwy,Bay Shore,11706,(631)666-3800,Rental House/Dealer,thdrentalkeyaccount@homedepot.com
NY,Bruckner Blvd And Brush,2560 Bruckner Blvd,Bronx,10465,(718)828-1071,Rental House/Dealer,thdrentalkeyaccount@homedepot.com
NY,Bronx Terminal,600 Exterior Street,Bronx,10451,(718)401-2520,Rental House/Dealer,thdrentalkeyaccount@homedepot.com
NY,Bronx,1806 E Gunhill Rd,Bronx,10469,(718)862-9800,Rental House/Dealer,thdrentalkeyaccount@homedepot.com
NY,Brooklyn,550 Hamilton Ave,Brooklyn,11232,(718)832-8553,Rental House/Dealer,thdrentalkeyaccount@homedepot.com
NY,Starett City,579 Gateway Dr,Brooklyn,11239,(718)827-9568,Rental House/Dealer,thdrentalkeyaccount@homedepot.com
NY,Cropsey,2970 Cropsey Ave,Brooklyn,11214,(718)333-9850,Rental House/Dealer,thdrentalkeyaccount@homedepot.com
NY,Bedford Stuyvesant,230 Nostrand Avenue,Brooklyn,11205,(718)230-0833,Rental House/Dealer,thdrentalkeyaccount@homedepot.com
NY,Mill Basin,5700 Avenue U,Brooklyn,11234,(718)692-7296,Rental House/Dealer,thdrentalkeyaccount@homedepot.com
NY,Hamburg,4405 Milestrip Rd,Buffalo,14219,(716)825-0872,Rental House/Dealer,thdrentalkeyaccount@homedepot.com
NY,North Buffalo,2100 Elmwood Ave,Buffalo,14207,(716)871-8800,Rental House/Dealer,thdrentalkeyaccount@homedepot.com
NY,Camillus,3756 Milton Avenue,Camillus,13031,(315)484-7240,Rental House/Dealer,thdrentalkeyaccount@homedepot.com
NY,Central Islip,301 South Research Place,Central Islip,11722,(631)234-2670,Rental House/Dealer,thdrentalkeyaccount@homedepot.com
NY,Cheektowaga,300 Thruway Plaza Dr,Cheektowaga,14225,(716)895-6680,Rental House/Dealer,thdrentalkeyaccount@homedepot.com
NY,Cicero,7922 Brewerton Road,Cicero,13039,(315)699-5440,Rental House/Dealer,thdrentalkeyaccount@homedepot.com
NY,East Northport,5025 Jericho Turnpike,Commack,11725,(631)462-5300,Rental House/Dealer,thdrentalkeyaccount@homedepot.com
NY,Dunkirk,3901 Vineyard Dr,Dunkirk,14048,(716)672-8200,Rental House/Dealer,thdrentalkeyaccount@homedepot.com
NY,Bulova/Queens,73-01 25th Avenue,East Elmhurst,11370,(718)507-9007,Rental House/Dealer,thdrentalkeyaccount@homedepot.com
NY,Dewitt/E Syracuse,5814 Bridge St,East Syracuse,13057,(315)449-2920,Rental House/Dealer,thdrentalkeyaccount@homedepot.com
NY,Elmont,600 Hempstead Turnpike,Elmont,11003,(516)488-8500,Rental House/Dealer,thdrentalkeyaccount@homedepot.com
NY,Fishkill,450 State Route 9,Fishkill,12524,(845)896-0824,Rental House/Dealer,thdrentalkeyaccount@homedepot.com
NY,Flushing,131-35 Avery Ave,Flushing,11355,(718)358-9600,Rental House/Dealer,thdrentalkeyaccount@homedepot.com
NY,College Point,124-04 31st Ave,Flushing,11354,(718)661-4608,Rental House/Dealer,thdrentalkeyaccount@homedepot.com
NY,Freeport,160 E Sunrise Hwy,Freeport,11520,(516)546-6280,Rental House/Dealer,thdrentalkeyaccount@homedepot.com
NY,Woodhaven Blvd/Queens,75-09 Woodhaven Blvd,Glendale,11385,(718)830-3323,Rental House/Dealer,thdrentalkeyaccount@homedepot.com
NY,Greece,1250 West Ridge Rd,Greece,14615,(585)865-1900,Rental House/Dealer,thdrentalkeyaccount@homedepot.com
NY,Clifton Park,4 Halfmoon Crossing Blvd,Halfmoon,12065,(518)348-0158,Rental House/Dealer,thdrentalkeyaccount@homedepot.com
NY,Mount Pleasant,1 Saw Mill River Road,Hawthorne,10532,(914)593-7110,Rental House/Dealer,thdrentalkeyaccount@homedepot.com
NY,Hempstead,172 Fulton Ave,Hempstead,11550,(516)565-3700,Rental House/Dealer,thdrentalkeyaccount@homedepot.com
NY,Huntington,785 New York Avenue,Huntington,11743,(631)424-9170,Rental House/Dealer,thdrentalkeyaccount@homedepot.com
NY,Ithaca,410 Elmira Rd Bldg 1,Ithaca,14850,(607)272-1093,Rental House/Dealer,thdrentalkeyaccount@homedepot.com
NY,Springfield Gardens,13220 Merrick Blvd,Jamaica,11434,(718)977-2081,Rental House/Dealer,thdrentalkeyaccount@homedepot.com
NY,Jamaica,92-30 168th Street,Jamaica,11433,(718)558-8640,Rental House/Dealer,thdrentalkeyaccount@homedepot.com
NY,Jamestown,935 Fairmount Avenue,Jamestown,14701,(716)665-3999,Rental House/Dealer,thdrentalkeyaccount@homedepot.com
NY,Binghamton,798 Main St,Johnson City,13790,(607)785-8614,Rental House/Dealer,thdrentalkeyaccount@homedepot.com
NY,Kingston/Ulster,1122 Ulster Ave,Kingston,12401,(845)336-4575,Rental House/Dealer,thdrentalkeyaccount@homedepot.com
NY,Latham,579 Troy-schenectady Rd,Latham,12110,(518)782-9867,Rental House/Dealer,thdrentalkeyaccount@homedepot.com
NY,Catskill,695 Rt 23b,Leeds,12451,(518)943-1135,Rental House/Dealer,thdrentalkeyaccount@homedepot.com
NY,Clay,3861 State Route 31,Liverpool,13090,(315)622-0702,Rental House/Dealer,thdrentalkeyaccount@homedepot.com
NY,Lockport,5730 S Transit Rd,Lockport,14094,(716)439-4898,Rental House/Dealer,thdrentalkeyaccount@homedepot.com
NY,Long Island City,50-10 Northern Blvd,Long Island City,11101,(718)278-9031,Rental House/Dealer,thdrentalkeyaccount@homedepot.com
NY,Maspeth,59-15 Maurice Avenue,Maspeth,11378,(347)665-0340,Rental House/Dealer,thdrentalkeyaccount@homedepot.com
NY,Massena,41 Stephenville Road,Massena,13662,(315)764-9930,Rental House/Dealer,thdrentalkeyaccount@homedepot.com
NY,Wallkill,474 Route 211 East,Middletown,10940,(845)343-9200,Rental House/Dealer,thdrentalkeyaccount@homedepot.com
NY,Cortland/Mohegan,3051 E Main St,Mohegan Lake,10547,(914)528-1539,Rental House/Dealer,thdrentalkeyaccount@homedepot.com
NY,Harriman,254 Larkin Drive,Monroe,10950,(845)781-4307,Rental House/Dealer,thdrentalkeyaccount@homedepot.com
NY,Thompson,68 Thompson Square,Monticello,12701,(845)794-2498,Rental House/Dealer,thdrentalkeyaccount@homedepot.com
NY,Utica,545 French Road,New Hartford,13413,(315)797-5300,Rental House/Dealer,thdrentalkeyaccount@homedepot.com
NY,New Rochelle,55 Weyman Ave,New Rochelle,10805,(914)235-7575,Rental House/Dealer,thdrentalkeyaccount@homedepot.com
NY,Manhattan West 23rd St,40 West 23rd Street,New York,10010,(212)929-9571,Rental House/Dealer,thdrentalkeyaccount@homedepot.com
NY,Midtown Manhattan,410 East 61st Street,New York,10065,(212)209-0500,Rental House/Dealer,thdrentalkeyaccount@homedepot.com
NY,Newburgh,1220 Route 300,Newburgh,12550,(845)561-6540,Rental House/Dealer,thdrentalkeyaccount@homedepot.com
NY,Niagara Falls,750 Builders Way,Niagara Falls,14304,(716)236-0761,Rental House/Dealer,thdrentalkeyaccount@homedepot.com
NY,Olean,1900 Dan Eaton Drive,Olean,14760,(716)372-3725,Rental House/Dealer,thdrentalkeyaccount@homedepot.com
NY,Oneonta,659 State Hwy 28,Oneonta,13820,(607)432-1089,Rental House/Dealer,thdrentalkeyaccount@homedepot.com
NY,Corning,3160 Silverback Lane,Painted Post,14870,(607)936-1400,Rental House/Dealer,thdrentalkeyaccount@homedepot.com
NY,Port Chester,150 Midland Ave,Port Chester,10573,(914)690-9745,Rental House/Dealer,thdrentalkeyaccount@homedepot.com
NY,Glens Falls,820 Route 9,Queensbury,12804,(518)798-8301,Rental House/Dealer,thdrentalkeyaccount@homedepot.com
NY,North Greenbush,600 N Greenbush Rd,Rensselaer,12144,(518)283-1819,Rental House/Dealer,thdrentalkeyaccount@homedepot.com
NY,Penfield/Rochester,750 Panorama Trails S,Rochester,14625,(585)385-4090,Rental House/Dealer,thdrentalkeyaccount@homedepot.com
NY,Irondequoit,1111 E Ridge Rd,Rochester,14621,(585)342-0970,Rental House/Dealer,thdrentalkeyaccount@homedepot.com
NY,Gates,2361 Buffalo Rd,Rochester,14624,(585)247-0220,Rental House/Dealer,thdrentalkeyaccount@homedepot.com
NY,Henrietta,770 Jefferson Road,Rochester,14623,(585)427-0390,Rental House/Dealer,thdrentalkeyaccount@homedepot.com
NY,Saratoga Springs,3043 Route 50,Saratoga Springs,12866,(518)581-6480,Rental House/Dealer,thdrentalkeyaccount@homedepot.com
NY,Schenectady,2500 Cambridge Rd,Schenectady,12304,(518)388-9121,Rental House/Dealer,thdrentalkeyaccount@homedepot.com
NY,Selden,401 Independence Plaza,Selden,11784,(631)732-9200,Rental House/Dealer,thdrentalkeyaccount@homedepot.com
NY,Shirley,399 William Floyd Pkwy,Shirley,11967,(631)395-3764,Rental House/Dealer,thdrentalkeyaccount@homedepot.com
NY,Ozone Park,11220 Rockaway Blvd,South Ozone Park,11420,(718)641-5500,Rental House/Dealer,thdrentalkeyaccount@homedepot.com
NY,Staten Island,2501 Forest Ave,Staten Island,10303,(718)273-5069,Rental House/Dealer,thdrentalkeyaccount@homedepot.com
NY,Staten Island East,545 Targee St,Staten Island,10304,(718)818-9334,Rental House/Dealer,thdrentalkeyaccount@homedepot.com
NY,Staten Island South,2750 Veterans Road West,Staten Island,10309,(718)984-4690,Rental House/Dealer,thdrentalkeyaccount@homedepot.com
NY,Syosset,111 Jericho Turnpike,Syosset,11791,(516)364-4677,Rental House/Dealer,thdrentalkeyaccount@homedepot.com
NY,Valley Stream,101 Green Acres Road,Valley Stream,11581,(516)823-0700,Rental House/Dealer,thdrentalkeyaccount@homedepot.com
NY,Victor,7600 Commons Blvd,Victor,14564,(585)223-2510,Rental House/Dealer,thdrentalkeyaccount@homedepot.com
NY,Watertown,391 College Heights,Watertown,13601,(315)788-8539,Rental House/Dealer,thdrentalkeyaccount@homedepot.com
NY,West Nyack,2024 Palisades Ctr Dr,West Nyack,10994,(845)348-0566,Rental House/Dealer,thdrentalkeyaccount@homedepot.com
NY,Seneca,1881 Ridge Rd,West Seneca,14224,(716)677-7445,Rental House/Dealer,thdrentalkeyaccount@homedepot.com
NY,Raceway,1300-1320 Corporate Drive,Westbury,11590,(516)794-1101,Rental House/Dealer,thdrentalkeyaccount@homedepot.com
NY,Clarence,4139 Transit Rd,Williamsville,14221,(716)633-9200,Rental House/Dealer,thdrentalkeyaccount@homedepot.com
NY,Yonkers,601 South Sprain Rd,Yonkers,10710,(914)963-3003,Rental House/Dealer,thdrentalkeyaccount@homedepot.com
OH,Ashland,1060 Sugarbush Drive,Ashland,44805,(419)207-8319,Rental House/Dealer,thdrentalkeyaccount@homedepot.com
OH,Ashtabula,3200 Market Place Dr,Ashtabula,44004,(440)992-7797,Rental House/Dealer,thdrentalkeyaccount@homedepot.com
OH,Austintown,6100 Mahoning Avenue,Austintown,44515,(330)270-8414,Rental House/Dealer,thdrentalkeyaccount@homedepot.com
OH,Avon,35930 Detroit Rd,Avon,44011,(440)937-2240,Rental House/Dealer,thdrentalkeyaccount@homedepot.com
OH,Bowling Green,1169 S Main St,Bowling Green,43402,(419)353-3731,Rental House/Dealer,thdrentalkeyaccount@homedepot.com
OH,Canal Winchester,6035 Gender Road,Canal Winchester,43110,(614)833-6700,Rental House/Dealer,thdrentalkeyaccount@homedepot.com
OH,Centerville,5860 Wilmington Pike Rd,Centerville,45459,(937)312-9076,Rental House/Dealer,thdrentalkeyaccount@homedepot.com
OH,Chardon,287 Meadowlands Drive,Chardon,44024,(440)285-7400,Rental House/Dealer,thdrentalkeyaccount@homedepot.com
OH,Cross County (Colerain),3461 Joseph Rd,Cincinnati,45251,(513)923-9157,Rental House/Dealer,thdrentalkeyaccount@homedepot.com
OH,Pleasant Ridge,3400 Highland Ave,Cincinnati,45213,(513)631-1705,Rental House/Dealer,thdrentalkeyaccount@homedepot.com
OH,Forest Park,1266 Omniplex Dr,Cincinnati,45240,(513)671-6012,Rental House/Dealer,thdrentalkeyaccount@homedepot.com
OH,Beechmont,520 Ohio Pike,Cincinnati,45255,(513)688-1654,Rental House/Dealer,thdrentalkeyaccount@homedepot.com
OH,Western Hills,6300 Glenway Ave,Cincinnati,45211,(513)661-2413,Rental House/Dealer,thdrentalkeyaccount@homedepot.com
OH,Steelyard,3355 Steelyard Drive,Cleveland,44109,(216)741-6123,Rental House/Dealer,thdrentalkeyaccount@homedepot.com
OH,Cleveland Heights,3460 Mayfield Rd,Cleveland Heights,44118,(216)297-1303,Rental House/Dealer,thdrentalkeyaccount@homedepot.com
OH,Trotwood,5200 Salem Ave,Dayton,45426,(937)837-1551,Rental House/Dealer,thdrentalkeyaccount@homedepot.com
OH,Miamisburg,345 N Springboro Pike,Dayton,45449,(937)312-9053,Rental House/Dealer,thdrentalkeyaccount@homedepot.com
OH,Sawmill,5858 Sawmill Rd,Dublin,43017,(614)761-7770,Rental House/Dealer,thdrentalkeyaccount@homedepot.com
OH,Beavercreek,3775 Presidential Dr,Fairborn,45324,(937)431-7346,Rental House/Dealer,thdrentalkeyaccount@homedepot.com
OH,Fairlawn,4066 Medina Rd,Fairlawn,44333,(330)670-0988,Rental House/Dealer,thdrentalkeyaccount@homedepot.com
OH,E Hamilton,6562 Winford Ave,Hamilton,45011,(513)887-1450,Rental House/Dealer,thdrentalkeyaccount@homedepot.com
OH,Harrison,400 Comfort Dr,Harrison,45030,(513)367-7700,Rental House/Dealer,thdrentalkeyaccount@homedepot.com
OH,Hilliard,4101 Trueman Blvd,Hilliard,43026,(614)876-5558,Rental House/Dealer,thdrentalkeyaccount@homedepot.com
OH,Lebanon,1889 Deerfield Rd,Lebanon,45036,(513)228-0170,Rental House/Dealer,thdrentalkeyaccount@homedepot.com
OH,Lorain,4330 Leavitt Road,Lorain,44053,(440)282-4066,Rental House/Dealer,thdrentalkeyaccount@homedepot.com
OH,Macedonia,8211 Macedonia Commons Blvd,Macedonia,44056,(330)908-1300,Rental House/Dealer,thdrentalkeyaccount@homedepot.com
OH,Ontario,2000 August Dr,Mansfield,44906,(419)529-0015,Rental House/Dealer,thdrentalkeyaccount@homedepot.com
OH,Marysville,880 Colemans Xing,Marysville,43040,(937)578-0280,Rental House/Dealer,thdrentalkeyaccount@homedepot.com
OH,Fields-Ertel,5203 Bardes Rd,Mason,45040,(513)398-0937,Rental House/Dealer,thdrentalkeyaccount@homedepot.com
OH,Massillon,2406 Lincoln Way E,Massillon,44646,(330)830-0038,Rental House/Dealer,thdrentalkeyaccount@homedepot.com
OH,Milford,1094 State Hwy 28,Milford,45150,(513)722-1706,Rental House/Dealer,thdrentalkeyaccount@homedepot.com
OH,Newark,1330 N 21st Street,Newark,43055,(740)364-1241,Rental House/Dealer,thdrentalkeyaccount@homedepot.com
OH,North Olmsted,26241 Brookpark Rd,North Olmsted,44070,(440)734-0556,Rental House/Dealer,thdrentalkeyaccount@homedepot.com
OH,Piqua,1200 E Ash St,Piqua,45356,(937)615-9606,Rental House/Dealer,thdrentalkeyaccount@homedepot.com
OH,Orange Township,8704 Owenfield Dr,Powell,43065,(740)548-9961,Rental House/Dealer,thdrentalkeyaccount@homedepot.com
OH,Rocky River,21669 Center Ridge Rd,Rocky River,44116,(440)895-4420,Rental House/Dealer,thdrentalkeyaccount@homedepot.com
OH,Rossford,9570 Olde Us 20,Rossford,43460,(419)872-5516,Rental House/Dealer,thdrentalkeyaccount@homedepot.com
OH,Salem,2900 E State St,Salem,44460,(330)337-3232,Rental House/Dealer,thdrentalkeyaccount@homedepot.com
OH,Sandusky,715 Crossings Rd,Sandusky,44870,(419)626-6493,Rental House/Dealer,thdrentalkeyaccount@homedepot.com
OH,Springfield,1880 Bechtle Ave,Springfield,45504,(937)342-1051,Rental House/Dealer,thdrentalkeyaccount@homedepot.com
OH,Strongsville,8199 Pearl Rd,Strongsville,44136,(440)826-9092,Rental House/Dealer,thdrentalkeyaccount@homedepot.com
OH,W Toledo,5900 Airport Hwy,Toledo,43615,(419)866-3024,Rental House/Dealer,thdrentalkeyaccount@homedepot.com
OH,Westgate,3200 Secor Rd,Toledo,43606,(419)537-1920,Rental House/Dealer,thdrentalkeyaccount@homedepot.com
OH,NE Toledo,1035 W Alexis Rd,Toledo,43612,(419)476-4573,Rental House/Dealer,thdrentalkeyaccount@homedepot.com
OH,Niles,1900 Niles Cortland Rd Se,Warren,44484,(330)505-0225,Rental House/Dealer,thdrentalkeyaccount@homedepot.com
OH,Washington Courthouse,300 Depot Drive,Washington Court House,43160,(740)335-6330,Rental House/Dealer,thdrentalkeyaccount@homedepot.com
OH,West Chester,7749 Dudley Dr,West Chester,45069,(513)759-4527,Rental House/Dealer,thdrentalkeyaccount@homedepot.com
OH,Westerville,6017 Maxtown Rd,Westerville,43082,(614)794-3651,Rental House/Dealer,thdrentalkeyaccount@homedepot.com
OH,Zanesville,3787 Home Depot Drive,Zanesville,43701,(740)588-9885,Rental House/Dealer,thdrentalkeyaccount@homedepot.com
OK,Ada,515 Ne Richardson Loop,Ada,74820,(580)332-4018,Rental House/Dealer,thdrentalkeyaccount@homedepot.com
OK,Lawton,4010 Nw Oak St,Lawton,73505,(580)354-0986,Rental House/Dealer,thdrentalkeyaccount@homedepot.com
OK,NW Oklahoma City,7620 Nw Expressway,Oklahoma City,73132,(405)773-6077,Rental House/Dealer,thdrentalkeyaccount@homedepot.com
OK,Owasso,9450 N 129th E Ave,Owasso,74055,(918)376-9975,Rental House/Dealer,thdrentalkeyaccount@homedepot.com
OK,North Tulsa,901 S Elgin Ave,Tulsa,74120,(918)583-3400,Rental House/Dealer,thdrentalkeyaccount@homedepot.com
OK,SW Tulsa,8880 S Delaware Ave,Tulsa,74137,(918)299-3028,Rental House/Dealer,thdrentalkeyaccount@homedepot.com
OK,Tulsa Central,4041 S Sheridan Road,Tulsa,74145,(918)632-0069,Rental House/Dealer,thdrentalkeyaccount@homedepot.com
OK,South Tulsa,9808 E 71st,Tulsa,74133,(918)459-3700,Rental House/Dealer,thdrentalkeyaccount@homedepot.com
OR,Albany,3500 Spicer Dr Se,Albany,97322,(541)812-0808,Rental House/Dealer,thdrentalkeyaccount@homedepot.com
OR,Bend,63465 N Hwy 97,Bend,97703,(541)382-1020,Rental House/Dealer,thdrentalkeyaccount@homedepot.com
OR,Corvallis,1780 Ne Four Acre Place,Corvallis,97330,(541)758-9303,Rental House/Dealer,thdrentalkeyaccount@homedepot.com
OR,Eugene,1045 Green Acres Rd,Eugene,97408,(541)344-1312,Rental House/Dealer,thdrentalkeyaccount@homedepot.com
OR,West Eugene,808 Seneca Road,Eugene,97402,(541)434-9025,Rental House/Dealer,thdrentalkeyaccount@homedepot.com
OR,Grants Pass,111 Northeast Mill Street,Grants Pass,97526,(541)226-0114,Rental House/Dealer,thdrentalkeyaccount@homedepot.com
OR,Klamath Falls,6451 S 6th St,Klamath Falls,97603,(541)273-8325,Rental House/Dealer,thdrentalkeyaccount@homedepot.com
OR,Ontario,311 E Lane N,Ontario,97914,(541)823-1355,Rental House/Dealer,thdrentalkeyaccount@homedepot.com
OR,Phoenix,3345 Grove Road,Phoenix,97535,(541)512-1458,Rental House/Dealer,thdrentalkeyaccount@homedepot.com
OR,NE Portland,11630 Ne Glenn Widing Drive,Portland,97220,(503)252-0188,Rental House/Dealer,thdrentalkeyaccount@homedepot.com
OR,Jantzen Beach,1728 N Tomahawk Island Dr,Portland,97217,(503)286-8200,Rental House/Dealer,thdrentalkeyaccount@homedepot.com
OR,Roseburg,3000 Aviation Drive,Roseburg,97470,(541)672-1823,Rental House/Dealer,thdrentalkeyaccount@homedepot.com
OR,Sherwood,20260 Sw Pacific Hwy,Sherwood,97140,(503)925-8447,Rental House/Dealer,thdrentalkeyaccount@homedepot.com
OR,The Dalles,3600 W 6th Street,The Dalles,97058,(541)296-7006,Rental House/Dealer,thdrentalkeyaccount@homedepot.com
OR,Troutdale,25101 Se Stark St,Troutdale,97060,(503)674-8747,Rental House/Dealer,thdrentalkeyaccount@homedepot.com
OR,Warrenton,1650 Se Ensign Lane,Warrenton,97146,(503)861-9999,Rental House/Dealer,thdrentalkeyaccount@homedepot.com
PA,Trexlertown,5877 Hamilton Blvd.,Allentown,18106,(610)870-6800,Rental House/Dealer,thdrentalkeyaccount@homedepot.com
PA,Allison Park,4960 William Flynn Highway,Allison Park,15101,(724)449-4440,Rental House/Dealer,thdrentalkeyaccount@homedepot.com
PA,Altoona,1676 Osgood Drive,Altoona,16602,(814)944-1309,Rental House/Dealer,thdrentalkeyaccount@homedepot.com
PA,Chippewa,2670 Constitution Blvd,Beaver Falls,15010,(724)846-7990,Rental House/Dealer,thdrentalkeyaccount@homedepot.com
PA,Bethel Park,4000 Oxford Drive,Bethel Park,15102,(412)835-4271,Rental House/Dealer,thdrentalkeyaccount@homedepot.com
PA,Bethlehem,3926 Nazareth Pike,Bethlehem,18020,(610)882-0252,Rental House/Dealer,thdrentalkeyaccount@homedepot.com
PA,Bloomsburg,9 Gus Ave,Bloomsburg,17815,(570)387-8429,Rental House/Dealer,thdrentalkeyaccount@homedepot.com
PA,Butler,400 Moraine Point Plaza,Butler,16001,(724)282-7458,Rental House/Dealer,thdrentalkeyaccount@homedepot.com
PA,Carlisle,1013 S Hanover Street,Carlisle,17013,(717)249-1771,Rental House/Dealer,thdrentalkeyaccount@homedepot.com
PA,Plymouth Township,200 Alan Wood Road,Conshohocken,19428,(610)834-1228,Rental House/Dealer,thdrentalkeyaccount@homedepot.com
PA,Cranberry,25 Dutilh Rd,Cranberry Township,16066,(724)779-5180,Rental House/Dealer,thdrentalkeyaccount@homedepot.com
PA,Dickson City,800 Commerce Blvd,Dickson City,18519,(570)346-3471,Rental House/Dealer,thdrentalkeyaccount@homedepot.com
PA,Erie,7451 Peach Street,Erie,16509,(814)866-2772,Rental House/Dealer,thdrentalkeyaccount@homedepot.com
PA,Oil City,6874 Us 322,Franklin,16323,(814)677-2075,Rental House/Dealer,thdrentalkeyaccount@homedepot.com
PA,E Whiteland/Frazer,690 Lancaster Pike,Frazer,19355,(610)722-0707,Rental House/Dealer,thdrentalkeyaccount@homedepot.com
PA,Concord Township,200 Hatton Drive,Glen Mills,19342,(610)459-4278,Rental House/Dealer,thdrentalkeyaccount@homedepot.com
PA,Greensburg,6291 U.s. 30,Greensburg,15601,(724)523-0468,Rental House/Dealer,thdrentalkeyaccount@homedepot.com
PA,Lower Paxton,5101 Jonestown Rd,Harrisburg,17112,(717)651-9699,Rental House/Dealer,thdrentalkeyaccount@homedepot.com
PA,Hermitage,3300 Shenango Valley Fwy,Hermitage,16148,(724)981-3054,Rental House/Dealer,thdrentalkeyaccount@homedepot.com
PA,Honesdale,721 Old Willow Ave,Honesdale,18431,(570)253-3148,Rental House/Dealer,thdrentalkeyaccount@homedepot.com
PA,Johnstown,679 Galleria Drive Ext,Johnstown,15904,(814)539-1975,Rental House/Dealer,thdrentalkeyaccount@homedepot.com
PA,Lancaster,"1700 Fruitville Pike, Ste D",Lancaster,17601,(717)239-3980,Rental House/Dealer,thdrentalkeyaccount@homedepot.com
PA,Lebanon,801 E Walnut Street,Lebanon,17042,(717)273-4829,Rental House/Dealer,thdrentalkeyaccount@homedepot.com
PA,Matamoras,125 Reuben Bell Dr,Matamoras,18336,(570)491-5938,Rental House/Dealer,thdrentalkeyaccount@homedepot.com
PA,Meadville,18541 Smock Highway,Meadville,16335,(814)337-7600,Rental House/Dealer,thdrentalkeyaccount@homedepot.com
PA,Mechanicsburg,6000 Carlisle Pike,Mechanicsburg,17050,(717)795-9602,Rental House/Dealer,thdrentalkeyaccount@homedepot.com
PA,New Freedom,960 Far Hills Dr,New Freedom,17349,(717)227-1040,Rental House/Dealer,thdrentalkeyaccount@homedepot.com
PA,North Versailles,102 Aldi Drive,North Versailles,15137,(412)816-1231,Rental House/Dealer,thdrentalkeyaccount@homedepot.com
PA,Phil/Oregon Ave,2200 Oregon Avenue,Philadelphia,19145,(215)551-1753,Rental House/Dealer,thdrentalkeyaccount@homedepot.com
PA,Port Richmond,2539 Castor Ave,Philadelphia,19134,(215)744-1128,Rental House/Dealer,thdrentalkeyaccount@homedepot.com
PA,Bustleton Ave,11725 Bustleton Ave,Philadelphia,19116,(215)676-7029,Rental House/Dealer,thdrentalkeyaccount@homedepot.com
PA,Roosevelt,4640 Roosevelt Blvd,Philadelphia,19124,(215)537-6100,Rental House/Dealer,thdrentalkeyaccount@homedepot.com
PA,Lower Pottsgrove,295 Armand Hammer Blvd,Pottstown,19464,(610)718-9388,Rental House/Dealer,thdrentalkeyaccount@homedepot.com
PA,Upper Darby,5342 W Baltimore Pike,Primos-secane,19018,(610)394-9600,Rental House/Dealer,thdrentalkeyaccount@homedepot.com
PA,East Reading,5410 Perkiomen Ave,Reading,19606,(610)582-7064,Rental House/Dealer,thdrentalkeyaccount@homedepot.com
PA,Saint Clair,600 Terry Rich Blvd,Saint Clair,17970,(570)429-1293,Rental House/Dealer,thdrentalkeyaccount@homedepot.com
PA,Patton Twp,2615 Greentech Drive,State College,16803,(814)238-1524,Rental House/Dealer,thdrentalkeyaccount@homedepot.com
PA,Stroudsburg,150 Pocono Commons,Stroudsburg,18360,(570)476-6656,Rental House/Dealer,thdrentalkeyaccount@homedepot.com
PA,Harrisburg,4200 Derry Street,Swatara,17111,(717)558-8105,Rental House/Dealer,thdrentalkeyaccount@homedepot.com
PA,Uniontown,115 Matthews Dr,Uniontown,15401,(724)439-6479,Rental House/Dealer,thdrentalkeyaccount@homedepot.com
PA,Warrington,650 Easton Rd,Warrington,18976,(215)491-0189,Rental House/Dealer,thdrentalkeyaccount@homedepot.com
PA,S Strabane/Washington,255 Murtland Ave,Washington,15301,(724)229-7849,Rental House/Dealer,thdrentalkeyaccount@homedepot.com
PA,West Mifflin,9971 Mountain View Dr,West Mifflin,15122,(412)650-9460,Rental House/Dealer,thdrentalkeyaccount@homedepot.com
PA,Whitehall,1350 Macarthur Rd,Whitehall,18052,(610)770-6440,Rental House/Dealer,thdrentalkeyaccount@homedepot.com
PA,Wilkes-Barre,41 Spring St,Wilkes-barre,18702,(570)820-5901,Rental House/Dealer,thdrentalkeyaccount@homedepot.com
PA,Cheltenham,7690 Washington Lane,Wyncote,19095,(215)881-9600,Rental House/Dealer,thdrentalkeyaccount@homedepot.com
PA,Wyomissing,1731 Crossing Dr,Wyomissing,19610,(610)375-2996,Rental House/Dealer,thdrentalkeyaccount@homedepot.com
RI,N Kingstown,1255 Ten Rod Road,North Kingstown,02852,(401)295-1184,Rental House/Dealer,thdrentalkeyaccount@homedepot.com
RI,Warwick,80 Universal Blvd,Warwick,02886,(401)826-0600,Rental House/Dealer,thdrentalkeyaccount@homedepot.com
SC,Aiken,1785 Whiskey Rd,Aiken,29803,(803)648-6444,Rental House/Dealer,thdrentalkeyaccount@homedepot.com
SC,Anderson,3427 Clemson Blvd,Anderson,29621,(864)964-0820,Rental House/Dealer,thdrentalkeyaccount@homedepot.com
SC,Hilton Head,20 Gateway Village Road,Bluffton,29910,(843)815-7000,Rental House/Dealer,thdrentalkeyaccount@homedepot.com
SC,Charleston,7554 Northwood Blvd,Charleston,29406,(843)569-3773,Rental House/Dealer,thdrentalkeyaccount@homedepot.com
SC,East Charleston,2008 Magwood Dr,Charleston,29414,(843)556-2447,Rental House/Dealer,thdrentalkeyaccount@homedepot.com
SC,Sandhills,285 Forum Drive,Columbia,29229,(803)419-9336,Rental House/Dealer,thdrentalkeyaccount@homedepot.com
SC,East Columbia,7701 Two Notch Rd,Columbia,29223,(803)736-1666,Rental House/Dealer,thdrentalkeyaccount@homedepot.com
SC,West Columbia,5200 Fernandina Rd,Columbia,29212,(803)781-0877,Rental House/Dealer,thdrentalkeyaccount@homedepot.com
SC,Florence,3051 West Radio Drive,Florence,29501,(843)661-2597,Rental House/Dealer,thdrentalkeyaccount@homedepot.com
SC,North Greenville,2490 N Pleasantburg Dr,Greenville,29609,(864)232-0510,Rental House/Dealer,thdrentalkeyaccount@homedepot.com
SC,Lancaster,1116 Highway 9 Byp W,Lancaster,29720,(803)286-9700,Rental House/Dealer,thdrentalkeyaccount@homedepot.com
SC,Lexington,5600 Sunset Blvd,Lexington,29072,(803)359-1194,Rental House/Dealer,thdrentalkeyaccount@homedepot.com
SC,Mt. Pleasant,2213 North Highway 17,Mount Pleasant,29466,(843)972-6800,Rental House/Dealer,thdrentalkeyaccount@homedepot.com
SC,Murrells Inlet,12262 Hwy 17 Bypass,Murrells Inlet,29576,(843)357-3777,Rental House/Dealer,thdrentalkeyaccount@homedepot.com
SC,Myrtle Beach,951 Oak Forest Ln,Myrtle Beach,29577,(843)916-2229,Rental House/Dealer,thdrentalkeyaccount@homedepot.com
SC,North Myrtle Beach,620 Hwy 17 N,North Myrtle Beach,29582,(843)280-9908,Rental House/Dealer,thdrentalkeyaccount@homedepot.com
SC,Seneca,1614 Sandifer Blvd,Seneca,29678,(864)886-0633,Rental House/Dealer,thdrentalkeyaccount@homedepot.com
SC,Summerville,190 Marymeade Dr,Summerville,29483,(843)851-0468,Rental House/Dealer,thdrentalkeyaccount@homedepot.com
SD,Sioux Falls,2523 S Louise Ave,Sioux Falls,57106,(605)361-7439,Rental House/Dealer,thdrentalkeyaccount@homedepot.com
TN,Chattanooga,7421 Commons Blvd,Chattanooga,37421,(423)499-1959,Rental House/Dealer,thdrentalkeyaccount@homedepot.com
TN,Clarksville,2630 Wilma Rudolph Blvd,Clarksville,37040,(931)906-2655,Rental House/Dealer,thdrentalkeyaccount@homedepot.com
TN,Cleveland,546 Paul Huff Pkwy Nw,Cleveland,37312,(423)472-2644,Rental House/Dealer,thdrentalkeyaccount@homedepot.com
TN,Collierville,345 Market Blvd,Collierville,38017,(901)853-1025,Rental House/Dealer,thdrentalkeyaccount@homedepot.com
TN,Covington,110 Holly Grove Road,Covington,38019,(901)475-0438,Rental House/Dealer,thdrentalkeyaccount@homedepot.com
TN,Franklin,224 South Royal Oaks Blvd,Franklin,37064,(615)599-4578,Rental House/Dealer,thdrentalkeyaccount@homedepot.com
TN,North Chattanooga,1944 Northpoint Blvd,Hixson,37343,(423)877-5577,Rental House/Dealer,thdrentalkeyaccount@homedepot.com
TN,Jackson,1120 Vann Dr,Jackson,38305,(731)660-4322,Rental House/Dealer,thdrentalkeyaccount@homedepot.com
TN,Johnson City,3207 Peoples St,Johnson City,37604,(423)915-1111,Rental House/Dealer,thdrentalkeyaccount@homedepot.com
TN,Kingsport,2000 Fort Rd,Kingsport,37660,(423)378-5000,Rental House/Dealer,thdrentalkeyaccount@homedepot.com
TN,North Knoxville,2751 Schaad Road,Knoxville,37921,(865)938-3574,Rental House/Dealer,thdrentalkeyaccount@homedepot.com
TN,West Knoxville,9361 Kingston Pike,Knoxville,37922,(865)691-8500,Rental House/Dealer,thdrentalkeyaccount@homedepot.com
TN,Centerline,4710 Ctr Line Dr,Knoxville,37917,(865)637-9600,Rental House/Dealer,thdrentalkeyaccount@homedepot.com
TN,SE Knoxville,140 Green Road,Knoxville,37920,(865)573-1457,Rental House/Dealer,thdrentalkeyaccount@homedepot.com
TN,Manchester,187 Roberts Blvd,Manchester,37355,(931)728-1224,Rental House/Dealer,thdrentalkeyaccount@homedepot.com
TN,Maryville,943 Foothills Mall Dr,Maryville,37801,(865)983-6200,Rental House/Dealer,thdrentalkeyaccount@homedepot.com
TN,Morristown,1930 W Andrew Johnson,Morristown,37814,(423)581-2085,Rental House/Dealer,thdrentalkeyaccount@homedepot.com
TN,Oak Ridge,175 Laboratory Rd,Oak Ridge,37830,(865)425-0493,Rental House/Dealer,thdrentalkeyaccount@homedepot.com
TN,Pulaski,1451 W College St,Pulaski,38478,(931)363-8797,Rental House/Dealer,thdrentalkeyaccount@homedepot.com
TN,Sevierville,128 Collier Drive Road,Sevierville,37876,(865)428-0116,Rental House/Dealer,thdrentalkeyaccount@homedepot.com
TN,Spring Hill,5411 Columbia Hwy,Spring Hill,37174,(931)486-1138,Rental House/Dealer,thdrentalkeyaccount@homedepot.com
TN,Winchester,2965 Decherd Blvd,Winchester,37398,(931)962-0617,Rental House/Dealer,thdrentalkeyaccount@homedepot.com
TX,Abilene,4590 Southwest Dr,Abilene,79606,(325)690-1032,Rental House/Dealer,thdrentalkeyaccount@homedepot.com
TX,Allen,909 W Mcdermott Dr,Allen,75013,(972)359-0336,Rental House/Dealer,thdrentalkeyaccount@homedepot.com
TX,Amarillo,2500 Soncy Rd,Amarillo,79124,(806)355-3895,Rental House/Dealer,thdrentalkeyaccount@homedepot.com
TX,E Amarillo,2410 S Georgia Street,Amarillo,79109,(806)468-9100,Rental House/Dealer,thdrentalkeyaccount@homedepot.com
TX,North Arlington,201 Rd To Six Flags West,Arlington,76011,(817)459-4300,Rental House/Dealer,thdrentalkeyaccount@homedepot.com
TX,Howard Lane,13309 I-35 North,Austin,78753,(512)989-6650,Rental House/Dealer,thdrentalkeyaccount@homedepot.com
TX,Bastrop,112 Hunters Crossing Blvd,Bastrop,78602,(512)308-1022,Rental House/Dealer,thdrentalkeyaccount@homedepot.com
TX,Baytown,4915 Garth Rd,Baytown,77521,(281)428-5091,Rental House/Dealer,thdrentalkeyaccount@homedepot.com
TX,Beaumont,3910 Eastex Fwy,Beaumont,77703,(409)892-4131,Rental House/Dealer,thdrentalkeyaccount@homedepot.com
TX,Boerne,633 W Bandera Rd,Boerne,78006,(830)249-2834,Rental House/Dealer,thdrentalkeyaccount@homedepot.com
TX,Brenham,2801 Wood Ridge Blvd,Brenham,77833,(979)277-9964,Rental House/Dealer,thdrentalkeyaccount@homedepot.com
TX,N Brownsville,605 W Morrison Rd,Brownsville,78520,(956)350-2232,Rental House/Dealer,thdrentalkeyaccount@homedepot.com
TX,Brownsville,4551 Padre Island Hwy,Brownsville,78521,(956)544-5466,Rental House/Dealer,thdrentalkeyaccount@homedepot.com
TX,Brownwood,100 Market Place Blvd,Brownwood,76801,(325)643-1381,Rental House/Dealer,thdrentalkeyaccount@homedepot.com
TX,Clear Lake Shores,507 Fm 2094,Clear Lake Shores,77565,(281)538-3988,Rental House/Dealer,thdrentalkeyaccount@homedepot.com
TX,College Station,1615 University Dr East,College Station,77840,(979)595-1188,Rental House/Dealer,thdrentalkeyaccount@homedepot.com
TX,Conroe,1341 W Davis St,Conroe,77304,(936)539-2440,Rental House/Dealer,thdrentalkeyaccount@homedepot.com
TX,Bridgepoint,4038 S Port Ave,Corpus Christi,78415,(361)853-9173,Rental House/Dealer,thdrentalkeyaccount@homedepot.com
TX,Corpus Christi,5041 S Padre Island Dr,Corpus Christi,78411,(361)993-1400,Rental House/Dealer,thdrentalkeyaccount@homedepot.com
TX,Five Point,13202 Leopard St,Corpus Christi,78410,(361)242-0642,Rental House/Dealer,thdrentalkeyaccount@homedepot.com
TX,Del Rio,2454 Veterans Blvd,Del Rio,78840,(830)774-0456,Rental House/Dealer,thdrentalkeyaccount@homedepot.com
TX,North Denton,2950 W. University Drive,Denton,76201,(940)334-2300,Rental House/Dealer,thdrentalkeyaccount@homedepot.com
TX,Dripping Springs,260 East Highway 290,Dripping Springs,78620,(512)858-5041,Rental House/Dealer,thdrentalkeyaccount@homedepot.com
TX,El Paso (Eastlake),12611 State Street,El Paso,79928,(915)600-1100,Rental House/Dealer,thdrentalkeyaccount@homedepot.com
TX,El Paso,11360 Rojas Dr,El Paso,79936,(915)599-8741,Rental House/Dealer,thdrentalkeyaccount@homedepot.com
TX,West El Paso,7545 N Mesa St,El Paso,79912,(915)585-2319,Rental House/Dealer,thdrentalkeyaccount@homedepot.com
TX,East El Paso,12221 Montwood Dr,El Paso,79938,(915)856-3082,Rental House/Dealer,thdrentalkeyaccount@homedepot.com
TX,Flower Mound,852 Long Prairie Rd,Flower Mound,75022,(972)355-6604,Rental House/Dealer,thdrentalkeyaccount@homedepot.com
TX,Forney,11350 E Us Hwy 80,Forney,75126,(945)375-8040,Rental House/Dealer,thdrentalkeyaccount@homedepot.com
TX,South Fort Worth,7950 South Fwy,Fort Worth,76134,(817)293-0343,Rental House/Dealer,thdrentalkeyaccount@homedepot.com
TX,Fort Worth,4850 Sw Loop 820,Fort Worth,76109,(817)737-9220,Rental House/Dealer,thdrentalkeyaccount@homedepot.com
TX,Gainesville,804 E Hwy 82,Gainesville,76240,(940)665-0939,Rental House/Dealer,thdrentalkeyaccount@homedepot.com
TX,Galveston,702 65th St,Galveston,77551,(409)744-4895,Rental House/Dealer,thdrentalkeyaccount@homedepot.com
TX,Garland,3261 N George Bush Hwy,Garland,75040,(972)530-9961,Rental House/Dealer,thdrentalkeyaccount@homedepot.com
TX,Richardson,2140 Jupiter Rd,Garland,75044,(972)496-5292,Rental House/Dealer,thdrentalkeyaccount@homedepot.com
TX,Granbury,415 E Hwy 377,Granbury,76048,(817)579-0050,Rental House/Dealer,thdrentalkeyaccount@homedepot.com
TX,Grand Prairie,3850 S Carrier Pkwy,Grand Prairie,75052,(972)237-0025,Rental House/Dealer,thdrentalkeyaccount@homedepot.com
TX,Grand Prairie South,5280 South Hwy 360,Grand Prairie,75052,(972)602-9385,Rental House/Dealer,thdrentalkeyaccount@homedepot.com
TX,Harlingen,4710 S Expressway 83,Harlingen,78552,(956)440-7779,Rental House/Dealer,thdrentalkeyaccount@homedepot.com
TX,Westbury Square,11500 Chimney Rock,Houston,77035,(713)723-1400,Rental House/Dealer,thdrentalkeyaccount@homedepot.com
TX,Little York,10600 Eastex Freeway,Houston,77093,(713)699-0965,Rental House/Dealer,thdrentalkeyaccount@homedepot.com
TX,Huntsville,215 Interstate 45 North,Huntsville,77320,(936)439-0200,Rental House/Dealer,thdrentalkeyaccount@homedepot.com
TX,Irving,3200 W Irving Blvd,Irving,75061,(972)513-2400,Rental House/Dealer,thdrentalkeyaccount@homedepot.com
TX,West Katy,133 Cane Island Pkwy,Katy,77494,(281)505-6900,Rental House/Dealer,thdrentalkeyaccount@homedepot.com
TX,Keller,2013 Hwy 377,Keller,76248,(817)745-3376,Rental House/Dealer,thdrentalkeyaccount@homedepot.com
TX,Kerrville,1789 Sidney Baker,Kerrville,78028,(830)895-8800,Rental House/Dealer,thdrentalkeyaccount@homedepot.com
TX,Killeen,3201 E Central Texas Expy,Killeen,76543,(254)699-3554,Rental House/Dealer,thdrentalkeyaccount@homedepot.com
TX,Lake Jackson,100 Abner Jackson Pkwy,Lake Jackson,77566,(979)297-3562,Rental House/Dealer,thdrentalkeyaccount@homedepot.com
TX,Laredo,5710 San Bernardo Ave,Laredo,78041,(956)753-8831,Rental House/Dealer,thdrentalkeyaccount@homedepot.com
TX,League City,3200 South Gulf Freeway,League City,77573,(281)332-8300,Rental House/Dealer,thdrentalkeyaccount@homedepot.com
TX,Longview,411 E Loop 281,Longview,75605,(903)757-4208,Rental House/Dealer,thdrentalkeyaccount@homedepot.com
TX,Lubbock,5801 West Loop 289,Lubbock,79414,(806)788-1484,Rental House/Dealer,thdrentalkeyaccount@homedepot.com
TX,East Lubbock,2615 50th Street,Lubbock,79413,(806)791-4102,Rental House/Dealer,thdrentalkeyaccount@homedepot.com
TX,Lufkin,4211 S Medford Dr,Lufkin,75901,(936)699-3555,Rental House/Dealer,thdrentalkeyaccount@homedepot.com
TX,Manor,13100 N Fm 973,Manor,78653,(512)319-4150,Rental House/Dealer,thdrentalkeyaccount@homedepot.com
TX,Mansfield,1725 N Us Hwy 287,Mansfield,76063,(817)453-4038,Rental House/Dealer,thdrentalkeyaccount@homedepot.com
TX,Marble Falls,1307 Mormon Mills Rd,Marble Falls,78654,(830)693-1482,Rental House/Dealer,thdrentalkeyaccount@homedepot.com
TX,N Mcallen,801 Trenton Rd,Mcallen,78504,(956)668-8783,Rental House/Dealer,thdrentalkeyaccount@homedepot.com
TX,Midland,4009 N Midland,Midland,79707,(432)694-8700,Rental House/Dealer,thdrentalkeyaccount@homedepot.com
TX,Mission,120 S Shary Road,Mission,78572,(956)583-4194,Rental House/Dealer,thdrentalkeyaccount@homedepot.com
TX,Montgomery,20240 Eva Street,Montgomery,77356,(346)416-6900,Rental House/Dealer,thdrentalkeyaccount@homedepot.com
TX,Mount Pleasant,2530 S Jefferson Ave,Mount Pleasant,75455,(903)434-7940,Rental House/Dealer,thdrentalkeyaccount@homedepot.com
TX,Odessa,5181 E 42nd St,Odessa,79762,(432)368-9118,Rental House/Dealer,thdrentalkeyaccount@homedepot.com
TX,Orange,603 Strickland Drive,Orange,77630,(409)988-0294,Rental House/Dealer,thdrentalkeyaccount@homedepot.com
TX,Paris,3120 Ne Loop 286,Paris,75460,(903)785-3772,Rental House/Dealer,thdrentalkeyaccount@homedepot.com
TX,Pearland,1514 Broadway St,Pearland,77581,(281)993-1111,Rental House/Dealer,thdrentalkeyaccount@homedepot.com
TX,Mcallen,409 N Jackson Ave,Pharr,78577,(956)994-1419,Rental House/Dealer,thdrentalkeyaccount@homedepot.com
TX,Central Plano,1801 W Parker Rd,Plano,75023,(972)599-3280,Rental House/Dealer,thdrentalkeyaccount@homedepot.com
TX,North Plano,4600 State Hwy 121,Plano,75024,(972)377-3613,Rental House/Dealer,thdrentalkeyaccount@homedepot.com
TX,West Plano,6200 W Park Blvd,Plano,75093,(972)735-9333,Rental House/Dealer,thdrentalkeyaccount@homedepot.com
TX,Rockwall,765 E I-30,Rockwall,75087,(972)771-2825,Rental House/Dealer,thdrentalkeyaccount@homedepot.com
TX,Rosenberg,24400 Commercial Dr,Rosenberg,77471,(281)239-2777,Rental House/Dealer,thdrentalkeyaccount@homedepot.com
TX,Round Rock,2551 S Interstate 35,Round Rock,78664,(512)238-0820,Rental House/Dealer,thdrentalkeyaccount@homedepot.com
TX,San Angelo,4363 Houston Harte Exwy,San Angelo,76901,(325)223-0439,Rental House/Dealer,thdrentalkeyaccount@homedepot.com
TX,Fair Ave,527 Fair Ave,San Antonio,78223,(210)531-9600,Rental House/Dealer,thdrentalkeyaccount@homedepot.com
TX,San Antonio West,2607 West Loop 1604 South,San Antonio,78245,(726)262-7400,Rental House/Dealer,thdrentalkeyaccount@homedepot.com
TX,Bandera Rd,9115 N Loop 1604 W,San Antonio,78249,(210)695-2349,Rental House/Dealer,thdrentalkeyaccount@homedepot.com
TX,North 281,20740 Us Hwy 281 North,San Antonio,78258,(210)494-5580,Rental House/Dealer,thdrentalkeyaccount@homedepot.com
TX,Cambray,5101 Cambray Dr,San Antonio,78229,(210)520-0630,Rental House/Dealer,thdrentalkeyaccount@homedepot.com
TX,Live Oak,8138 Agora Pkwy,Selma,78154,(210)945-8160,Rental House/Dealer,thdrentalkeyaccount@homedepot.com
TX,Southlake,300 Village Ctr Dr,Southlake,76092,(817)251-1554,Rental House/Dealer,thdrentalkeyaccount@homedepot.com
TX,Temple,3550 South General Bruce Dr,Temple,76504,(254)773-3870,Rental House/Dealer,thdrentalkeyaccount@homedepot.com
TX,Terrell,151 Windsor Ave,Terrell,75160,(972)524-9901,Rental House/Dealer,thdrentalkeyaccount@homedepot.com
TX,Texarkana,4110 Saint Michael Dr,Texarkana,75503,(903)832-6002,Rental House/Dealer,thdrentalkeyaccount@homedepot.com
TX,The Colony,5321 Hwy 121,The Colony,75056,(469)384-3715,Rental House/Dealer,thdrentalkeyaccount@homedepot.com
TX,Tyler,3901 Old Jacksonville Hwy,Tyler,75701,(903)581-8513,Rental House/Dealer,thdrentalkeyaccount@homedepot.com
TX,Victoria,6708 Ne Zac Lentz Pkwy,Victoria,77904,(361)575-4704,Rental House/Dealer,thdrentalkeyaccount@homedepot.com
TX,Waco,5605 W Waco Dr,Waco,76710,(254)772-8177,Rental House/Dealer,thdrentalkeyaccount@homedepot.com
TX,Bellmead Waco,1803 North I-35,Waco,76705,(254)867-8575,Rental House/Dealer,thdrentalkeyaccount@homedepot.com
TX,Weslaco,1500 W Expressway 83,Weslaco,78599,(956)447-2645,Rental House/Dealer,thdrentalkeyaccount@homedepot.com
TX,Wichita Falls,3705 Kell Blvd,Wichita Falls,76308,(940)692-0405,Rental House/Dealer,thdrentalkeyaccount@homedepot.com
UT,Cedar City,1518 S Providence Ctr Dr,Cedar City,84720,(435)865-5305,Rental House/Dealer,thdrentalkeyaccount@homedepot.com
UT,Centerville,50 N Market Pl Dr,Centerville,84014,(801)292-0238,Rental House/Dealer,thdrentalkeyaccount@homedepot.com
UT,Logan,130 Cache Valley Blvd,Logan,84341,(435)787-2657,Rental House/Dealer,thdrentalkeyaccount@homedepot.com
UT,Richfield,1440 S Technology Drive,Richfield,84701,(435)896-8548,Rental House/Dealer,thdrentalkeyaccount@homedepot.com
UT,West St George,937 North Westridge Drive,Saint George,84770,(435)634-7312,Rental House/Dealer,thdrentalkeyaccount@homedepot.com
UT,East Sandy,9570 S Highland Drive,Sandy,84092,(801)619-6261,Rental House/Dealer,thdrentalkeyaccount@homedepot.com
UT,Saratoga Springs,1226 N. Exchange,Saratoga Springs,84045,(385)993-6100,Rental House/Dealer,thdrentalkeyaccount@homedepot.com
UT,St George,725 W Telegraph St,Washington,84780,(435)627-0100,Rental House/Dealer,thdrentalkeyaccount@homedepot.com
UT,Copper Hills,5747 W. 7800 S.,West Jordan,84081,(801)999-3800,Rental House/Dealer,thdrentalkeyaccount@homedepot.com
VA,Alexandria,400 S Pickett St,Alexandria,22304,(703)823-1900,Rental House/Dealer,thdrentalkeyaccount@homedepot.com
VA,Hybla Valley,7710 Richmond Hwy,Alexandria,22306,(703)619-5124,Rental House/Dealer,thdrentalkeyaccount@homedepot.com
VA,Annandale,6555 Little River Tpke,Alexandria,22312,(703)642-3660,Rental House/Dealer,thdrentalkeyaccount@homedepot.com
VA,Ashburn,43675 Greenway Corp Dr,Ashburn,20147,(703)726-2883,Rental House/Dealer,thdrentalkeyaccount@homedepot.com
VA,Bristol,400 Forsythe Rd,Bristol,24202,(276)466-1015,Rental House/Dealer,thdrentalkeyaccount@homedepot.com
VA,South Riding,25050 Riding Plaza,Chantilly,20152,(703)327-3517,Rental House/Dealer,thdrentalkeyaccount@homedepot.com
VA,Charlottesville,1550 Rio Rd E,Charlottesville,22901,(434)973-7354,Rental House/Dealer,thdrentalkeyaccount@homedepot.com
VA,South Richmond/Chester,12300 Jefferson Davis Hwy,Chester,23831,(804)706-4501,Rental House/Dealer,thdrentalkeyaccount@homedepot.com
VA,Christiansburg,200 Conston Ave,Christiansburg,24073,(540)381-0084,Rental House/Dealer,thdrentalkeyaccount@homedepot.com
VA,Danville,175 Holt Garrison Parkway,Danville,24540,(434)799-9570,Rental House/Dealer,thdrentalkeyaccount@homedepot.com
VA,Fairfax,12271 Price Club Plaza,Fairfax,22030,(703)266-9800,Rental House/Dealer,thdrentalkeyaccount@homedepot.com
VA,Merrifield,2815 Merrilee Dr,Fairfax,22031,(703)205-1245,Rental House/Dealer,thdrentalkeyaccount@homedepot.com
VA,Falls Church,6210 Seven Corners Ctr,Falls Church,22044,(703)534-9580,Rental House/Dealer,thdrentalkeyaccount@homedepot.com
VA,Fredericksburg,1201 Gateway Blvd,Fredericksburg,22401,(540)368-0515,Rental House/Dealer,thdrentalkeyaccount@homedepot.com
VA,Spotsylvania,5771 Plank Road,Fredericksburg,22407,(540)785-8871,Rental House/Dealer,thdrentalkeyaccount@homedepot.com
VA,Richmond/W Broad,11260 W Broad St,Glen Allen,23060,(804)364-0782,Rental House/Dealer,thdrentalkeyaccount@homedepot.com
VA,Gloucester,6921 Walton Lane,Gloucester,23061,(804)695-9037,Rental House/Dealer,thdrentalkeyaccount@homedepot.com
VA,Harrisonburg,121 Burgess Rd,Harrisonburg,22801,(540)438-8887,Rental House/Dealer,thdrentalkeyaccount@homedepot.com
VA,Haymarket,15450 John Marshall Hwy,Haymarket,20169,(571)445-7600,Rental House/Dealer,thdrentalkeyaccount@homedepot.com
VA,Leesburg,280 Fort Evans Rd,Leesburg,20176,(703)737-0255,Rental House/Dealer,thdrentalkeyaccount@homedepot.com
VA,Lynchburg,7902 Graves Mill Road,Lynchburg,24502,(434)582-1619,Rental House/Dealer,thdrentalkeyaccount@homedepot.com
VA,Manassas,7486 Stream Walk Ln,Manassas,20109,(703)368-4900,Rental House/Dealer,thdrentalkeyaccount@homedepot.com
VA,Reston,1651 Reston Parkway,Reston,20194,(703)435-0778,Rental House/Dealer,thdrentalkeyaccount@homedepot.com
VA,Midlothian,1365 Car Mia Way,Richmond,23235,(804)320-9900,Rental House/Dealer,thdrentalkeyaccount@homedepot.com
VA,Roanoke,3217 Hershberger Rd Nw,Roanoke,24017,(540)774-7655,Rental House/Dealer,thdrentalkeyaccount@homedepot.com
VA,South Roanoke,4176 Franklin Road,Roanoke,24014,(540)772-3027,Rental House/Dealer,thdrentalkeyaccount@homedepot.com
VA,South Hill,250 Frank D Harris Dr,South Hill,23970,(434)955-2477,Rental House/Dealer,thdrentalkeyaccount@homedepot.com
VA,Springfield,6691 Frontier Rd,Springfield,22150,(703)924-0193,Rental House/Dealer,thdrentalkeyaccount@homedepot.com
VA,Stafford,305 Worth Avenue,Stafford,22556,(540)657-6478,Rental House/Dealer,thdrentalkeyaccount@homedepot.com
VA,Sterling Park,46261 Cranston Way,Sterling,20165,(703)444-2900,Rental House/Dealer,thdrentalkeyaccount@homedepot.com
VA,Celebration Station,3352 Virginia Beach Blvd,Virginia Beach,23452,(757)340-5804,Rental House/Dealer,thdrentalkeyaccount@homedepot.com
VA,Warrenton,267 Alwington Blvd,Warrenton,20186,(540)878-2236,Rental House/Dealer,thdrentalkeyaccount@homedepot.com
VA,Waynesboro,31 Windigrove Rd,Waynesboro,22980,(540)943-9000,Rental House/Dealer,thdrentalkeyaccount@homedepot.com
VA,Winchester,2350 Legge Blvd,Winchester,22601,(540)723-0619,Rental House/Dealer,thdrentalkeyaccount@homedepot.com
VA,Dale City,14025 Foulger Square,Woodbridge,22192,(703)670-3699,Rental House/Dealer,thdrentalkeyaccount@homedepot.com
VT,Bennington,121 N Bennington Rd,Bennington,05201,(802)447-9997,Rental House/Dealer,thdrentalkeyaccount@homedepot.com
VT,Rutland,299 Us Route 4 E,Rutland,05701,(802)786-6900,Rental House/Dealer,thdrentalkeyaccount@homedepot.com
VT,Williston,759 Harvest Lane,Williston,05495,(802)872-0039,Rental House/Dealer,thdrentalkeyaccount@homedepot.com
WA,Aberdeen,2213 Port Industrial Road,Aberdeen,98520,(360)533-6661,Rental House/Dealer,thdrentalkeyaccount@homedepot.com
WA,Bellingham,420 Telegraph Rd,Bellingham,98226,(360)734-0090,Rental House/Dealer,thdrentalkeyaccount@homedepot.com
WA,Burlington,2001 Marketplace Drive,Burlington,98233,(360)757-1986,Rental House/Dealer,thdrentalkeyaccount@homedepot.com
WA,Chehalis,1701 N Louisiana Ave,Chehalis,98532,(360)748-2102,Rental House/Dealer,thdrentalkeyaccount@homedepot.com
WA,College Place,1100 Ne C St,College Place,99324,(509)525-4758,Rental House/Dealer,thdrentalkeyaccount@homedepot.com
WA,Gig Harbor,5120 Borgen Blvd,Gig Harbor,98332,(253)851-9404,Rental House/Dealer,thdrentalkeyaccount@homedepot.com
WA,Issaquah,6200 E Lake Sammamish Pkwy Se,Issaquah,98029,(425)391-8467,Rental House/Dealer,thdrentalkeyaccount@homedepot.com
WA,East Kennewick,3910 W 27th Avenue,Kennewick,99337,(509)585-9697,Rental House/Dealer,thdrentalkeyaccount@homedepot.com
WA,Liberty Lake,21701 E Country Vista Drive,Liberty Lake,99019,(509)891-0613,Rental House/Dealer,thdrentalkeyaccount@homedepot.com
WA,Longview,580 Seventh Ave,Longview,98632,(360)578-1030,Rental House/Dealer,thdrentalkeyaccount@homedepot.com
WA,Lynnwood,2901 184th St. Sw,Lynnwood,98037,(425)835-7200,Rental House/Dealer,thdrentalkeyaccount@homedepot.com
WA,Tulalip,9310 Quil Ceda Blvd,Marysville,98271,(360)659-6762,Rental House/Dealer,thdrentalkeyaccount@homedepot.com
WA,Moses Lake,980 W Central Drive,Moses Lake,98837,(509)765-9128,Rental House/Dealer,thdrentalkeyaccount@homedepot.com
WA,Oak Harbor,31800 Sr 20,Oak Harbor,98277,(360)675-0105,Rental House/Dealer,thdrentalkeyaccount@homedepot.com
WA,Omak,920 Engh Road,Omak,98841,(509)826-5459,Rental House/Dealer,thdrentalkeyaccount@homedepot.com
WA,Poulsbo,"21750 Market Place, Nw",Poulsbo,98370,(360)779-9924,Rental House/Dealer,thdrentalkeyaccount@homedepot.com
WA,Puyallup,303 35th Ave Se,Puyallup,98374,(253)770-9600,Rental House/Dealer,thdrentalkeyaccount@homedepot.com
WA,Renton,901 S Grady Way,Renton,98057,(425)226-0400,Rental House/Dealer,thdrentalkeyaccount@homedepot.com
WA,West Richland,2855 Duportail Street,Richland,99352,(509)627-0111,Rental House/Dealer,thdrentalkeyaccount@homedepot.com
WA,Lander,2701 Utah Ave South,Seattle,98134,(206)467-9200,Rental House/Dealer,thdrentalkeyaccount@homedepot.com
WA,Sequim,1145 W Washington St,Sequim,98382,(360)582-1620,Rental House/Dealer,thdrentalkeyaccount@homedepot.com
WA,Aurora,1335 N 205th St,Shoreline,98133,(206)546-1900,Rental House/Dealer,thdrentalkeyaccount@homedepot.com
WA,Silverdale,10991 Silverdale Way Nw,Silverdale,98383,(360)307-9200,Rental House/Dealer,thdrentalkeyaccount@homedepot.com
WA,North Spokane,9116 N Newport Hwy,Spokane,99218,(509)466-8991,Rental House/Dealer,thdrentalkeyaccount@homedepot.com
WA,Spokane South,4515 S Regal St,Spokane,99223,(509)503-9539,Rental House/Dealer,thdrentalkeyaccount@homedepot.com
WA,East Spokane,5617 E Sprague Ave,Spokane Valley,99212,(509)534-8588,Rental House/Dealer,thdrentalkeyaccount@homedepot.com
WA,Wenatchee,1405 Maiden Ln,Wenatchee,98801,(509)663-5505,Rental House/Dealer,thdrentalkeyaccount@homedepot.com
WA,Yakima,2115 S First Street,Yakima,98903,(509)452-3016,Rental House/Dealer,thdrentalkeyaccount@homedepot.com
WI,East Appleton,2201 S Kensington Ave,Appleton,54915,(920)734-8134,Rental House/Dealer,thdrentalkeyaccount@homedepot.com
WI,Grafton,1350 Port Washington Rd,Grafton,53024,(262)376-4908,Rental House/Dealer,thdrentalkeyaccount@homedepot.com
WI,Grand Chute,653 N Westhill Blvd,Grand Chute,54914,(920)993-1123,Rental House/Dealer,thdrentalkeyaccount@homedepot.com
WI,Bellevue (E Green Bay),2595 Eaton Rd,Green Bay,54311,(920)465-8237,Rental House/Dealer,thdrentalkeyaccount@homedepot.com
WI,West Green Bay,810 S Taylor St,Green Bay,54303,(920)405-0893,Rental House/Dealer,thdrentalkeyaccount@homedepot.com
WI,Hudson,2330 Crest View Dr,Hudson,54016,(715)531-1416,Rental House/Dealer,thdrentalkeyaccount@homedepot.com
WI,Janesville,3200 Deerfield Dr,Janesville,53546,(608)741-8970,Rental House/Dealer,thdrentalkeyaccount@homedepot.com
WI,Kohler,4025 Hwy 28,Kohler,53044,(920)451-0624,Rental House/Dealer,thdrentalkeyaccount@homedepot.com
WI,Wisconsin Dells,136 Commerce St,Lake Delton,53940,(608)253-5641,Rental House/Dealer,thdrentalkeyaccount@homedepot.com
WI,West Madison,4550 Verona Rd,Madison,53711,(608)276-7922,Rental House/Dealer,thdrentalkeyaccount@homedepot.com
WI,East Madison,2425 E Springs Dr,Madison,53704,(608)242-8680,Rental House/Dealer,thdrentalkeyaccount@homedepot.com
WI,Menomonee Falls,N94 W 18375 Thunder Ridge,Menomonee Falls,53051,(262)502-9840,Rental House/Dealer,thdrentalkeyaccount@homedepot.com
WI,SE Milwaukee,150 West Holt Ave,Milwaukee,53207,(414)481-8770,Rental House/Dealer,thdrentalkeyaccount@homedepot.com
WI,La Crosse,2927 Market Pl,Onalaska,54650,(608)392-1400,Rental House/Dealer,thdrentalkeyaccount@homedepot.com
WI,Rhinelander,1400 E Lincoln St,Rhinelander,54501,(715)361-4444,Rental House/Dealer,thdrentalkeyaccount@homedepot.com
WI,Wausau,2705 Sherman St,Wausau,54401,(715)842-8977,Rental House/Dealer,thdrentalkeyaccount@homedepot.com
WI,West Allis,11071 W National Ave,West Allis,53227,(414)329-1366,Rental House/Dealer,thdrentalkeyaccount@homedepot.com
WI,West Bend,700 W Paradise Drive,West Bend,53095,(262)338-8124,Rental House/Dealer,thdrentalkeyaccount@homedepot.com
WI,Wisconsin Rapids,1500 24th Street South,Wisconsin Rapids,54494,(715)421-1510,Rental House/Dealer,thdrentalkeyaccount@homedepot.com
WV,Huntington,1050 Thundering Herd Dr,Barboursville,25504,(304)733-8201,Rental House/Dealer,thdrentalkeyaccount@homedepot.com
WV,Bridgeport,1180 W Main Street,Bridgeport,26330,(304)848-0610,Rental House/Dealer,thdrentalkeyaccount@homedepot.com
WV,Charleston,100 Cross Terrace Blvd,Charleston,25309,(304)744-9501,Rental House/Dealer,thdrentalkeyaccount@homedepot.com
WV,Teays Valley,1100 Liberty Park Dr,Hurricane,25526,(304)760-0444,Rental House/Dealer,thdrentalkeyaccount@homedepot.com
WV,Ranson,230 Oak Lee Drive,Ranson,25438,(304)728-6464,Rental House/Dealer,thdrentalkeyaccount@homedepot.com
WV,Parkersburg,200 Grand Central Ave,Vienna,26105,(304)420-1070,Rental House/Dealer,thdrentalkeyaccount@homedepot.com
WY,Casper,4900 E 2nd St,Casper,82609,(307)472-6505,Rental House/Dealer,thdrentalkeyaccount@homedepot.com
WY,Cheyenne,1740 Fleischli Pkwy,Cheyenne,82001,(307)632-2897,Rental House/Dealer,thdrentalkeyaccount@homedepot.com
WY,Gillette,1105 E Boxelder Rd,Gillette,82718,(307)686-8128,Rental House/Dealer,thdrentalkeyaccount@homedepot.com
WY,Rock Springs,1925 Foothill Blvd,Rock Springs,82901,(307)362-3716,Rental House/Dealer,thdrentalkeyaccount@homedepot.com
WY,Sheridan,2050 Coffeen Avenue,Sheridan,82801,(307)674-6669,Rental House/Dealer,thdrentalkeyaccount@homedepot.com