supplierId,supplierName,erpId,branchId,branchName,branchAddress,branchPhoneNumber,branchEmailAddress,omsEmailAddresses,omsPhoneNumbers,hoursMonday,hoursTuesday,hoursWednesday,hoursThursday,hoursFriday,hoursSaturday,hoursSunday,omsEnabled,isDeleted,createdDate,lastModifiedDate
60a6d78997d5e90013d774a2,Equipment Share Inc,,001OJ00000K4EAaYAN,Equipment Share - Catlett VA,"4184 Old Calverton Rd, Catlett, Virginia, United States, 20119",+15717819225,,"eddie.parsons@equipmentshare.com,carl.howard@equipmentshare.com",,,,,,,,,FALSE,FALSE,2025-03-26T09:45:48.363Z,2025-04-29T18:44:40.916Z
60a6d78997d5e90013d774a2,Equipment Share Inc,,001OJ00000TAlL8YAL,Equipment Share - Seekonk MA,"45 Industrial Ct, Seekonk, Massachusetts, United States, 02771",+17749918750,,eddie.parsons@equipmentshare.com,,,,,,,,,FALSE,FALSE,2025-03-26T09:45:47.420Z,2025-03-26T13:16:30.587Z
60a6d78997d5e90013d774a2,Equipment Share Inc,,001OJ00000G3ekXYAR,Equipment Share - Caddo Mills TX,"4047 I-30, Caddo Mills, Texas, United States, 75135",+19728536380,,eddie.parsons@equipmentshare.com,,,,,,,,,FALSE,FALSE,2025-03-26T09:45:47.328Z,2025-04-08T17:13:44.171Z
60a6d78997d5e90013d774a2,Equipment Share Inc,,0011K00002Qn4VCQAZ,Equipment Share - Houston (Tomball) TX,"22311 Hufsmith - Kohrville Rd, Tomball, Texas, United States, 77375",18322717778,eddie.parsons@equipmentshare.com,eddie.parsons@equipmentshare.com,,,,,,,,,FALSE,FALSE,2025-03-26T09:45:47.033Z,2025-05-12T17:46:17.980Z
60a6d78997d5e90013d774a2,Equipment Share Inc,,0011K00002QmmVDQAZ,Equipment Share - Virginia Beach VA,"740 S Military Hwy, Virginia Beach, Virginia, United States, 23464",17576124450,eddie.parsons@equipmentshare.com,eddie.parsons@equipmentshare.com,,,,,,,,,FALSE,FALSE,2025-03-26T09:45:46.938Z,2025-05-12T17:46:20.680Z
60a6d78997d5e90013d774a2,Equipment Share Inc,,001OJ00000TJlovYAD,Equipment Share - Fort Pierce FL,"15701 Orange Ave, Fort Pierce, Florida, United States, 34945",+17727101600,,,,,,,,,,,FALSE,FALSE,2025-03-26T09:45:47.424Z,2025-03-26T09:45:47.424Z
60a6d78997d5e90013d774a2,Equipment Share Inc,,001Ah0000042dAdIAI,Equipment Share - Spokane WA,"4009 E Francis Ave, Spokane, WA 99217, USA",15093096510,eddie.parsons@equipmentshare.com,eddie.parsons@equipmentshare.com,,,,,,,,,FALSE,FALSE,2025-03-26T09:45:47.123Z,2025-07-21T20:06:35.038Z
60a6d78997d5e90013d774a2,Equipment Share Inc,,0011K00002QmmUoQAJ,Equipment Share - Milwaukee WI,"11721 W Carmen Ave, Milwaukee, Wisconsin, United States, 53225",14149303910,eddie.parsons@equipmentshare.com,"eddie.parsons@equipmentshare.com,carl.howard@equipmentshare.com",,,,,,,,,FALSE,FALSE,2025-03-26T09:45:46.952Z,2025-05-12T17:46:18.368Z
60a6d78997d5e90013d774a2,Equipment Share Inc,,0011K00002QmmX4QAJ,Equipment Share - Charleston SC,"10179 US-78, Ladson, South Carolina, United States, 29456",18434107717,eddie.parsons@equipmentshare.com,eddie.parsons@equipmentshare.com,,,,,,,,,FALSE,FALSE,2025-03-26T09:45:46.988Z,2025-05-12T17:46:19.232Z
60a6d78997d5e90013d774a2,Equipment Share Inc,,001OJ00000IEGc5YAH,Equipment Share - Perry GA,"204 Valley Dr, Perry, Georgia, United States, 31069",+14783137200,,eddie.parsons@equipmentshare.com,,,,,,,,,FALSE,FALSE,2025-03-26T09:45:47.339Z,2025-04-24T14:25:37.952Z
60a6d78997d5e90013d774a2,Equipment Share Inc,,001OJ00000SOqbdYAD,Equipment Share - Port Charlotte FL,"19500 Peachland Blvd, Port Charlotte, Florida, United States, 33948",19412678990,eddie.parsons@equipmentshare.com,eddie.parsons@equipmentshare.com,,,,,,,,,FALSE,FALSE,2025-03-26T09:45:47.409Z,2025-05-12T17:46:18.996Z
60a6d78997d5e90013d774a2,Equipment Share Inc,,0011K00002Qn1ljQAB,Equipment Share - Oklahoma City OK,"1535 SE 25th St, Oklahoma City, Oklahoma, United States, 73129",14053108700,eddie.parsons@equipmentshare.com,eddie.parsons@equipmentshare.com,,,,,,,,,FALSE,FALSE,2025-03-26T09:45:47.015Z,2025-05-12T17:46:17.791Z
60a6d78997d5e90013d774a2,Equipment Share Inc,,001OJ00000TRkXVYA1,Equipment Share - Odessa TX,"16611 W Basin St, Odessa, Texas, United States, 79763",+14322800055,,eddie.parsons@equipmentshare.com,,,,,,,,,FALSE,FALSE,2025-03-26T09:45:47.428Z,2025-04-23T16:36:44.376Z
60a6d78997d5e90013d774a2,Equipment Share Inc,,001OJ000005CEaeYAG,Equipment Share - Anderson SC,"109 Ryder Ln, Anderson, South Carolina, United States, 29625",+18645338643,,eddie.parsons@equipmentshare.com,,,,,,,,,FALSE,FALSE,2025-03-26T09:45:47.274Z,2025-03-26T09:45:47.274Z
60a6d78997d5e90013d774a2,Equipment Share Inc,,0011K00002RKjroQAD,Equipment Share - Austin (Hutto) TX,"1251 Co Rd 118, Hutto, TX 78634, USA",15128511055,eddie.parsons@equipmentshare.com,eddie.parsons@equipmentshare.com,,,,,,,,,FALSE,FALSE,2025-03-26T09:45:47.068Z,2025-07-21T20:06:34.387Z
60a6d78997d5e90013d774a2,Equipment Share Inc,,0011K00002RKk8pQAD,Equipment Share - San Antonio TX,"5433 Randolph Blvd, San Antonio, Texas, United States, 78233",18302013334,eddie.parsons@equipmentshare.com,eddie.parsons@equipmentshare.com,,,,,,,,,FALSE,FALSE,2025-03-26T09:45:47.057Z,2025-05-12T17:46:19.988Z
60a6d78997d5e90013d774a2,Equipment Share Inc,,001Ah000004344gIAA,Equipment Share - Tucson AZ,"5401 S Arcadia Ave, Tucson, Arizona, United States, 85706",15203071435,eddie.parsons@equipmentshare.com,eddie.parsons@equipmentshare.com,,,,,,,,,FALSE,FALSE,2025-03-26T09:45:47.147Z,2025-05-12T17:46:20.174Z
60a6d78997d5e90013d774a2,Equipment Share Inc,,0011K00002RN4VuQAL,Equipment Share - Fort Worth (South) TX,"16615 US-377, Fort Worth, Texas, United States, 76126",16825405013,eddie.parsons@equipmentshare.com,"eddie.parsons@equipmentshare.com,carl.howard@equipmentshare.com",,,,,,,,,FALSE,FALSE,2025-03-26T09:45:47.082Z,2025-05-12T17:46:20.088Z
60a6d78997d5e90013d774a2,Equipment Share Inc,,0014100001WYUOVAA5,Equipment Share - Tampa FL,"1504 Tampa East Boulevard, Tampa, Florida, United States, 33619",813-341-4646,eddie.parsons@equipmentshare.com,eddie.parsons@equipmentshare.com,,,,,,,,,FALSE,FALSE,2025-03-26T09:45:46.857Z,2025-05-12T17:46:20.216Z
60a6d78997d5e90013d774a2,Equipment Share Inc,,0011K00002QmmUyQAJ,Equipment Share - Louisville KY,"9012 Vista Hills Blvd, Louisville, Kentucky, United States, 40291",15028887501,eddie.parsons@equipmentshare.com,"eddie.parsons@equipmentshare.com,carl.howard@equipmentshare.com",,,,,,,,,FALSE,FALSE,2025-03-26T09:45:46.921Z,2025-05-12T17:46:16.905Z
60a6d78997d5e90013d774a2,Equipment Share Inc,,001OJ000003z5tuYAA,Equipment Share - Calvert City,"277 Cypress Creek Dr, Calvert City, Kentucky, United States, 42029",+12708169536,,eddie.parsons@equipmentshare.com,,,,,,,,,FALSE,FALSE,2025-03-26T09:45:47.270Z,2025-03-26T14:16:28.129Z
60a6d78997d5e90013d774a2,Equipment Share Inc,,001OJ000002eZXOYA2,Equipment Share - Madera CA,"23349 Ave 18 1/2, Madera, California, United States, 93638",+15593179678,,eddie.parsons@equipmentshare.com,,,,,,,,,FALSE,FALSE,2025-03-26T09:45:47.252Z,2025-04-02T14:19:58.747Z
60a6d78997d5e90013d774a2,Equipment Share Inc,,001OJ00000Ceu6DYAR,Equipment Share - Palmetto FL,"11504 31st Terrace E, Palmetto, Florida, United States, 34221",+14074732839,,eddie.parsons@equipmentshare.com,,,,,,,,,FALSE,FALSE,2025-03-26T09:45:47.300Z,2025-04-08T18:23:34.223Z
60a6d78997d5e90013d774a2,Equipment Share Inc,,001Ah00000734kRIAQ,Equipment Share - Colorado Springs CO,"1145 S El Paso St, Colorado Springs, Colorado, United States, 80903",+17202414636,,eddie.parsons@equipmentshare.com,,,,,,,,,FALSE,FALSE,2025-03-26T09:45:47.224Z,2025-04-02T19:21:57.425Z
60a6d78997d5e90013d774a2,Equipment Share Inc,,0011K00002QmmRlQAJ,Equipment Share - Baltimore MD,"Shannon Dr, Baltimore, Maryland, United States, 21213",14439280156,eddie.parsons@equipmentshare.com,"eddie.parsons@equipmentshare.com,carl.howard@equipmentshare.com",,,,,,,,,FALSE,FALSE,2025-03-26T09:45:46.935Z,2025-05-12T17:46:18.036Z
60a6d78997d5e90013d774a2,Equipment Share Inc,,0011K00002QmmUjQAJ,Equipment Share - Indianapolis IN,"6901 E 38th St, Indianapolis, Indiana, United States, 46226",14637776002,eddie.parsons@equipmentshare.com,eddie.parsons@equipmentshare.com,,,,,,,,,FALSE,FALSE,2025-03-26T09:45:46.897Z,2025-05-12T17:46:18.954Z
60a6d78997d5e90013d774a2,Equipment Share Inc,,0011K00002QmmOxQAJ,Equipment Share - Seattle WA,"13535 68th Ave S, Seattle, Washington, United States, 98178",12069622828,eddie.parsons@equipmentshare.com,"eddie.parsons@equipmentshare.com,carl.howard@equipmentshare.com",,,,,,,,,FALSE,FALSE,2025-03-26T09:45:46.874Z,2025-05-12T17:46:19.092Z
60a6d78997d5e90013d774a2,Equipment Share Inc,,0014100001JZ0BoAAL,Equipment Share - Irving TX (Formerly Landmark Equipment Rental),"1351 S Loop 12, Irving, TX 75060, USA",9725799999,a.gutierrez@landmarkeq.com,a.gutierrez@landmarkeq.com,,07:00-17:00,07:00-17:00,07:00-17:00,07:00-17:00,07:00-17:00,,,FALSE,FALSE,2025-03-26T09:45:40.743Z,2025-08-26T17:36:11.080Z
60a6d78997d5e90013d774a2,Equipment Share Inc,,0014100001GlmnCAAR,Equipment Share - Miami FL,"12601 West Okeechobee Road, Hialeah, Florida, United States, 33018",(305) 821-2273,eddie.parsons@equipmentshare.com,eddie.parsons@equipmentshare.com,,,,,,,,,FALSE,FALSE,2025-03-26T09:45:46.849Z,2025-05-12T17:46:17.835Z
60a6d78997d5e90013d774a2,Equipment Share Inc,,0014100001WYURFAA5,Equipment Share - Fort Myers FL,"3051 Hanson Street, Fort Myers, Florida, United States, 33916",18133414646,eddie.parsons@equipmentshare.com,eddie.parsons@equipmentshare.com,,,,,,,,,FALSE,FALSE,2025-03-26T09:45:46.853Z,2025-05-12T17:46:17.469Z
60a6d78997d5e90013d774a2,Equipment Share Inc,,60897e321e0bbe21e8cdeadb,Equipment Share - Wichita KS,"3250 N Hydraulic Ave, Wichita, KS 67219, USA",13168383346,eddie.parsons@equipmentshare.com,eddie.parsons@equipmentshare.com,,,,,,,,,FALSE,FALSE,2025-03-26T09:45:46.861Z,2025-07-21T20:06:32.985Z
60a6d78997d5e90013d774a2,Equipment Share Inc,,0011K00002QmmMDQAZ,Equipment Share - Newark CA,"6565 Smith Ave, Newark, California, United States, 94560",15104005024,eddie.parsons@equipmentshare.com,eddie.parsons@equipmentshare.com,,,,,,,,,FALSE,FALSE,2025-03-26T09:45:46.864Z,2025-05-12T17:46:18.710Z
60a6d78997d5e90013d774a2,Equipment Share Inc,,0011K00002QmmSdQAJ,Equipment Share - Carlsbad NM,"2580 S Canal St, Carlsbad, New Mexico, United States, 88220",15758855455,eddie.parsons@equipmentshare.com,eddie.parsons@equipmentshare.com,,,,,,,,,FALSE,FALSE,2025-03-26T09:45:46.867Z,2025-05-12T17:46:16.685Z
60a6d78997d5e90013d774a2,Equipment Share Inc,,0011K00002QmmUKQAZ,Equipment Share - Philadelphia (Camden) NJ,"1521 Admiral Wilson Blvd, Pennsauken Township, New Jersey, United States, 08109",16099226713,eddie.parsons@equipmentshare.com,"eddie.parsons@equipmentshare.com,carl.howard@equipmentshare.com",,,,,,,,,FALSE,FALSE,2025-03-26T09:45:46.870Z,2025-05-12T17:46:17.740Z
60a6d78997d5e90013d774a2,Equipment Share Inc,,0011K00002QmmRpQAJ,Equipment Share - El Paso TX,"14061 Montana Ave, El Paso, Texas, United States, 79938",19152606662,eddie.parsons@equipmentshare.com,eddie.parsons@equipmentshare.com,,,,,,,,,FALSE,FALSE,2025-03-26T09:45:46.878Z,2025-05-12T17:46:19.790Z
60a6d78997d5e90013d774a2,Equipment Share Inc,,0011K00002QmmOYQAZ,Equipment Share - Portland OR,"17311 NE Halsey St, Portland, Oregon, United States, 97230",19712772887,pdx.sales@equipmentshare.com,eddie.parsons@equipmentshare.com,,,,,,,,,FALSE,FALSE,2025-03-26T09:45:46.883Z,2025-05-12T17:46:18.517Z
60a6d78997d5e90013d774a2,Equipment Share Inc,,0011K00002QmmRLQAZ,Equipment Share - Albuquerque NM,"8301 Broadway Blvd SE, Albuquerque, New Mexico, United States, 87105",15053790913,abq.sales@equipmentshare.com,eddie.parsons@equipmentshare.com,,,,,,,,,FALSE,FALSE,2025-03-26T09:45:46.886Z,2025-05-12T17:46:20.730Z
60a6d78997d5e90013d774a2,Equipment Share Inc,,0011K00002QmmTRQAZ,Equipment Share - Casper WY,"8655 Delta Dr, Casper, WY 82604, USA",13072483804,eddie.parsons@equipmentshare.com,eddie.parsons@equipmentshare.com,,,,,,,,,FALSE,FALSE,2025-03-26T09:45:46.890Z,2025-07-21T20:06:31.203Z
60a6d78997d5e90013d774a2,Equipment Share Inc,,0011K00002QmmTgQAJ,Equipment Share - Centennial (Denver) CO,"15427 E Fremont Dr, Englewood, Colorado, United States, 80112",17204142044,eddie.parsons@equipmentshare.com,eddie.parsons@equipmentshare.com,,,,,,,,,FALSE,FALSE,2025-03-26T09:45:46.893Z,2025-05-12T17:46:17.890Z
60a6d78997d5e90013d774a2,Equipment Share Inc,,0011K00002QmmUtQAJ,Equipment Share - Richmond VA,"1800 Ruffin Mill Cir, Colonial Heights, Virginia, United States, 23834",18048352062,eddie.parsons@equipmentshare.com,eddie.parsons@equipmentshare.com,,,,,,,,,FALSE,FALSE,2025-03-26T09:45:46.901Z,2025-05-12T17:46:17.363Z
60a6d78997d5e90013d774a2,Equipment Share Inc,,0011K00002QmmLyQAJ,Equipment Share - San Diego CA,"2590 Main St, Chula Vista, California, United States, 91911",16195106825,eddie.parsons@equipmentshare.com,eddie.parsons@equipmentshare.com,,,,,,,,,FALSE,FALSE,2025-03-26T09:45:46.904Z,2025-05-12T17:46:20.969Z
60a6d78997d5e90013d774a2,Equipment Share Inc,,0011K00002QmmTbQAJ,Equipment Share - Fort Lupton CO,"15549 State Hwy 52, Fort Lupton, Colorado, United States, 80621",13037180642,eddie.parsons@equipmentshare.com,eddie.parsons@equipmentshare.com,,,,,,,,,FALSE,FALSE,2025-03-26T09:45:46.908Z,2025-05-12T17:46:17.569Z
60a6d78997d5e90013d774a2,Equipment Share Inc,,0011K00002QmmVXQAZ,Equipment Share - Nashville TN,"4235 Murfreesboro Pike, La Vergne, Tennessee, United States, 37086",16159338118,eddie.parsons@equipmentshare.com,"eddie.parsons@equipmentshare.com,carl.howard@equipmentshare.com",,,,,,,,,FALSE,FALSE,2025-03-26T09:45:46.911Z,2025-05-12T17:46:20.047Z
60a6d78997d5e90013d774a2,Equipment Share Inc,,0011K00002QmmMcQAJ,Equipment Share - Sacramento CA,"7400 14th Ave, Sacramento, California, United States, 95820",19163337833,eddie.parsons@equipmentshare.com,eddie.parsons@equipmentshare.com,,,,,,,,,FALSE,FALSE,2025-03-26T09:45:46.914Z,2025-05-12T17:46:19.326Z
60a6d78997d5e90013d774a2,Equipment Share Inc,,0011K00002QmmU0QAJ,Equipment Share - Columbus OH,"1605 Thrailkill Rd, Grove City, Ohio, United States, 43123",16146008981,eddie.parsons@equipmentshare.com,eddie.parsons@equipmentshare.com,,,,,,,,,FALSE,FALSE,2025-03-26T09:45:46.918Z,2025-05-12T17:46:18.227Z
60a6d78997d5e90013d774a2,Equipment Share Inc,,0011K00002QmmMrQAJ,Equipment Share - Phoenix AZ,"2035 W Mountain View Rd, Phoenix, Arizona, United States, 85021",14804634999,eddie.parsons@equipmentshare.com,eddie.parsons@equipmentshare.com,,,,,,,,,FALSE,FALSE,2025-03-26T09:45:46.924Z,2025-05-12T17:46:17.680Z
60a6d78997d5e90013d774a2,Equipment Share Inc,,0011K00002QmmO9QAJ,Equipment Share - Reno NV,"3223 Mill St, Reno, Nevada, United States, 89502",17755254572,eddie.parsons@equipmentshare.com,eddie.parsons@equipmentshare.com,,,,,,,,,FALSE,FALSE,2025-03-26T09:45:46.928Z,2025-05-12T17:46:18.817Z
60a6d78997d5e90013d774a2,Equipment Share Inc,,0011K00002QmmPHQAZ,Equipment Share - Pasco WA,"1125 E Spokane St, Pasco, Washington, United States, 99301",15093806044,psc.sales@equipmentshare.com,eddie.parsons@equipmentshare.com,,,,,,,,,FALSE,FALSE,2025-03-26T09:45:46.931Z,2025-05-12T17:46:19.274Z
60a6d78997d5e90013d774a2,Equipment Share Inc,,0011K00002QmmNGQAZ,Equipment Share - Las Vegas NV,"412 E Gowan Rd, North Las Vegas, Nevada, United States, 89032",17252210051,eddie.parsons@equipmentshare.com,eddie.parsons@equipmentshare.com,,,,,,,,,FALSE,FALSE,2025-03-26T09:45:46.942Z,2025-05-12T17:46:17.934Z
60a6d78997d5e90013d774a2,Equipment Share Inc,,0011K00002QmmQhQAJ,Equipment Share - Salt Lake City UT,"295 S Redwood Rd, North Salt Lake, Utah, United States, 84054",18018936388,eddie.parsons@equipmentshare.com,eddie.parsons@equipmentshare.com,,,,,,,,,FALSE,FALSE,2025-03-26T09:45:46.945Z,2025-05-12T17:46:19.878Z
60a6d78997d5e90013d774a2,Equipment Share Inc,,0011K00002QmmSsQAJ,Equipment Share - Garden City (Boise) ID,"4665 W Chinden Blvd, Boise, ID 83714, USA",12087811404,eddie.parsons@equipmentshare.com,eddie.parsons@equipmentshare.com,,,,,,,,,FALSE,FALSE,2025-03-26T09:45:46.949Z,2025-07-21T20:06:32.902Z
60a6d78997d5e90013d774a2,Equipment Share Inc,,0011K00002QmmXEQAZ,Equipment Share - Memphis TN,"4033 Lamar Ave, Memphis, TN 38118, USA",16623528588,eddie.parsons@equipmentshare.com,eddie.parsons@equipmentshare.com,,,,,,,,,FALSE,FALSE,2025-03-26T09:45:46.956Z,2025-07-21T20:06:31.718Z
60a6d78997d5e90013d774a2,Equipment Share Inc,,0011K00002QmmXiQAJ,Equipment Share - Springfield MO,"7096 W Carnahan St, Springfield, Missouri, United States, 65802",14177084400,eddie.parsons@equipmentshare.com,eddie.parsons@equipmentshare.com,,,,,,,,,FALSE,FALSE,2025-03-26T09:45:46.960Z,2025-05-12T17:46:18.138Z
60a6d78997d5e90013d774a2,Equipment Share Inc,,0011K00002QmmXOQAZ,Equipment Share - Alabaster (Birmingham) AL,"1959 Fulton Springs Rd, Alabaster, Alabama, United States, 35007",12057300770,eddie.parsons@equipmentshare.com,eddie.parsons@equipmentshare.com,,,,,,,,,FALSE,FALSE,2025-03-26T09:45:46.963Z,2025-05-12T17:46:20.329Z
60a6d78997d5e90013d774a2,Equipment Share Inc,,0011K00002QmmXYQAZ,Equipment Share - Savannah GA,"145 Thunderbird Dr, Richmond Hill, Georgia, United States, 31324",19125252505,eddie.parsons@equipmentshare.com,eddie.parsons@equipmentshare.com,,,,,,,,,FALSE,FALSE,2025-03-26T09:45:46.966Z,2025-05-12T17:46:18.268Z
60a6d78997d5e90013d774a2,Equipment Share Inc,,0011K00002QmmXsQAJ,Equipment Share - Springdale AR,"1951 Electric Ave, Springdale, Arkansas, United States, 72764",14793162212,eddie.parsons@equipmentshare.com,eddie.parsons@equipmentshare.com,,,,,,,,,FALSE,FALSE,2025-03-26T09:45:46.970Z,2025-05-12T17:46:18.666Z
60a6d78997d5e90013d774a2,Equipment Share Inc,,0011K00002QmmXnQAJ,Equipment Share - Little Rock AR,"4726 Thibault Rd, Little Rock, Arkansas, United States, 72206",15014909974,eddie.parsons@equipmentshare.com,eddie.parsons@equipmentshare.com,,,,,,,,,FALSE,FALSE,2025-03-26T09:45:46.973Z,2025-05-12T17:46:16.191Z
60a6d78997d5e90013d774a2,Equipment Share Inc,,0011K00002QmmY7QAJ,Equipment Share - Pine Bluff (Whitehall) AR,"6514 W Barraque St, White Hall, Arkansas, United States, 71602",18705509223,eddie.parsons@equipmentshare.com,"eddie.parsons@equipmentshare.com,carl.howard@equipmentshare.com",,,,,,,,,FALSE,FALSE,2025-03-26T09:45:46.978Z,2025-05-12T17:46:16.724Z
60a6d78997d5e90013d774a2,Equipment Share Inc,,0011K00002QmmYHQAZ,Equipment Share - Jacksonville FL,"11250 Business Park Blvd, Jacksonville, Florida, United States, 32256",19045745151,eddie.parsons@equipmentshare.com,eddie.parsons@equipmentshare.com,,,,,,,,,FALSE,FALSE,2025-03-26T09:45:46.981Z,2025-05-12T17:46:18.323Z
60a6d78997d5e90013d774a2,Equipment Share Inc,,0011K00002QmmYRQAZ,Equipment Share - Tulsa OK,"1703 N 161st E Ave, Tulsa, Oklahoma, United States, 74116",19189211800,eddie.parsons@equipmentshare.com,eddie.parsons@equipmentshare.com,,,,,,,,,FALSE,FALSE,2025-03-26T09:45:46.984Z,2025-05-12T17:46:18.862Z
60a6d78997d5e90013d774a2,Equipment Share Inc,,0011K00002QmmWpQAJ,Equipment Share - Atlanta (Conyers) GA,"1890 Dogwood Dr SE, Conyers, Georgia, United States, 30013",16789712022,eddie.parsons@equipmentshare.com,eddie.parsons@equipmentshare.com,,,,,,,,,FALSE,FALSE,2025-03-26T09:45:46.992Z,2025-05-12T17:46:20.823Z
60a6d78997d5e90013d774a2,Equipment Share Inc,,0011K00002QmmVwQAJ,Equipment Share - Chattanooga TN,"4840 Geminus Dr, Chattanooga, Tennessee, United States, 37416",14234971122,eddie.parsons@equipmentshare.com,eddie.parsons@equipmentshare.com,,,,,,,,,FALSE,FALSE,2025-03-26T09:45:46.995Z,2025-05-12T17:46:20.499Z
60a6d78997d5e90013d774a2,Equipment Share Inc,,0011K00002QmmVmQAJ,Equipment Share - Weldon Spring (St Louis) MO,"801 Westwood Industrial Park Dr, Weldon Spring, Missouri, United States, 63304",16364810033,eddie.parsons@equipmentshare.com,eddie.parsons@equipmentshare.com,,,,,,,,,FALSE,FALSE,2025-03-26T09:45:46.999Z,2025-05-12T17:46:19.600Z
60a6d78997d5e90013d774a2,Equipment Share Inc,,0011K00002QmmXTQAZ,Equipment Share - Kansas City MO,"7201 E Front St, KCMO, Missouri, United States, 64120",18162166550,eddie.parsons@equipmentshare.com,"eddie.parsons@equipmentshare.com,carl.howard@equipmentshare.com",,,,,,,,,FALSE,FALSE,2025-03-26T09:45:47.003Z,2025-05-12T17:46:19.468Z
60a6d78997d5e90013d774a2,Equipment Share Inc,,0011K00002QmmYlQAJ,Equipment Share - Monroe LA,"7600 US-165, Monroe, Louisiana, United States, 71203",13183028788,eddie.parsons@equipmentshare.com,eddie.parsons@equipmentshare.com,,,,,,,,,FALSE,FALSE,2025-03-26T09:45:47.007Z,2025-05-12T17:46:18.182Z
60a6d78997d5e90013d774a2,Equipment Share Inc,,0011K00002Qn1h3QAB,Equipment Share - Sanford FL,"3219 S Orlando Dr, Sanford, Florida, United States, 32773",13212707272,orl.sales@equipmentshare.com,eddie.parsons@equipmentshare.com,,,,,,,,,FALSE,FALSE,2025-03-26T09:45:47.011Z,2025-05-12T17:46:19.144Z
60a6d78997d5e90013d774a2,Equipment Share Inc,,0011K00002Qn1kHQAR,Equipment Share - Shreveport LA,"5620 N Industry Rd, Shreveport, Louisiana, United States, 71107",13185888688,eddie.parsons@equipmentshare.com,eddie.parsons@equipmentshare.com,,,,,,,,,FALSE,FALSE,2025-03-26T09:45:47.018Z,2025-05-12T17:46:17.405Z
60a6d78997d5e90013d774a2,Equipment Share Inc,,0011K00002Qn4IHQAZ,Equipment Share - Tyler TX,"1761 S Tyler St, Gladewater, Texas, United States, 75647",19034213931,eddie.parsons@equipmentshare.com,eddie.parsons@equipmentshare.com,,,,,,,,,FALSE,FALSE,2025-03-26T09:45:47.022Z,2025-05-12T17:46:20.873Z
60a6d78997d5e90013d774a2,Equipment Share Inc,,0011K00002Qn4NcQAJ,Equipment Share - Lake Charles LA,"2919 E Napoleon St, Sulphur, Louisiana, United States, 70663",13375162020,eddie.parsons@equipmentshare.com,"eddie.parsons@equipmentshare.com,carl.howard@equipmentshare.com",,,,,,,,,FALSE,FALSE,2025-03-26T09:45:47.025Z,2025-05-12T17:46:20.779Z
60a6d78997d5e90013d774a2,Equipment Share Inc,,0011K00002Qn4OLQAZ,Equipment Share - Grand Prairie (Dallas) TX,"3205 Roy Orr Blvd, Grand Prairie, Texas, United States, 75050",19727371919,eddie.parsons@equipmentshare.com,eddie.parsons@equipmentshare.com,,,,,,,,,FALSE,FALSE,2025-03-26T09:45:47.029Z,2025-05-12T17:46:18.614Z
60a6d78997d5e90013d774a2,Equipment Share Inc,,0011K00002Qn4VRQAZ,Equipment Share - Pasadena TX,"5826 Red Bluff Rd, Pasadena, TX 77505, USA",12818193313,eddie.parsons@equipmentshare.com,"eddie.parsons@equipmentshare.com,carl.howard@equipmentshare.com",,,,,,,,,FALSE,FALSE,2025-03-26T09:45:47.036Z,2025-07-21T20:06:32.383Z
60a6d78997d5e90013d774a2,Equipment Share Inc,,0011K00002Qn3sqQAB,Equipment Share - New Orleans LA,"2450 Destrehan Ave, Harvey, Louisiana, United States, 70058",15043303208,eddie.parsons@equipmentshare.com,eddie.parsons@equipmentshare.com,,,,,,,,,FALSE,FALSE,2025-03-26T09:45:47.039Z,2025-05-12T17:46:16.366Z
60a6d78997d5e90013d774a2,Equipment Share Inc,,0011K00002Qn4P4QAJ,Equipment Share - Ft Worth (Keller) TX,"1675 S Main St, Keller, Texas, United States, 76248",18177177616,ftw.sales@equipmentshare.com,"eddie.parsons@equipmentshare.com,carl.howard@equipmentshare.com",,,,,,,,,FALSE,FALSE,2025-03-26T09:45:47.043Z,2025-05-12T17:46:17.517Z
60a6d78997d5e90013d774a2,Equipment Share Inc,,0011K00002Qn43dQAB,Equipment Share - Baton Rouge LA,"2555 E Hwy 30, St Gabriel, Louisiana, United States, 70776",12257133223,eddie.parsons@equipmentshare.com,"eddie.parsons@equipmentshare.com,carl.howard@equipmentshare.com",,,,,,,,,FALSE,FALSE,2025-03-26T09:45:47.047Z,2025-05-12T17:46:19.375Z
60a6d78997d5e90013d774a2,Equipment Share Inc,,0011K00002Qn4PxQAJ,Equipment Share - Beaumont TX,"10097 US-90, Beaumont, Texas, United States, 77713",14092094004,eddie.parsons@equipmentshare.com,eddie.parsons@equipmentshare.com,,,,,,,,,FALSE,FALSE,2025-03-26T09:45:47.050Z,2025-05-12T17:46:20.262Z
60a6d78997d5e90013d774a2,Equipment Share Inc,,0011K00002RKjxCQAT,Equipment Share - Houston Southwest TX,"6811 McHard Rd, Houston, Texas, United States, 77053",13464352899,eddie.parsons@equipmentshare.com,"eddie.parsons@equipmentshare.com,carl.howard@equipmentshare.com",,,,,,,,,FALSE,FALSE,2025-03-26T09:45:47.054Z,2025-05-12T17:46:18.092Z
60a6d78997d5e90013d774a2,Equipment Share Inc,,0011K00002RKk7rQAD,Equipment Share - Victoria TX,"1809 John Stockbauer Dr, Victoria, Texas, United States, 77901",13613335560,eddie.parsons@equipmentshare.com,"eddie.parsons@equipmentshare.com,carl.howard@equipmentshare.com",,,,,,,,,FALSE,FALSE,2025-03-26T09:45:47.061Z,2025-05-12T17:46:16.963Z
60a6d78997d5e90013d774a2,Equipment Share Inc,,0011K00002RKkBFQA1,Equipment Share - Midland TX,"2323 E County Rd 123, Midland, Texas, United States, 79706",14322175789,eddie.parsons@equipmentshare.com,eddie.parsons@equipmentshare.com,,,,,,,,,FALSE,FALSE,2025-03-26T09:45:47.065Z,2025-05-12T17:46:17.114Z
60a6d78997d5e90013d774a2,Equipment Share Inc,,0011K00002RKk79QAD,Equipment Share - Corpus Christi TX,"5530 Transport Industrial Dr, Corpus Christi, Texas, United States, 78405",13615204445,eddie.parsons@equipmentshare.com,eddie.parsons@equipmentshare.com,,,,,,,,,FALSE,FALSE,2025-03-26T09:45:47.071Z,2025-05-12T17:46:19.050Z
60a6d78997d5e90013d774a2,Equipment Share Inc,,0011K00002RN4FcQAL,Equipment Share - Joplin MO,"5430 State Hwy 43, Joplin, Missouri, United States, 64804",14177818222,eddie.parsons@equipmentshare.com,eddie.parsons@equipmentshare.com,,,,,,,,,FALSE,FALSE,2025-03-26T09:45:47.074Z,2025-05-12T17:46:20.542Z
60a6d78997d5e90013d774a2,Equipment Share Inc,,0011K00002RN4EeQAL,Equipment Share - Olive Branch MS,"7400 Craft-Goodman Rd, Olive Branch, MS 38654, USA",16623528588,eddie.parsons@equipmentshare.com,"eddie.parsons@equipmentshare.com,carl.howard@equipmentshare.com",,,,,,,,,FALSE,FALSE,2025-03-26T09:45:47.078Z,2025-07-21T20:06:32.681Z
60a6d78997d5e90013d774a2,Equipment Share Inc,,0011K00002RN4zfQAD,Equipment Share - Colton CA,"15495 Arrow Route, Fontana, CA 92335, USA",19009554485,col.sales@equipmentshare.com,"eddie.parsons@equipmentshare.com,carl.howard@equipmentshare.com",,,,,,,,,FALSE,FALSE,2025-03-26T09:45:47.086Z,2025-07-21T20:06:36.089Z
60a6d78997d5e90013d774a2,Equipment Share Inc,,0011K00002RN4MnQAL,Equipment Share - Cincinnati OH,"8340 N Gilmore Rd, Hamilton, Ohio, United States, 45015",15135200371,eddie.parsons@equipmentshare.com,eddie.parsons@equipmentshare.com,,,,,,,,,FALSE,FALSE,2025-03-26T09:45:47.089Z,2025-05-12T17:46:18.572Z
60a6d78997d5e90013d774a2,Equipment Share Inc,,0011K00002RN3z5QAD,Equipment Share - Topeka KS,"1305 SW 42nd St, Topeka, Kansas, United States, 66609",17857834944,eddie.parsons@equipmentshare.com,"eddie.parsons@equipmentshare.com,carl.howard@equipmentshare.com",,,,,,,,,FALSE,FALSE,2025-03-26T09:45:47.093Z,2025-05-12T17:46:16.410Z
60a6d78997d5e90013d774a2,Equipment Share Inc,,0011K00002RN4CJQA1,Equipment Share - Garden City KS,"2203 Jones Ave, Garden City, Kansas, United States, 67846",16202751996,eddie.parsons@equipmentshare.com,eddie.parsons@equipmentshare.com,,,,,,,,,FALSE,FALSE,2025-03-26T09:45:47.096Z,2025-05-12T17:46:19.425Z
60a6d78997d5e90013d774a2,Equipment Share Inc,,0011K00002TvNR2QAN,Equipment Share - Stafford VA,"40 Venture Dr, Stafford, VA 22554, USA",15408349159,eddie.parsons@equipmentshare.com,eddie.parsons@equipmentshare.com,,,,,,,,,FALSE,FALSE,2025-03-26T09:45:47.099Z,2025-07-21T20:06:36.586Z
60a6d78997d5e90013d774a2,Equipment Share Inc,,0011K00002TWVS7QAP,Equipment Share - Charlotte NC,"10601 Reames Rd, Charlotte, North Carolina, United States, 28269",19803169244,eddie.parsons@equipmentshare.com,eddie.parsons@equipmentshare.com,,,,,,,,,FALSE,FALSE,2025-03-26T09:45:47.102Z,2025-05-12T17:46:20.457Z
60a6d78997d5e90013d774a2,Equipment Share Inc,,0011K00002SlBrnQAF,Equipment Share - Eugene OR,"2435 Prairie Rd, Eugene, OR 97402, USA",14582104701,eddie.parsons@equipmentshare.com,eddie.parsons@equipmentshare.com,,,,,,,,,FALSE,FALSE,2025-03-26T09:45:47.106Z,2025-07-21T20:06:40.194Z
60a6d78997d5e90013d774a2,Equipment Share Inc,,0011K00002X7g32QAB,Equipment Share - Belle Vernon PA,"203 Finley Rd, Belle Vernon, Pennsylvania, United States, 15012",17243664942,eddie.parsons@equipmentshare.com,eddie.parsons@equipmentshare.com,,,,,,,,,FALSE,FALSE,2025-03-26T09:45:47.109Z,2025-05-12T17:46:20.587Z
60a6d78997d5e90013d774a2,Equipment Share Inc,,0011K00002X9GFCQA3,Equipment Share - Fontana CA,"15495 Arrow Route, Fontana, California, United States, 92335",19092190084,fon.sales@equipmentshare.com,eddie.parsons@equipmentshare.com,,,,,,,,,FALSE,FALSE,2025-03-26T09:45:47.112Z,2025-05-12T17:46:19.184Z
60a6d78997d5e90013d774a2,Equipment Share Inc,,0011K00002X9HFCQA3,Equipment Share - Theodore (Mobile) AL,"8765 Bellingrath Rd, Theodore, Alabama, United States, 36582",12516548394,eddie.parsons@equipmentshare.com,eddie.parsons@equipmentshare.com,,,,,,,,,FALSE,FALSE,2025-03-26T09:45:47.115Z,2025-05-12T17:46:17.003Z
60a6d78997d5e90013d774a2,Equipment Share Inc,,001Ah0000042ULwIAM,Equipment Share - Southwest Chicago IL,"4044 McDonough St, Joliet, Illinois, United States, 60431",16307400609,eddie.parsons@equipmentshare.com,"eddie.parsons@equipmentshare.com,carl.howard@equipmentshare.com",,,,,,,,,FALSE,FALSE,2025-03-26T09:45:47.120Z,2025-05-12T17:46:20.130Z
60a6d78997d5e90013d774a2,Equipment Share Inc,,001Ah0000042dUiIAI,Equipment Share - Billings MT,"7070 Niehenke Ave, Billings, Montana, United States, 59101",14066010333,eddie.parsons@equipmentshare.com,eddie.parsons@equipmentshare.com,,,,,,,,,FALSE,FALSE,2025-03-26T09:45:47.127Z,2025-05-12T17:46:18.465Z
60a6d78997d5e90013d774a2,Equipment Share Inc,,001Ah0000042dZTIAY,Equipment Share - Grand Juction CO,"719 Arrowest Ct, Grand Junction, CO 81505, USA",19702009068,eddie.parsons@equipmentshare.com,eddie.parsons@equipmentshare.com,,,,,,,,,FALSE,FALSE,2025-03-26T09:45:47.131Z,2025-07-21T20:06:33.411Z
60a6d78997d5e90013d774a2,Equipment Share Inc,,001Ah0000042dbZIAQ,Equipment Share - Williston ND,"5060 Bennett Loop, Williston, North Dakota, United States, 58801",17016517011,eddie.parsons@equipmentshare.com,eddie.parsons@equipmentshare.com,,,,,,,,,FALSE,FALSE,2025-03-26T09:45:47.135Z,2025-05-12T17:46:20.403Z
60a6d78997d5e90013d774a2,Equipment Share Inc,,001Ah00000433i9IAA,Equipment Share - Gallup NM,"2323 U.S. Rt. 66, Gallup, New Mexico, United States, 87301",15058791093,eddie.parsons@equipmentshare.com,"eddie.parsons@equipmentshare.com,carl.howard@equipmentshare.com",,,,,,,,,FALSE,FALSE,2025-03-26T09:45:47.138Z,2025-05-12T17:46:18.416Z
60a6d78997d5e90013d774a2,Equipment Share Inc,,001Ah0000043497IAA,Equipment Share - Yuma AZ,"3251 Gila Ridge Rd, Yuma, Arizona, United States, 85365",19282002530,eddie.parsons@equipmentshare.com,eddie.parsons@equipmentshare.com,,,,,,,,,FALSE,FALSE,2025-03-26T09:45:47.151Z,2025-05-12T17:46:19.645Z
60a6d78997d5e90013d774a2,Equipment Share Inc,,001Ah00000434AZIAY,Equipment Share - Abilene TX,"1358 Scott St, Tye, Texas, United States, 79563",13257250534,eddie.parsons@equipmentshare.com,"eddie.parsons@equipmentshare.com,carl.howard@equipmentshare.com",,,,,,,,,FALSE,FALSE,2025-03-26T09:45:47.156Z,2025-05-12T17:46:19.742Z
60a6d78997d5e90013d774a2,Equipment Share Inc,,001Ah00000434CLIAY,Equipment Share - Amarillo TX,"12760 I-27, Amarillo, Texas, United States, 79119",18066901833,eddie.parsons@equipmentshare.com,eddie.parsons@equipmentshare.com,,,,,,,,,FALSE,FALSE,2025-03-26T09:45:47.160Z,2025-05-12T17:46:19.509Z
60a6d78997d5e90013d774a2,Equipment Share Inc,,001Ah00000434DdIAI,Equipment Share - Lubbock TX,"614 E County Rd 7200, Lubbock, Texas, United States, 79404",18066866939,eddie.parsons@equipmentshare.com,eddie.parsons@equipmentshare.com,,,,,,,,,FALSE,FALSE,2025-03-26T09:45:47.166Z,2025-05-12T17:46:17.253Z
60a6d78997d5e90013d774a2,Equipment Share Inc,,001Ah00000434GhIAI,Equipment Share - Cape Girardeau MO,"281 Rambler Dr, Cape Girardeau, Missouri, United States, 63701",15739792818,eddie.parsons@equipmentshare.com,eddie.parsons@equipmentshare.com,,,,,,,,,FALSE,FALSE,2025-03-26T09:45:47.170Z,2025-05-12T17:46:20.923Z
60a6d78997d5e90013d774a2,Equipment Share Inc,,001Ah00000434I4IAI,Equipment Share - Ardmore OK,"3213 Prairie Valley Rd, Ardmore, Oklahoma, United States, 73401",15807986152,eddie.parsons@equipmentshare.com,eddie.parsons@equipmentshare.com,,,,,,,,,FALSE,FALSE,2025-03-26T09:45:47.177Z,2025-05-12T17:46:19.935Z
60a6d78997d5e90013d774a2,Equipment Share Inc,,001Ah000004368AIAQ,Equipment Share - CPE Jacksonville FL,"9235 Busch Dr N, Jacksonville, Florida, United States, 32218",19045165380,jaxtt.sales@equipmentshare.com,eddie.parsons@equipmentshare.com,,,,,,,,,FALSE,FALSE,2025-03-26T09:45:47.180Z,2025-05-12T17:46:19.552Z
60a6d78997d5e90013d774a2,Equipment Share Inc,,6399d417a0d07600137015e7,Equipment Share - Council Bluffs IA,"13665 192nd St, Council Bluffs, IA 51503, USA",4026191653,eddie.parsons@equipmentshare.com,eddie.parsons@equipmentshare.com,,,,,,,,,FALSE,FALSE,2025-03-26T09:45:47.184Z,2025-07-21T20:06:40.718Z
60a6d78997d5e90013d774a2,Equipment Share Inc,,639ce4bfaa15fb0013bd5419,Equipment Share - Wichita Falls TX,"2785 Fisher Rd, Wichita Falls, TX 76302, USA",9402806324,eddie.parsons@equipmentshare.com,eddie.parsons@equipmentshare.com,,,,,,,,,FALSE,FALSE,2025-03-26T09:45:47.187Z,2025-07-21T20:06:33.284Z
60a6d78997d5e90013d774a2,Equipment Share Inc,,639ce98caa15fb0013bd550d,Equipment Share - Baytown TX,"12825 Upland Wy, Baytown, TX 77523, USA",2818382605,eddie.parsons@equipmentshare.com,eddie.parsons@equipmentshare.com,,,,,,,,,FALSE,FALSE,2025-03-26T09:45:47.192Z,2025-07-21T20:06:37.571Z
60a6d78997d5e90013d774a2,Equipment Share Inc,,639cf0bf7af3260012b7be9c,Equipment Share - West Palm Beach (Lake Worth) FL,"1150 Barnett Dr, Lake Worth Beach, FL 33461, USA",5612969710,eddie.parsons@equipmentshare.com,"eddie.parsons@equipmentshare.com,carl.howard@equipmentshare.com",,,,,,,,,FALSE,FALSE,2025-03-26T09:45:47.195Z,2025-07-21T20:06:39.499Z
60a6d78997d5e90013d774a2,Equipment Share Inc,,63a30a89e897400019ab7b7d,Equipment Share - Orlando FL,"385 W Landstreet Rd, Orlando, FL 32824, USA",4078880024,eddie.parsons@equipmentshare.com,eddie.parsons@equipmentshare.com,,,,,,,,,FALSE,FALSE,2025-03-26T09:45:47.200Z,2025-07-21T20:06:40.561Z
60a6d78997d5e90013d774a2,Equipment Share Inc,,001Ah0000069FDxIAM,Equipment Share - McKinney TX,"1000 E University Dr, McKinney, Texas, United States, 75069",+14697120938,,"eddie.parsons@equipmentshare.com,carl.howard@equipmentshare.com",,,,,,,,,FALSE,FALSE,2025-03-26T09:45:47.203Z,2025-05-02T19:05:36.242Z
60a6d78997d5e90013d774a2,Equipment Share Inc,,64402259d105050012b17e4c,Equipment Share - Columbia (Gaston) SC,"49 Palmetto Ct, Gaston, South Carolina, United States, 29053",18036836924,cae.sales@equipmentshare.com,eddie.parsons@equipmentshare.com,,,,,,,,,FALSE,FALSE,2025-03-26T09:45:47.207Z,2025-05-12T17:46:19.695Z
60a6d78997d5e90013d774a2,Equipment Share Inc,,6441a4f9adbf90001290062e,Equipment Share - Toledo OH,"3145 York St, Oregon, Ohio, United States, 43605",+15676863660,,"eddie.parsons@equipmentshare.com,carl.howard@equipmentshare.com",,,,,,,,,FALSE,FALSE,2025-03-26T09:45:47.210Z,2025-03-26T09:45:47.210Z
60a6d78997d5e90013d774a2,Equipment Share Inc,,001Ah000006bt1gIAA,Equipment Share - Harlingen TX," Harlingen Rd, Harlingen, Texas, United States, 78550",+13465541094,,eddie.parsons@equipmentshare.com,,,,,,,,,FALSE,FALSE,2025-03-26T09:45:47.214Z,2025-03-26T09:45:47.214Z
60a6d78997d5e90013d774a2,Equipment Share Inc,,001Ah000006lku4IAA,Equipment Share - Fort Smith OK,"4505 Main St, Arkoma, Oklahoma, United States, 74901",+14792633766,,eddie.parsons@equipmentshare.com,,,,,,,,,FALSE,FALSE,2025-03-26T09:45:47.217Z,2025-03-26T09:45:47.217Z
60a6d78997d5e90013d774a2,Equipment Share Inc,,001Ah000006vvWoIAI,Equipment Share - Bryan TX,"1680 Independence Ave, Bryan, Texas, United States, 77803",+19794853032,,eddie.parsons@equipmentshare.com,,,,,,,,,FALSE,FALSE,2025-03-26T09:45:47.220Z,2025-03-26T09:45:47.220Z
60a6d78997d5e90013d774a2,Equipment Share Inc,,001Ah00000737NCIAY,Equipment Share - Spanish Fork UT,"665 W 1000 N, Spanish Fork, Utah, United States, 84660",+13853074335,,"eddie.parsons@equipmentshare.com,carl.howard@equipmentshare.com",,,,,,,,,FALSE,FALSE,2025-03-26T09:45:47.227Z,2025-04-08T21:19:09.244Z
60a6d78997d5e90013d774a2,Equipment Share Inc,,001Ah000007ALwgIAG,Equipment Share - Gladewater TX,"1761 US-271, Gladewater, Texas, United States, 75647",+19034213931,,eddie.parsons@equipmentshare.com,,,,,,,,,FALSE,FALSE,2025-03-26T09:45:47.230Z,2025-04-11T20:41:55.581Z
60a6d78997d5e90013d774a2,Equipment Share Inc,,001OJ000001J6kIYAS,Equipment Share - Jackson MS,"5246 Greenway Dr, Jackson, Mississippi, United States, 39204",+16013971405,,eddie.parsons@equipmentshare.com,,,,,,,,,FALSE,FALSE,2025-03-26T09:45:47.234Z,2025-03-26T09:45:47.234Z
60a6d78997d5e90013d774a2,Equipment Share Inc,,001OJ000001cHs7YAE,Equipment Share - Detroit MI,"2741 Schaefer Rd, Melvindale, Michigan, United States, 48122",+17344605224,,"eddie.parsons@equipmentshare.com,carl.howard@equipmentshare.com",,,,,,,,,FALSE,FALSE,2025-03-26T09:45:47.237Z,2025-04-17T13:01:46.735Z
60a6d78997d5e90013d774a2,Equipment Share Inc,,001OJ000001o0dnYAA,Equipment Share - Algona IA,"1621 US-18, Algona, Iowa, United States, 50511",+15153957368,,eddie.parsons@equipmentshare.com,,,,,,,,,FALSE,FALSE,2025-03-26T09:45:47.240Z,2025-04-21T21:10:16.573Z
60a6d78997d5e90013d774a2,Equipment Share Inc,,001OJ000002CfZMYA0,Equipment Share - Camden NJ,"1521 Admiral Wilson Blvd, Pennsauken Township, New Jersey, United States, 08109",+16099226713,,eddie.parsons@equipmentshare.com,,,,,,,,,FALSE,FALSE,2025-03-26T09:45:47.243Z,2025-03-26T09:45:47.243Z
60a6d78997d5e90013d774a2,Equipment Share Inc,,001OJ000002GO3jYAG,Equipment Share - Yelm WA,"10812 Bald Hill Rd SE, Yelm, Washington, United States, 98597",+12539990680,,eddie.parsons@equipmentshare.com,,,,,,,,,FALSE,FALSE,2025-03-26T09:45:47.247Z,2025-04-17T20:35:26.520Z
60a6d78997d5e90013d774a2,Equipment Share Inc,,001OJ000002gSgHYAU,Equipment Share - South Plainfield NJ,"456 Hollywood Ave, South Plainfield, New Jersey, United States, 07080",+17578764523,,"eddie.parsons@equipmentshare.com,carl.howard@equipmentshare.com",,,,,,,,,FALSE,FALSE,2025-03-26T09:45:47.256Z,2025-04-22T16:07:44.285Z
60a6d78997d5e90013d774a2,Equipment Share Inc,,001OJ000002mLp4YAE,Equipment Share - Waco TX,"17140 N Interstate 35 Frontage Rd, West, Texas, United States, 76691",+12546535500,,eddie.parsons@equipmentshare.com,,,,,,,,,FALSE,FALSE,2025-03-26T09:45:47.260Z,2025-03-26T09:45:47.260Z
60a6d78997d5e90013d774a2,Equipment Share Inc,,001OJ000002mWCbYAM,Equipment Share - Elwood KS," Roseport Rd, Elwood, Kansas, United States, 66090",+18165383457,,eddie.parsons@equipmentshare.com,,,,,,,,,FALSE,FALSE,2025-03-26T09:45:47.263Z,2025-04-22T20:10:59.310Z
60a6d78997d5e90013d774a2,Equipment Share Inc,,001OJ000002tw5TYAQ,Equipment Share - San Angelo TX,"933 W 19th St, San Angelo, Texas, United States, 76903",+13256503960,,eddie.parsons@equipmentshare.com,,,,,,,,,FALSE,FALSE,2025-03-26T09:45:47.266Z,2025-04-22T21:39:31.289Z
60a6d78997d5e90013d774a2,Equipment Share Inc,,001OJ000005bVRmYAM,Equipment Share - Emporia VA,"2155 Sussex Dr, Emporia, Virginia, United States, 23847",+14349071183,,eddie.parsons@equipmentshare.com,,,,,,,,,FALSE,FALSE,2025-03-26T09:45:47.278Z,2025-03-26T09:45:47.278Z
60a6d78997d5e90013d774a2,Equipment Share Inc,,001OJ000007IOW9YAO,Equipment Share - Panama City FL,"3621 Frankford Ave, Panama City, Florida, United States, 32405",+18508041625,,eddie.parsons@equipmentshare.com,,,,,,,,,FALSE,FALSE,2025-03-26T09:45:47.281Z,2025-03-26T09:45:47.281Z
60a6d78997d5e90013d774a2,Equipment Share Inc,,001OJ000009Yc5lYAC,Equipment Share - Lakeland (Mulberry) FL,"5070 State Rd 60, Mulberry, Florida, United States, 33860",+18634003418,,eddie.parsons@equipmentshare.com,,,,,,,,,FALSE,FALSE,2025-03-26T09:45:47.285Z,2025-03-26T09:45:47.285Z
60a6d78997d5e90013d774a2,Equipment Share Inc,,001OJ00000Awex1YAB,Equipment Share - Sherman TX,"18873 US-82, Sherman, Texas, United States, 75092",+19032945001,,eddie.parsons@equipmentshare.com,,,,,,,,,FALSE,FALSE,2025-03-26T09:45:47.290Z,2025-05-02T16:12:26.270Z
60a6d78997d5e90013d774a2,Equipment Share Inc,,001OJ00000AzK0rYAF,Equipment Share - Knoxville TN,"10924 McBride Ln, Knoxville, Tennessee, United States, 37932",+18888073687,,eddie.parsons@equipmentshare.com,,,,,,,,,FALSE,FALSE,2025-03-26T09:45:47.293Z,2025-04-22T16:50:26.251Z
60a6d78997d5e90013d774a2,Equipment Share Inc,,001OJ00000BVqQcYAL,Equipment Share - Pueblo West CO,"12 N Research Dr, Pueblo West, Colorado, United States, 81007",+17196531190,,eddie.parsons@equipmentshare.com,,,,,,,,,FALSE,FALSE,2025-03-26T09:45:47.297Z,2025-03-26T09:45:47.297Z
60a6d78997d5e90013d774a2,Equipment Share Inc,,001OJ00000CgFRzYAN,Equipment Share - Kentwood MI,"4250 52nd St SE, Kentwood, Michigan, United States, 49512",+16162860990,,eddie.parsons@equipmentshare.com,,,,,,,,,FALSE,FALSE,2025-03-26T09:45:47.304Z,2025-04-10T18:37:09.747Z
60a6d78997d5e90013d774a2,Equipment Share Inc,,001OJ00000DDBnlYAH,Equipment Share - Osceola AR,"1581 AR-181, Osceola, Arkansas, United States, 72370",+18705761400,,eddie.parsons@equipmentshare.com,,,,,,,,,FALSE,FALSE,2025-03-26T09:45:47.308Z,2025-03-26T09:45:47.308Z
60a6d78997d5e90013d774a2,Equipment Share Inc,,001OJ00000DbGHdYAN,Equipment Share - Hartford CT,"317 W Service Rd, Hartford, Connecticut, United States, 06120",+19593333470,,eddie.parsons@equipmentshare.com,,,,,,,,,FALSE,FALSE,2025-03-26T09:45:47.311Z,2025-03-26T16:51:35.062Z
60a6d78997d5e90013d774a2,Equipment Share Inc,,001OJ00000DyLmsYAF,Equipment Share - Laredo TX,"5663 TX-359, Laredo, Texas, United States, 78043",+13615005636,,eddie.parsons@equipmentshare.com,,,,,,,,,FALSE,FALSE,2025-03-26T09:45:47.315Z,2025-03-26T09:45:47.315Z
60a6d78997d5e90013d774a2,Equipment Share Inc,,001OJ00000EhpKBYAZ,Equipment Share - Lancaster CA,"811 Columbia Way, Lancaster, California, United States, 93535",+16615710274,,"carl.howard@equipmentshare.com,lcs.sales@equipmentshare.com,eddie.parsons@equipmentshare.com",,,,,,,,,FALSE,FALSE,2025-03-26T09:45:47.318Z,2025-03-26T09:45:47.318Z
60a6d78997d5e90013d774a2,Equipment Share Inc,,001OJ00000EvRjRYAV,Equipment Share - Lake Forest CA,"20772 Civic Center Dr, Lake Forest, California, United States, 92630",+19497390930,,eddie.parsons@equipmentshare.com,,,,,,,,,FALSE,FALSE,2025-03-26T09:45:47.321Z,2025-03-26T09:45:47.321Z
60a6d78997d5e90013d774a2,Equipment Share Inc,,001OJ00000FSPIzYAP,Equipment Share - Lakeville MN,"24670 Larson Ln, Lakeville, Minnesota, United States, 55044",+19035909185,,eddie.parsons@equipmentshare.com,,,,,,,,,FALSE,FALSE,2025-03-26T09:45:47.324Z,2025-04-21T16:10:26.404Z
60a6d78997d5e90013d774a2,Equipment Share Inc,,001OJ00000GPZMNYA5,Equipment Share - Richmond CA,"211 Parr Blvd, Richmond, California, United States, 94801",+14156500085,,eddie.parsons@equipmentshare.com,,,,,,,,,FALSE,FALSE,2025-03-26T09:45:47.332Z,2025-04-09T14:32:00.848Z
60a6d78997d5e90013d774a2,Equipment Share Inc,,001OJ00000GwiPJYAZ,Equipment Share - Broussard LA,"1001 Petroleum Pkwy, Broussard, Louisiana, United States, 70518",+13372247489,,eddie.parsons@equipmentshare.com,,,,,,,,,FALSE,FALSE,2025-03-26T09:45:47.335Z,2025-05-02T16:12:35.900Z
60a6d78997d5e90013d774a2,Equipment Share Inc,,001OJ00000IMEbYYAX,Equipment Share - Jackson SC,"18214 Atomic Rd, Jackson, South Carolina, United States, 29831",+18034715136,,eddie.parsons@equipmentshare.com,,,,,,,,,FALSE,FALSE,2025-03-26T09:45:47.342Z,2025-04-30T20:42:03.446Z
60a6d78997d5e90013d774a2,Equipment Share Inc,,001OJ00000JFWnpYAH,Equipment Share - Sioux City IA,"33041 Frelon Dr, Sioux City, Iowa, United States, 51108",+17125691108,,eddie.parsons@equipmentshare.com,,,,,,,,,FALSE,FALSE,2025-03-26T09:45:47.346Z,2025-03-26T09:45:47.346Z
60a6d78997d5e90013d774a2,Equipment Share Inc,,001OJ00000JS3w5YAD,Equipment Share - Nampa ID,"8780 Birch Ln, Nampa, Idaho, United States, 83687",+12086161850,,eddie.parsons@equipmentshare.com,,,,,,,,,FALSE,FALSE,2025-03-26T09:45:47.349Z,2025-03-26T09:45:47.349Z
60a6d78997d5e90013d774a2,Equipment Share Inc,,001OJ00000JuZeZYAV,Equipment Share - La Porte TX,"3401 Awesome Ln, La Porte, Texas, United States, 77571",+13465774789,,,,,,,,,,,FALSE,FALSE,2025-03-26T09:45:47.353Z,2025-03-26T09:45:47.353Z
60a6d78997d5e90013d774a2,Equipment Share Inc,,001OJ00000JyU3XYAV,Equipment Share - Tallahassee FL,"2830 Plant St, Tallahassee, Florida, United States, 32304",+18505183260,,eddie.parsons@equipmentshare.com,,,,,,,,,FALSE,FALSE,2025-03-26T09:45:47.359Z,2025-04-29T17:15:15.374Z
60a6d78997d5e90013d774a2,Equipment Share Inc,,001OJ00000KD78EYAT,Equipment Share - Seaford DE,"25939 Campers Ln, Seaford, Delaware, United States, 19973",+1302907888,,eddie.parsons@equipmentshare.com,,,,,,,,,FALSE,FALSE,2025-03-26T09:45:47.366Z,2025-03-26T09:45:47.366Z
60a6d78997d5e90013d774a2,Equipment Share Inc,,001OJ00000KnQtwYAF,Equipment Share - Hialeah Gardens FL,"12601 W Okeechobee Rd, Hialeah, Florida, United States, 33018",+17869834184,,eddie.parsons@equipmentshare.com,,,,,,,,,FALSE,FALSE,2025-03-26T09:45:47.370Z,2025-03-26T09:45:47.370Z
60a6d78997d5e90013d774a2,Equipment Share Inc,,001OJ00000KnrMFYAZ,Equipment Share - Texarkana AR,"4015 E 9th St, Texarkana, Arkansas, United States, 71854",+18703304920,,"carl.howard@equipmentshare.com,eddie.parsons@equipmentshare.com",,,,,,,,,FALSE,FALSE,2025-03-26T09:45:47.374Z,2025-04-08T19:25:57.798Z
60a6d78997d5e90013d774a2,Equipment Share Inc,,001OJ00000LVEPFYA5,Equipment Share - Angleton TX,"771 County Rd 44, Angleton, Texas, United States, 77515",+19792913627,,eddie.parsons@equipmentshare.com,,,,,,,,,FALSE,FALSE,2025-03-26T09:45:47.378Z,2025-03-26T09:45:47.378Z
60a6d78997d5e90013d774a2,Equipment Share Inc,,001OJ00000McojxYAB,Equipment Share - Whittier CA,"12393 Slauson Ave, Whittier, California, United States, 90606",+15623583830,,eddie.parsons@equipmentshare.com,,,,,,,,,FALSE,FALSE,2025-03-26T09:45:47.381Z,2025-04-17T16:05:11.516Z
60a6d78997d5e90013d774a2,Equipment Share Inc,,001OJ00000OOoh1YAD,Equipment Share - Rapid City SD,"4551 Seger Dr, Rapid City, South Dakota, United States, 57701",+16056469900,,eddie.parsons@equipmentshare.com,,,,,,,,,FALSE,FALSE,2025-03-26T09:45:47.385Z,2025-03-26T09:45:47.385Z
60a6d78997d5e90013d774a2,Equipment Share Inc,,001OJ00000Od8G6YAJ,Equipment Share - Apopka FL,"100 Hermit Smith Rd, Apopka, Florida, United States, 32703",+16899100100,,eddie.parsons@equipmentshare.com,,,,,,,,,FALSE,FALSE,2025-03-26T09:45:47.388Z,2025-03-26T09:45:47.388Z
60a6d78997d5e90013d774a2,Equipment Share Inc,,001OJ00000Q4HD4YAN,Equipment Share - Dothan AL,"125 Commerce Dr, Enterprise, Alabama, United States, 36330",+13348387128,,eddie.parsons@equipmentshare.com,,,,,,,,,FALSE,FALSE,2025-03-26T09:45:47.392Z,2025-03-26T09:45:47.392Z
60a6d78997d5e90013d774a2,Equipment Share Inc,,001OJ00000QRXNYYA5,Equipment Share - Grand Terrace CA,"21506 Main St, Grand Terrace, California, United States, 92313",+19092190084,,eddie.parsons@equipmentshare.com,,,,,,,,,FALSE,FALSE,2025-03-26T09:45:47.396Z,2025-03-26T09:45:47.396Z
60a6d78997d5e90013d774a2,Equipment Share Inc,,001OJ00000Qo1MvYAJ,Equipment Share - Geneva NY,"33 Forge Ave, Geneva, New York, United States, 14456",+16804448210,,eddie.parsons@equipmentshare.com,,,,,,,,,FALSE,FALSE,2025-03-26T09:45:47.399Z,2025-04-11T17:26:18.599Z
60a6d78997d5e90013d774a2,Equipment Share Inc,,001OJ00000Rsg4QYAR,Equipment Share - North Palm Springs CA,"63665 19th Ave, North Palm Springs, California, United States, 92258",+14422121621,,eddie.parsons@equipmentshare.com,,,,,,,,,FALSE,FALSE,2025-03-26T09:45:47.402Z,2025-03-26T09:45:47.402Z
60a6d78997d5e90013d774a2,Equipment Share Inc,,001OJ00000Rt0PeYAJ,Equipment Share - Madison AL,"250 Royal Dr, Madison, Alabama, United States, 35758",+12565561000,,eddie.parsons@equipmentshare.com,,,,,,,,,FALSE,FALSE,2025-03-26T09:45:47.406Z,2025-04-17T15:36:52.663Z
60a6d78997d5e90013d774a2,Equipment Share Inc,,001OJ00000SZcQTYA1,Skyworks Equipment Rental - Scranton (Olyphant) PA,"950 Underwood Rd, Olyphant, Pennsylvania, United States, 18447",+12722355200,,rental024@skyworksllc.com,,,,,,,,,FALSE,FALSE,2025-03-26T09:45:47.413Z,2025-04-11T20:08:47.997Z
60a6d78997d5e90013d774a2,Equipment Share Inc,,001OJ00000T1e17YAB,Equipment Share - Flint MI,"2501 Lippincott Blvd, Flint, Michigan, United States, 48507",+18107762230,,eddie.parsons@equipmentshare.com,,,,,,,,,FALSE,FALSE,2025-03-26T09:45:47.416Z,2025-05-02T19:33:42.022Z
60a6d78997d5e90013d774a2,Equipment Share Inc,,001OJ00000URNbxYAH,Equipment Share - Hollister CA,"1135 San Felipe Rd, Hollister, California, United States, 95023",+18316238004,,eddie.parsons@equipmentshare.com,,,,,,,,,FALSE,FALSE,2025-04-10T14:25:19.958Z,2025-04-10T14:32:31.151Z
60a6d78997d5e90013d774a2,Equipment Share Inc,,001OJ00000URpJlYAL,Equipment Share - Lacombe LA,"28734 Krentel Rd, Lacombe, Louisiana, United States, 70445",+19852828220,,eddie.parsons@equipmentshare.com,,,,,,,,,FALSE,FALSE,2025-04-10T17:46:38.942Z,2025-04-10T17:47:32.254Z
60a6d78997d5e90013d774a2,Equipment Share Inc,,001OJ00000UnwbBYAR,Equipment Share - Niagara Falls NY,"2181 Lockport Rd, Niagara Falls, New York, United States, 14304",+19035909185,,,,,,,,,,,FALSE,FALSE,2025-04-17T13:42:57.507Z,2025-04-17T13:43:56.456Z
60a6d78997d5e90013d774a2,Equipment Share Inc,,001OJ00000UynsbYAB,Equipment Share - Hurricane UT," Purgatory Rd, Hurricane, Utah, United States, 84737",+14352161449,,,,,,,,,,,FALSE,FALSE,2025-04-21T17:05:52.581Z,2025-04-21T17:06:44.910Z
60a6d78997d5e90013d774a2,Equipment Share Inc,,001OJ00000V9Fh8YAF,Equipment Share - Kannapolis NC,"1411 Dale Earnhardt Blvd, Kannapolis, North Carolina, United States, 28083",+19804996260,,eddie.parsons@equipmentshare.com,,,,,,,,,FALSE,FALSE,2025-04-24T14:01:09.027Z,2025-04-24T14:06:13.565Z
60a6d78997d5e90013d774a2,Equipment Share Inc,,001OJ00000VDI71YAH,Equipment Share - Joliet IL,"4044 McDonough St, Joliet, Illinois, United States, 60431",+17797079398,,eddie.parsons@equipmentshare.com,,,,,,,,,FALSE,FALSE,2025-04-25T15:32:17.724Z,2025-04-25T15:36:45.243Z
60a6d78997d5e90013d774a2,Equipment Share Inc,,001OJ00000VTtk1YAD,Equipment Share - Cartersville GA,"2111 US-411, Cartersville, Georgia, United States, 30121",+14703486696,,,,,,,,,,,FALSE,FALSE,2025-04-30T18:16:27.732Z,2025-04-30T18:16:55.809Z
60a6d78997d5e90013d774a2,Equipment Share Inc,,001OJ00000VXIh4YAH,Equipment Share - Las Vegas (Boulder Hwy) NV,"6037 Boulder Hwy, Las Vegas, Nevada, United States, 89122",+17252498081,,,,,,,,,,,FALSE,FALSE,2025-05-01T17:04:27.614Z,2025-05-01T17:05:17.159Z
60a6d78997d5e90013d774a2,Equipment Share Inc,,682233ed20d8ea001716753e,Equipment Share - Frankfort IL,"9194 Gulfstream Rd, Frankfort, IL 60423, USA",18478460708,eddie.parsons@equipmentshare.com,eddie.parsons@equipmentshare.com,,,,,,,,,FALSE,FALSE,2025-05-12T17:46:21.310Z,2025-05-12T17:46:21.310Z
60a6d78997d5e90013d774a2,Equipment Share Inc,,6825dab95e7fff0016a5be1f,Equipment Share - Logan UT,"1555 N 1000 W, Logan, UT 84321, USA",14355340090,,,,,,,,,,,FALSE,FALSE,2025-05-15T12:14:49.361Z,2025-05-15T12:14:49.361Z
60a6d78997d5e90013d774a2,Equipment Share Inc,,682f155f6edcac0017182e25,Equipment Share - Kountze TX,"1025 N Pine St, Kountze, TX 77625, USA",4092190083,,,,,,,,,,,FALSE,FALSE,2025-05-22T12:15:27.999Z,2025-05-22T12:15:27.999Z
60a6d78997d5e90013d774a2,Equipment Share Inc,,682f335e6edcac0017188a84,Equipment Share - Alachua FL,"20613 N State Rd 121, La Crosse, FL 32658, USA",3524743625,,,,,,,,,,,FALSE,FALSE,2025-05-22T14:23:26.644Z,2025-05-22T14:23:26.644Z
60a6d78997d5e90013d774a2,Equipment Share Inc,,683065ce439d5a0017a896e2,Equipment Share - Santa Maria CA,"2115 Sinton Rd, Santa Maria, CA 93458, USA",8058676777,,,,,,,,,,,FALSE,FALSE,2025-05-23T12:10:54.208Z,2025-05-23T12:10:54.208Z
60a6d78997d5e90013d774a2,Equipment Share Inc,,6835e119b104e60018de271e,Equipment Share - Cibolo TX,"1021 Schneider Dr, Cibolo, TX 78108, USA",18302013334,,,,,,,,,,,FALSE,FALSE,2025-05-27T15:58:17.427Z,2025-05-27T15:58:17.427Z
60a6d78997d5e90013d774a2,Equipment Share Inc,,6838addeb315990018bfb4c0,Equipment Share - Youngsville NC,"94 Cypress Dr, Youngsville, NC 27596, USA",19848840010,,,,,,,,,,,FALSE,FALSE,2025-05-29T18:56:30.805Z,2025-05-29T18:56:30.805Z
60a6d78997d5e90013d774a2,Equipment Share Inc,,68405f70deb1b10018682b1f,Equipment Share - Alexandria LA,"3612 Coliseum Blvd, Alexandria, LA 71303, USA",13184511371,eddie.parsons@equipmentshare.com,eddie.parsons@equipmentshare.com,,,,,,,,,FALSE,FALSE,2025-06-04T15:00:00.468Z,2025-07-21T20:06:33.635Z
60a6d78997d5e90013d774a2,Equipment Share Inc,,6841b2b3deb1b100186a78b4,Equipment Share - Ladson SC,"10179 US-78, Ladson, SC 29456, USA",18434107717,eddie.parsons@equipmentshare.com,eddie.parsons@equipmentshare.com,,,,,,,,,FALSE,FALSE,2025-06-05T15:07:31.130Z,2025-07-21T20:06:40.435Z
60a6d78997d5e90013d774a2,Equipment Share Inc,,684748de4c8ca80017d51cde,Equipment Share - Kennedale TX,"6990 Kennedale Pkwy, Kennedale, TX 76060, USA",16823510150,eddie.parsons@equipmentshare.com,eddie.parsons@equipmentshare.com,,,,,,,,,FALSE,FALSE,2025-06-09T20:49:34.794Z,2025-07-21T20:06:37.083Z
60a6d78997d5e90013d774a2,Equipment Share Inc,,684aecdd4c8ca80017da8dd7,Equipment Share - Lenexa KS,"9600 Dice Ln, Lenexa, KS 66215, USA",19135298680,eddie.parsons@equipmentshare.com,eddie.parsons@equipmentshare.com,,,,,,,,,FALSE,FALSE,2025-06-12T15:06:05.229Z,2025-07-21T20:06:40.150Z
60a6d78997d5e90013d774a2,Equipment Share Inc,,68555e613935e400175bad5c,Equipment Share - Union Gap WA,"1101 Industrial Way, Union Gap, WA 98903, USA",15093178591,eddie.parsons@equipmentshare.com,eddie.parsons@equipmentshare.com,,,,,,,,,FALSE,FALSE,2025-06-20T13:13:05.490Z,2025-07-21T20:06:37.148Z
60a6d78997d5e90013d774a2,Equipment Share Inc,,685d576d1a74570018638f09,Equipment Share - Cleveland TX,"24976 TX-321, Cleveland, TX 77327, USA",19035909185,eddie.parsons@equipmentshare.com,eddie.parsons@equipmentshare.com,,,,,,,,,FALSE,FALSE,2025-06-26T14:21:33.340Z,2025-07-21T20:06:36.793Z
60a6d78997d5e90013d774a2,Equipment Share Inc,,686e8bd61a7457001876e82a,Equipment Share - Grand Prarie TX,"1717 W Shady Grove Rd, Grand Prairie, TX 75050, USA",19727371919,eddie.parsons@equipmentshare.com,eddie.parsons@equipmentshare.com,,,,,,,,,FALSE,FALSE,2025-07-09T15:33:42.899Z,2025-07-21T20:06:40.982Z
60a6d78997d5e90013d774a2,Equipment Share Inc,,686e8c521a7457001876e82b,Equipment Share - Grand Prarie TX,"1717 W Shady Grove Rd, Grand Prairie, TX 75050, USA",19727371919,eddie.parsons@equipmentshare.com,eddie.parsons@equipmentshare.com,,,,,,,,,FALSE,FALSE,2025-07-09T15:35:46.870Z,2025-07-21T20:06:39.372Z
60a6d78997d5e90013d774a2,Equipment Share Inc,,686e8d491a7457001876e82c,Equipment Share - Grand Prairie TX,"1717 W Shady Grove Rd, Grand Prairie, TX 75050, USA",19727371919,eddie.parsons@equipmentshare.com,eddie.parsons@equipmentshare.com,,,,,,,,,FALSE,FALSE,2025-07-09T15:39:53.801Z,2025-07-21T20:06:34.010Z
60a6d78997d5e90013d774a2,Equipment Share Inc,,686e91301a7457001876e82d,Equipment Share - Grand Prairie TX,"1717 W Shady Grove Rd, Grand Prairie, TX 75050, USA",19727371919,eddie.parsons@equipmentshare.com,eddie.parsons@equipmentshare.com,,,,,,,,,FALSE,FALSE,2025-07-09T15:56:32.128Z,2025-07-21T20:06:37.970Z
60a6d78997d5e90013d774a2,Equipment Share Inc,,68793b859afed90017d2d63c,Equipment Share - Atlanta (Morrow) GA,"1690 Forest Pkwy, Morrow, GA 30260, USA",19727371919,eddie.parsons@equipmentshare.com,eddie.parsons@equipmentshare.com,,07:00-17:00,07:00-17:00,07:00-17:00,07:00-17:00,07:00-17:00,,,FALSE,FALSE,2025-07-17T18:05:57.762Z,2025-07-17T18:05:57.762Z
60a6d78997d5e90013d774a2,Equipment Share Inc,,687a6c039afed90017d46945,Equipment Share - Bakersfield CA,"2111 Bricyn Ln, Bakersfield, CA 93308, USA",16616249656,eddie.parsons@equipmentshare.com,eddie.parsons@equipmentshare.com,,07:00-17:00,07:00-17:00,07:00-17:00,07:00-17:00,07:00-17:00,,,FALSE,FALSE,2025-07-18T15:45:07.267Z,2025-07-18T15:45:07.267Z
60a6d78997d5e90013d774a2,Equipment Share Inc,,689a44a9d67487001749e940,Equipment Share -Hobbs NM,"3215 N Enterprise Dr, Hobbs, NM 88240, USA",15756659400,eddie.parsons@equipmentshare.com,eddie.parsons@equipmentshare.com,,07:00-17:00,07:00-17:00,07:00-17:00,07:00-17:00,07:00-17:00,,,FALSE,FALSE,2025-08-11T19:29:45.328Z,2025-08-11T19:29:45.328Z
60a6d78997d5e90013d774a2,Equipment Share Inc,,68a46cc4bbfb200017c9e07f,Equipment Share - Temecula CA,"43169 Va Dos Picos, Temecula, CA 92590, USA",19514662490,eddie.parsons@equipmentshare.com,eddie.parsons@equipmentshare.com,,07:00-17:00,07:00-17:00,07:00-17:00,07:00-17:00,07:00-17:00,,,FALSE,FALSE,2025-08-19T12:23:32.438Z,2025-08-19T12:23:32.438Z
60a6d78997d5e90013d774a2,Equipment Share Inc,,68a48d6ebbfb200017ca3c76,Equipment Share - Brookshire TX,"2875 Woods Rd, Brookshire, TX 77423, USA",13465732674,eddie.parsons@equipmentshare.com,eddie.parsons@equipmentshare.com,,07:00-17:00,07:00-17:00,07:00-17:00,07:00-17:00,07:00-17:00,,,FALSE,FALSE,2025-08-19T14:42:54.376Z,2025-08-19T14:42:54.376Z
60a6d78997d5e90013d774a2,Equipment Share Inc,,68af0446c0444700197b7fe9,Equipment Share - Helena MT,"1500 Blaine St, Helena, MT 59601, USA",14064389790,eddie.parsons@equipmentshare.com,eddie.parsons@equipmentshare.com,,07:00-17:00,07:00-17:00,07:00-17:00,07:00-17:00,07:00-17:00,,,FALSE,FALSE,2025-08-27T13:12:38.090Z,2025-08-27T13:12:38.090Z
60a6d78997d5e90013d774a2,Equipment Share Inc,,68b08ef3c0444700197e3c01,Equipment Share - Elgin TX,"9511 Brown Ln, Austin, TX 78754, USA",17373135560,eddie.parsons@equipmentshare.com,eddie.parsons@equipmentshare.com,,07:00-17:00,07:00-17:00,07:00-17:00,07:00-17:00,07:00-17:00,,,FALSE,FALSE,2025-08-28T17:16:35.449Z,2025-08-28T17:16:35.449Z
60a6d78997d5e90013d774a2,Equipment Share Inc,,68b6ed74c04447001983c661,Equipment Share - Camp Hill PA,"2875 Appleton St, Camp Hill, PA 17011, USA",17173035740,eddie.parsons@equipmentshare.com,eddie.parsons@equipmentshare.com,,07:00-17:00,07:00-17:00,07:00-17:00,07:00-17:00,07:00-17:00,,,FALSE,FALSE,2025-09-02T13:13:24.809Z,2025-09-02T13:13:24.809Z
60a6d78997d5e90013d774a2,Equipment Share Inc,,68b9a644c6d9460019599769,Equipment Share - Trotwood OH,"2 Stratacache Wy, Trotwood, OH 45426, USA",19379771460,eddie.parsons@equipmentshare.com,eddie.parsons@equipmentshare.com,,07:00-17:00,07:00-17:00,07:00-17:00,07:00-17:00,07:00-17:00,,,FALSE,FALSE,2025-09-04T14:46:28.812Z,2025-09-04T14:46:28.812Z
60a6d78997d5e90013d774a2,Equipment Share Inc,,68bb1fd801b61f0017f8f76b,Equipment Share - Victorville CA,"18173 Osborne Rd, Victorville, CA 92394, USA",14422193800,eddie.parsons@equipmentshare.com,eddie.parsons@equipmentshare.com,,07:00-17:00,07:00-17:00,07:00-17:00,07:00-17:00,07:00-17:00,,,FALSE,FALSE,2025-09-05T17:37:28.958Z,2025-09-05T17:37:28.958Z