supplierId,supplierName,erpId,branchId,branchName,branchAddress,branchPhoneNumber,branchEmailAddress,omsEmailAddresses,omsPhoneNumbers,hoursMonday,hoursTuesday,hoursWednesday,hoursThursday,hoursFriday,hoursSaturday,hoursSunday,omsEnabled,isDeleted,createdDate,lastModifiedDate
5cc1d8df8e6b63e7728fdc52,Herc Rentals,,0014100001RbqYLAAZ,Herc Rentals (9422) - Kansas City MO,"707 East 16th Street, Kansas City, Missouri, United States, 64108",+18164764915,,"bryce.corrigan@hercrentals.com,nik.krewetrojas@hercrentals.com,chandler.bevans@hercrentals.com,jovany.soto@hercrentals.com,alexis.sampson@hercrentals.com",,,,,,,,,FALSE,FALSE,2025-03-26T09:45:37.297Z,2025-03-26T09:45:37.297Z
5cc1d8df8e6b63e7728fdc52,Herc Rentals,,0014100001SdD2BAAV,Herc Rentals (9321) - Charlotte NC,"4429 Equipment Drive, Charlotte, North Carolina, United States, 28269",704-598-0241,seth.harrill@hercrentals.com,desmond.mitchell@hercrentals.com,,,,,,,,,TRUE,FALSE,2025-03-26T09:45:37.433Z,2025-04-30T20:39:44.483Z
5cc1d8df8e6b63e7728fdc52,Herc Rentals,,0014100001SdH3UAAV,Herc Rentals (9331) - North Charleston SC,"6445 Fain Boulevard, North Charleston, South Carolina, United States, 29406",843-572-5904,,"brandon.nance@hercrentals.com,connor.ogilvie@hercrentals.com",,,,,,,,,FALSE,FALSE,2025-03-26T09:45:36.728Z,2025-03-26T09:45:36.728Z
5cc1d8df8e6b63e7728fdc52,Herc Rentals,,0014100001SdEkeAAF,Herc Rentals (9508) - Enid OK,"1702 North Van Buren Street, Enid, Oklahoma, United States, 73703",580-234-7368,,jeffery.caffey@hercrentals.com,,,,,,,,,FALSE,FALSE,2025-03-26T09:45:37.366Z,2025-03-26T14:44:54.775Z
5cc1d8df8e6b63e7728fdc52,Herc Rentals,,0011K00002L3drrQAB,Herc Rentals (9328) - Winterville NC,,+12527468911,kelsey.williams@hercrentals.com,"kelsey.williams@hercrentals.com,bryan.oliver@hercrentals.com,bailey.connors@hercrentals.com",,,,,,,,,FALSE,FALSE,2025-03-25T20:00:09.915Z,2025-03-25T20:00:09.915Z
5cc1d8df8e6b63e7728fdc52,Herc Rentals,,0014100000ANBoYAAX,Herc Rentals (8541) - High River AB,"2015 10 Avenue Southeast, High River, Alberta, Canada, T1V 2A6",+14036036350,travis.grant@hercrentals.com,"travis.grant@hercrentals.com,etoste@dozr.com",,,,,,,,,TRUE,FALSE,2025-03-26T09:45:36.700Z,2025-03-26T09:45:36.700Z
5cc1d8df8e6b63e7728fdc52,Herc Rentals,,0014100000ANBWZAA5,Herc Rentals (8225) - Prosolutions - Etobicoke ON,"35 Clairville Road, Etobicoke, Ontario, Canada",1-416-679-4180,,"gtacentralorders@hercrentals.com,ffilipi@dozr.com",,,,,,,,,FALSE,FALSE,2025-03-26T09:45:36.704Z,2025-03-26T09:45:36.704Z
5cc1d8df8e6b63e7728fdc52,Herc Rentals,,0014100000FB0k8AAD,Herc (Rapid) - Hamilton ON,"35 Covington Street, Hamilton, Ontario, Canada, L8E 2Y4",416-638-7007,info@rapid-rents.com,info@rapid-rents.com,,,,,,,,,FALSE,FALSE,2025-03-26T09:45:36.708Z,2025-03-26T09:45:36.708Z
5cc1d8df8e6b63e7728fdc52,Herc Rentals,,0014100000oyRo0AAE,Herc Rentals (9588) - Dania Beach FL,"3251 Southwest 26th Terrace, Fort Lauderdale, Florida, United States, 33312",+19543357683,blake.davis@hercrentals.com,"karissa.leon@hercrentals.com,serenatea.hernandez@hercrentals.com",(352)-431-8712,,,,,,,,FALSE,FALSE,2025-03-26T09:45:36.711Z,2025-03-26T09:45:36.711Z
5cc1d8df8e6b63e7728fdc52,Herc Rentals,,0014100001JZ2CPAA1,Herc Rentals - Ormond Beach FL,"874 S. Nova Rd., Ormond Beach, Florida, United States, 32174",(386) 252-8296,,,,,,,,,,,FALSE,FALSE,2025-03-26T09:45:36.714Z,2025-03-26T09:45:36.714Z
5cc1d8df8e6b63e7728fdc52,Herc Rentals,,0014100001SdGrVAAV,Herc Rentals (9330) - Columbia SC,"125 Cort Road, Columbia, South Carolina, United States, 29203",+18037862900,daniel.seay@hercrentals.com,"daniel.seay@hercrentals.com,ffilipi@dozr.com,andrew.sandersii@hercrentals.com",,,,,,,,,FALSE,FALSE,2025-03-26T09:45:36.718Z,2025-03-26T09:45:36.718Z
5cc1d8df8e6b63e7728fdc52,Herc Rentals,,0014100001SdKV4AAN,Herc Rentals (9307) - Knoxville TN,"2804 John Deere Drive, Knoxville, Tennessee, United States, 37917",865-546-3700,,"billy.gibson@hercrentals.com,tristen.key@hercrentals.com",,,,,,,,,FALSE,FALSE,2025-03-26T09:45:36.721Z,2025-03-26T09:45:36.721Z
5cc1d8df8e6b63e7728fdc52,Herc Rentals,,0014100001SdH1nAAF,Herc Rentals (9316) - Myrtle Beach SC,"4805 U.S. 501, Myrtle Beach, South Carolina, United States, 29579",843-236-2369,sam.porter1@hercrentals.com,"zane.ahmed@hercrentals.com,dylan.beaulieu@hercrentals.com",,,,,,,,,FALSE,FALSE,2025-03-26T09:45:36.725Z,2025-03-26T09:45:36.725Z
5cc1d8df8e6b63e7728fdc52,Herc Rentals,,0014100001SdH9hAAF,Herc Rentals (9306) - Chattanooga TN,"1913 East 24th Street Place, Chattanooga, Tennessee, United States, 37404",423-624-6955,,"ashley.meekins@hercrentals.com,blake.hall@hercrentals.com,libby.blair@hercrentals.com",,,,,,,,,FALSE,FALSE,2025-03-26T09:45:36.732Z,2025-03-26T09:45:36.732Z
5cc1d8df8e6b63e7728fdc52,Herc Rentals,,0014100001SdGxbAAF,Herc Rentals (9322) - Greer SC,"302 East Frontage Road, Greer, South Carolina, United States, 29651",864-877-1806,,"nick.thompson1@hercrentals.com,howard.wood@hercrentals.com,braden.goodman@hercrentals.com,josh.bannister@hercrentals.com",,,,,,,,,FALSE,FALSE,2025-03-26T09:45:36.735Z,2025-03-26T09:45:36.735Z
5cc1d8df8e6b63e7728fdc52,Herc Rentals,,0014100001SdKZ5AAN,Herc Rentals (9201) - Memphis TN,"287 East Brooks Road, Memphis, Tennessee, United States, 38109",901-398-4372,,"justin.degroff@hercrentals.com,dawn.judkins@hercrentals.com,bradley.starnes@hercrentals.com",,,,,,,,,FALSE,FALSE,2025-03-26T09:45:36.739Z,2025-03-26T09:45:36.739Z
5cc1d8df8e6b63e7728fdc52,Herc Rentals,,0014100001SdGgvAAF,Herc Rentals (9163) - Philadelphia PA,"6951 Norwitch Drive, Philadelphia, Pennsylvania, United States, 19153",215-749-1290,,,,,,,,,,,FALSE,FALSE,2025-03-26T09:45:36.742Z,2025-03-26T09:45:36.742Z
5cc1d8df8e6b63e7728fdc52,Herc Rentals,,0014100001SdKbzAAF,Herc Rentals (9309) - Nashville TN,"1320 Murfreesboro Pike, Nashville, Tennessee, United States, 37217",615-365-8888,taylor.lindemann@hercrentals.com,"landon.wylie@hercrentals.com,roxy.chase@hercrentals.com,eric.windell@hercrentals.com,patrick.ryan@hercrentals.com,cole.kreilein@hercrentals.com",,,,,,,,,FALSE,FALSE,2025-03-26T09:45:36.750Z,2025-03-26T09:45:36.750Z
5cc1d8df8e6b63e7728fdc52,Herc Rentals,,0014100001SdKkSAAV,Herc Rentals (9419) - Austin TX,"3737 Airport Boulevard, Austin, Texas, United States, 78722",512-472-5038,,"brandon.blum@hercrentals.com,jeremy.davis@hercrentals.com,ignacio.garcia@hercrentals.com",,,,,,,,,FALSE,FALSE,2025-03-26T09:45:36.754Z,2025-03-26T09:45:36.754Z
5cc1d8df8e6b63e7728fdc52,Herc Rentals,,0014100001SdLRgAAN,Herc Rentals (9481) - Dallas TX,"10966 Harry Hines Boulevard, Dallas, Texas, United States, 75220",214-352-4891,,"rolando.figueroa@hercrentals.com,brad.pickett@hercrentals.com,dallasbranchcounter@hercrentals.com",,,,,,,,,FALSE,FALSE,2025-03-26T09:45:36.757Z,2025-03-26T09:45:36.757Z
5cc1d8df8e6b63e7728fdc52,Herc Rentals,,0014100001SdKmdAAF,Herc Rentals (9417) - Beaumont TX,"6325 Texas 347, Beaumont, Texas, United States, 77705",409-727-1390,,,,,,,,,,,FALSE,FALSE,2025-03-26T09:45:36.761Z,2025-03-26T09:45:36.761Z
5cc1d8df8e6b63e7728fdc52,Herc Rentals,,0014100001SdLKtAAN,Herc Rentals (9409) - Conroe TX,"777 North Freeway Service Road, Conroe, Texas, United States, 77304",936-441-0501,,"amber.reyesperez@hercrentals.com,armando.ramirez@hercrentals.com,houcentralres@hercrentals.com",,,,,,,,,FALSE,FALSE,2025-03-26T09:45:36.764Z,2025-03-26T09:45:36.764Z
5cc1d8df8e6b63e7728fdc52,Herc Rentals,,0014100001SdLNEAA3,"Herc Rentals (9411) - Corpus Christi, TX","313 South Padre Island Drive, Corpus Christi, Texas, United States, 78405",361-289-1204,,"brenda.kleven@hercrentals.com,mj.hinojosa@hercrentals.com",,,,,,,,,FALSE,FALSE,2025-03-26T09:45:36.768Z,2025-03-26T09:45:36.768Z
5cc1d8df8e6b63e7728fdc52,Herc Rentals,,0014100001SdLDxAAN,Herc Rentals (9479) - Clute TX,"531 Brazosport Boulevard South, Clute, Texas, United States, 77531",979-265-4060,,jeffory.patterson@hercrentals.com,,,,,,,,,FALSE,FALSE,2025-03-26T09:45:36.772Z,2025-03-26T09:45:36.772Z
5cc1d8df8e6b63e7728fdc52,Herc Rentals,,0014100001SdLg4AAF,Herc Rentals (9403) - El Paso TX,"830 Pendale Road, El Paso, Texas, United States, 79907",915-590-9399,,adrian.gonzalez@hercrentals.com,,,,,,,,,FALSE,FALSE,2025-03-26T09:45:36.775Z,2025-03-26T09:45:36.775Z
5cc1d8df8e6b63e7728fdc52,Herc Rentals,,0014100001SdMLGAA3,Herc Rentals (9615) - West Valley UT,"2120 3600 West, West Valley City, Utah, United States, 84119",801-977-9944,,kyle.mackay@hercrentals.com,,,,,,,,,FALSE,FALSE,2025-03-26T09:45:36.779Z,2025-03-26T09:45:36.779Z
5cc1d8df8e6b63e7728fdc52,Herc Rentals,,0014100001SdLkfAAF,Herc Rentals (9463) - Fort Worth TX,"3299 North Freeway, Fort Worth, Texas, United States, 76106",+18176255521,,"cade.spraggins@hercrentals.com,alex.garcia@hercrentals.com,fank.taylor@hercrentals.com,john.thompson@hercrentals.com,braedon.singleton@hercrentals.com",,,,,,,,,FALSE,FALSE,2025-03-26T09:45:36.782Z,2025-03-26T09:45:36.782Z
5cc1d8df8e6b63e7728fdc52,Herc Rentals,,0014100001SdMfLAAV,Herc Rentals (9155) - Gainesville VA,"5529 Wellington Road, Gainesville, Virginia, United States, 20155",703-753-9494,,gainesvillecounter@hercrentals.com,,,,,,,,,FALSE,FALSE,2025-03-26T09:45:36.785Z,2025-03-26T09:45:36.785Z
5cc1d8df8e6b63e7728fdc52,Herc Rentals,,0014100001SdNeFAAV,Herc Rentals (9120) - Virginia Beach VA,"716 South Military Highway, Virginia Beach, Virginia, United States, 23464",757-424-2110,,"frank.morgan@hercrentals.com,dylan.mclaughlin@hercrentals.com",,,,,,,,,FALSE,FALSE,2025-03-26T09:45:36.789Z,2025-03-26T09:45:36.789Z
5cc1d8df8e6b63e7728fdc52,Herc Rentals,,0014100001SdLazAAF,Herc Rentals (9504) - Denton TX,"4637 West University Drive, Denton, Texas, United States, 76207",940-484-5288,,"adam.melton@hercrentals.com,matthew.english@hercrentals.com",,,,,,,,,FALSE,FALSE,2025-03-26T09:45:36.793Z,2025-03-26T09:45:36.793Z
5cc1d8df8e6b63e7728fdc52,Herc Rentals,,0014100001SdLmvAAF,Herc Rentals (9412) - Houston TX,"6230 South Loop East Freeway, Houston, Texas, United States, 77087",713-641-2391,,"houcentralres@hercrentals.com,armando.ramirez@hercrentals.com,brandon.blum@hercrentals.com",,,,,,,,,FALSE,FALSE,2025-03-26T09:45:36.796Z,2025-03-26T09:45:36.796Z
5cc1d8df8e6b63e7728fdc52,Herc Rentals,,0014100001SdM4kAAF,Herc Rentals (9449) - Midland TX,"8282 Interstate 20, Midland, United States",432-563-0361,mmejia@hercrentals.com,"colten.smith@hercrentals.com,jessica.vidrine@hercrentals.com",,,,,,,,,FALSE,FALSE,2025-03-26T09:45:36.799Z,2025-03-26T09:45:36.799Z
5cc1d8df8e6b63e7728fdc52,Herc Rentals,,0014100001SdOefAAF,Herc Rentals (9781) - Seattle WA,"4233 Leary Way Northwest, Seattle, Washington, United States, 98107",206-782-4200,,alvy.fernandezsantiago@hercrentals.com,,,,,,,,,FALSE,FALSE,2025-03-26T09:45:36.802Z,2025-03-26T09:45:36.802Z
5cc1d8df8e6b63e7728fdc52,Herc Rentals,,0014100001SdOiDAAV,Herc Rentals (9126) - South Charleston WV,"1000 Kramer Street, Charleston, West Virginia, United States, 25309",304-744-7368,,"joshua.bellew@hercrentals.com,erin.bigham@hercrentals.com",,,,,,,,,FALSE,FALSE,2025-03-26T09:45:36.806Z,2025-03-26T09:45:36.806Z
5cc1d8df8e6b63e7728fdc52,Herc Rentals,,0014100001SdMlYAAV,Herc Rentals (9160) - Richmond VA,"9300 Burge Avenue, Richmond, Virginia, United States, 23237",804-271-6473,,"david.hensley@hercrentals.com,kyle.vince@hercrentals.com,virgniabeachsalescoordinators@hercrentals.onmicrosoft.com",,,,,,,,,FALSE,FALSE,2025-03-26T09:45:36.810Z,2025-03-26T09:45:36.810Z
5cc1d8df8e6b63e7728fdc52,Herc Rentals,,0014100001SdLvYAAV,Herc Rentals (9410) - La Feria TX,"1801 West Expressway 83, La Feria, Texas, United States, 78559",956-797-4747,,carlos.rios@hercrentals.com,,,,,,,,,FALSE,FALSE,2025-03-26T09:45:36.813Z,2025-03-26T09:45:36.813Z
5cc1d8df8e6b63e7728fdc52,Herc Rentals,,0014100001SdOM7AAN,Herc Rentals (9719) - Burlington WA,"685 Fisher Lane, Burlington, Washington, United States, 98233",360-707-5571,,ryan.morton@hercrentals.com,,,,,,,,,FALSE,FALSE,2025-03-26T09:45:36.817Z,2025-03-26T09:45:36.817Z
5cc1d8df8e6b63e7728fdc52,Herc Rentals,,0014100001SdNhdAAF,Herc Rentals (9156) - Sterling VA,"23745 Pebble Run Place, Sterling, Virginia, United States, 20166",703-996-1415,,"bryce.hunsucker@hercrentals.com,adam.veverka@hercrentals.com",,,,,,,,,FALSE,FALSE,2025-03-26T09:45:36.820Z,2025-03-26T09:45:36.820Z
5cc1d8df8e6b63e7728fdc52,Herc Rentals,,0014100001SdOkxAAF,Herc Rentals (9141) - Oak Creek WI,"950 West Rawson Avenue, Oak Creek, Wisconsin, United States, 53154",414-768-1811,,9141_milwaukee@hercrentals.com,,,,,,,,,FALSE,FALSE,2025-03-26T09:45:36.824Z,2025-03-26T09:45:36.824Z
5cc1d8df8e6b63e7728fdc52,Herc Rentals,,0014100001SdNagAAF,Herc Rentals (9125) - Roanoke VA,"2315 Patterson Avenue Southwest, Roanoke, Virginia, United States, 24016",540-982-0005,,"danny.mcpeak@hercrentals.com,gary.gravely@hercrentals.com",,,,,,,,,FALSE,FALSE,2025-03-26T09:45:36.827Z,2025-03-26T09:45:36.827Z
5cc1d8df8e6b63e7728fdc52,Herc Rentals,,0014100001SdOFGAA3,Herc Rentals (9712) - Bellevue WA,"13200 Bel-Red Road, Bellevue, Washington, United States, 98005",425-453-4045,,,,,,,,,,,FALSE,FALSE,2025-03-26T09:45:36.831Z,2025-03-26T09:45:36.831Z
5cc1d8df8e6b63e7728fdc52,Herc Rentals,,0014100001SdMPIAA3,Herc Rentals (9401) - Orem UT,"840 Industrial Park Road, Orem, Utah, United States, 84057",801-226-1392,,rachel.walker@hercrentals.com,,,,,,,,,FALSE,FALSE,2025-03-26T09:45:36.835Z,2025-03-26T09:45:36.835Z
5cc1d8df8e6b63e7728fdc52,Herc Rentals,,0014100001SdONoAAN,Herc Rentals (9714) - Everett WA,"3516 McDougall Avenue, Everett, Washington, United States, 98201",425-303-6900,,,,,,,,,,,FALSE,FALSE,2025-03-26T09:45:36.838Z,2025-03-26T09:45:36.838Z
5cc1d8df8e6b63e7728fdc52,Herc Rentals,,0014100001SdOanAAF,Herc Rentals (9721) - Seattle WA,"5055 4th Avenue South, Seattle, Washington, United States, 98134",206-934-5700,,,,,,,,,,,FALSE,FALSE,2025-03-26T09:45:36.842Z,2025-03-26T09:45:36.842Z
5cc1d8df8e6b63e7728fdc52,Herc Rentals,,0014100001SdOXAAA3,Herc Rentals (9711) - Richland WA,"266 Wellsian Way, Richland, Washington, United States, 99352",509-943-1163,,kennis.catt@hercrentals.com,,,,,,,,,FALSE,FALSE,2025-03-26T09:45:36.845Z,2025-03-26T09:45:36.845Z
5cc1d8df8e6b63e7728fdc52,Herc Rentals,,0014100001SdM9zAAF,Herc Rentals (9407) - Texas City TX,"102 Texas 146 N, Texas City, Texas, United States, 77590",409-945-5131,,,,,,,,,,,FALSE,FALSE,2025-03-26T09:45:36.850Z,2025-03-26T09:45:36.850Z
5cc1d8df8e6b63e7728fdc52,Herc Rentals,,0014100001SdM7FAAV,Herc Rentals (9416) - San Antonio TX,"668 North Ww White Road, San Antonio, Texas, United States, 78219",210-661-4281,louis.flores@hercrentals.com,"louis.flores@hercrentals.com,juan.guevara@hercrentals.com,roberto.gamez@hercrentals.com,mj.hinojosa@hercrentals.com,pedro.borrayo@hercrentals.com,brian.pruski@hercrentals.com",,,,,,,,,FALSE,FALSE,2025-03-26T09:45:36.854Z,2025-04-29T14:50:19.014Z
5cc1d8df8e6b63e7728fdc52,Herc Rentals,,0014100001SdOPVAA3,Herc Rentals (9722) - Fife WA,"4403 20th Street East, Fife, Washington, United States, 98424",253-922-3852,,,,,,,,,,,FALSE,FALSE,2025-03-26T09:45:36.857Z,2025-03-26T09:45:36.857Z
5cc1d8df8e6b63e7728fdc52,Herc Rentals,,0014100001SdOGnAAN,Herc Rentals (9769) - Bellingham WA,"1840 North State Street, Bellingham, Washington, United States, 98225",360-734-2900,,,,,,,,,,,FALSE,FALSE,2025-03-26T09:45:36.861Z,2025-03-26T09:45:36.861Z
5cc1d8df8e6b63e7728fdc52,Herc Rentals,,0014100001SdOSoAAN,Herc Rentals (9710) - Olympia WA,"9404 Kimmie Street Southwest, Olympia, Washington, United States, 98512",360-491-9424,,bradley.stephens@hercrentals.com,,,,,,,,,FALSE,FALSE,2025-03-26T09:45:36.864Z,2025-03-26T09:45:36.864Z
5cc1d8df8e6b63e7728fdc52,Herc Rentals,,0014100001SdOmZAAV,Herc Rentals (9601) - Cheyenne WY,"707 East Fox Farm Road, Cheyenne, United States",307-635-1255,,"michael.quintal@hercrentals.com,amanda.evans@hercrentals.com,hanna.foster@hercrentals.com",,,,,,,,,FALSE,FALSE,2025-03-26T09:45:36.868Z,2025-03-26T09:45:36.868Z
5cc1d8df8e6b63e7728fdc52,Herc Rentals,,0014100001SexpYAAR,Herc Rentals (8577) - Calgary AB,"4747 25 Street Southeast, Calgary, Alberta, Canada, T2B 3R9",403-287-9494,,,,,,,,,,,FALSE,FALSE,2025-03-26T09:45:36.871Z,2025-03-26T09:45:36.871Z
5cc1d8df8e6b63e7728fdc52,Herc Rentals,,0014100001SexgvAAB,Herc Rentals (8516) - Bonnyville AB,"Unit #103 7301 50 Avenue, Bonnyville, Alberta, Canada, T9N 2P3",780-812-3433,,,,,,,,,,,FALSE,FALSE,2025-03-26T09:45:36.874Z,2025-03-26T09:45:36.874Z
5cc1d8df8e6b63e7728fdc52,Herc Rentals,,0014100001SexrUAAR,Herc Rentals (8505) - Edmonton AB,"8660 61 Avenue Northwest, Edmonton, Alberta, Canada, T6E 5P6",780-435-3711,,tony.grandison@hercrentals.com,,,,,,,,,FALSE,FALSE,2025-03-26T09:45:36.878Z,2025-03-26T09:45:36.878Z
5cc1d8df8e6b63e7728fdc52,Herc Rentals,,0014100001SexefAAB,Herc Rentals (8529) - Anzac AB,"118 Gilmore Drive, Anzac, Alberta, Canada, T0P 1J0",780-334-2024,,,,,,,,,,,FALSE,FALSE,2025-03-26T09:45:36.881Z,2025-03-26T09:45:36.881Z
5cc1d8df8e6b63e7728fdc52,Herc Rentals,,0014100001Sexm5AAB,Herc Rentals (8506) - Calgary AB,"116 Meridian Road Southeast, Calgary, Alberta, Canada, T2A 1X2",403-248-5414,,,,,,,,,,,FALSE,FALSE,2025-03-26T09:45:36.885Z,2025-03-26T09:45:36.885Z
5cc1d8df8e6b63e7728fdc52,Herc Rentals,,0014100001SexnNAAR,Herc Rentals (8513) - Calgary AB,"4398 112 Avenue Southeast, Calgary, Alberta, Canada, T2C 2K2",+14032879494,,,,,,,,,,,FALSE,FALSE,2025-03-26T09:45:36.888Z,2025-03-26T09:45:36.888Z
5cc1d8df8e6b63e7728fdc52,Herc Rentals,,0014100001SexwoAAB,Herc Rentals (8520) - Edmonton AB,"7905 50 Street Northwest, Edmonton, Alberta, Canada, T6B 1E5",780-465-2100,acmlestimating@aecon.com,"tony.grandison@hercrentals.com,anthony.baxter@hercrentals.com",,,,,,,,,FALSE,FALSE,2025-03-26T09:45:36.891Z,2025-03-26T09:45:36.891Z
5cc1d8df8e6b63e7728fdc52,Herc Rentals,,0014100001SexkTAAR,Herc Rentals (8504) - Calgary AB,"4747 25 Street Southeast, Calgary, Alberta, Canada, T2B 3R9",403-287-9065,,"herccalgary@hercrentals.com,ffilipi@dozr.com",,,,,,,,,FALSE,FALSE,2025-03-26T09:45:36.895Z,2025-03-26T09:45:36.895Z
5cc1d8df8e6b63e7728fdc52,Herc Rentals,,0014100001Sey3aAAB,Herc Rentals (8533) - Edmonton AB,"8801 24 Street Northwest, Edmonton, Alberta, Canada, T6E 1L2",780-400-0998,,,,,,,,,,,FALSE,FALSE,2025-03-26T09:45:36.899Z,2025-03-26T09:45:36.899Z
5cc1d8df8e6b63e7728fdc52,Herc Rentals,,0014100001Sey8LAAR,Herc Rentals (8502) - Fort McMurray AB,"105 Mackay Crescent, Fort McMurray, Alberta, Canada, T9H 4C9",780-743-6233,,,,,,,,,,,FALSE,FALSE,2025-03-26T09:45:36.902Z,2025-03-26T09:45:36.902Z
5cc1d8df8e6b63e7728fdc52,Herc Rentals,,0014100001SeyJ9AAJ,Herc Rentals (8518) - Peace River AB,"8121 74 Street, Peace River, Alberta, Canada, T8S 0A5",780-624-2929,,,,,,,,,,,FALSE,FALSE,2025-03-26T09:45:36.907Z,2025-03-26T09:45:36.907Z
5cc1d8df8e6b63e7728fdc52,Herc Rentals,,0014100001SeyPbAAJ,Herc Rentals (8507) -  Surrey BC,"12135 86 Avenue, Surrey, British Columbia, Canada, V3W 3H8",604-599-7368,vinay.chand@hercrentals.com,"mike.wait@hercrentals.com,jason.ely@hercrentals.com",,,,,,,,,FALSE,FALSE,2025-03-26T09:45:36.910Z,2025-03-26T09:45:36.910Z
5cc1d8df8e6b63e7728fdc52,Herc Rentals,,0014100001Sey5gAAB,Herc Rentals (8578) - Edmonton AB,"8660 61 Avenue Northwest, Edmonton, Alberta, Canada, T6E 5P6",780-435-3711,,"tony.grandison@hercrentals.com,anthony.baxter@hercrentals.com",,,,,,,,,FALSE,FALSE,2025-03-26T09:45:36.917Z,2025-03-26T09:45:36.917Z
5cc1d8df8e6b63e7728fdc52,Herc Rentals,,0014100001Sey1ZAAR,Herc Rentals (8532) - Edmonton AB,"8801 24 Street Northwest, Edmonton, Alberta, Canada, T6E 1L2",780-400-0997,,"errorderdesk@hercrentals.com,ffilipi@dozr.com",,,,,,,,,FALSE,FALSE,2025-03-26T09:45:36.921Z,2025-03-26T09:45:36.921Z
5cc1d8df8e6b63e7728fdc52,Herc Rentals,,0014100001SeyEsAAJ,Herc Rentals (8513) - Grande Prairie AB,"10801 78 Avenue, Grande Prairie, Alberta, Canada, T8W 2L2",780-538-9499,,,,,,,,,,,FALSE,FALSE,2025-03-26T09:45:36.925Z,2025-03-26T09:45:36.925Z
5cc1d8df8e6b63e7728fdc52,Herc Rentals,,0014100001SeyGoAAJ,Herc Rentals (8576) - Hinton AB,"113 King Street, Hinton, Alberta, Canada, T7V 1G7",780-740-0236,,,,,,,,,,,FALSE,FALSE,2025-03-26T09:45:36.929Z,2025-03-26T09:45:36.929Z
5cc1d8df8e6b63e7728fdc52,Herc Rentals,,0014100001SeyLKAAZ,Herc Rentals (8501) - Red Deer AB,"7899 Gaetz Avenue, Red Deer, Alberta, Canada, T4P 2S4",403-342-7220,,"cody.rochon@hercrentals.com,ffilipi@dozr.com",,,,,,,,,FALSE,FALSE,2025-03-26T09:45:36.932Z,2025-03-26T09:45:36.932Z
5cc1d8df8e6b63e7728fdc52,Herc Rentals,,0014100001SeyCIAAZ,Herc Rentals (8530) - Fort Saskatchewan AB,"88 Avenue, Fort Saskatchewan, Alberta, Canada, T8L 3W5",780-992-7218,,"larry.gustafson@hercrentals.com,robin.wilkie@hercrentals.com",,,,,,,,,FALSE,FALSE,2025-03-26T09:45:36.936Z,2025-03-26T09:45:36.936Z
5cc1d8df8e6b63e7728fdc52,Herc Rentals,,0014100001SeyNLAAZ,Herc Rentals (8521) - Whitecourt AB,"5221 59 Street, Whitecourt, Alberta, Canada, T7S 1N9",780-778-4411,,,,,,,,,,,FALSE,FALSE,2025-03-26T09:45:36.939Z,2025-03-26T09:45:36.939Z
5cc1d8df8e6b63e7728fdc52,Herc Rentals,,0014100001Sez4aAAB,Herc Rentals (8239) - Goderich ON,"561 Bayfield Road, Goderich, Ontario, Canada, N7A 3X8",519-440-5942,,,,,,,,,,,FALSE,FALSE,2025-03-26T09:45:36.943Z,2025-03-26T09:45:36.943Z
5cc1d8df8e6b63e7728fdc52,Herc Rentals,,0014100001SeybOAAR,Herc Rentals (8510) - Winnipeg MB,"1600 Gamble Place, Winnipeg, Manitoba, Canada, R3T 3L7",204-488-4929,,,,,,,,,,,FALSE,FALSE,2025-03-26T09:45:36.947Z,2025-03-26T09:45:36.947Z
5cc1d8df8e6b63e7728fdc52,Herc Rentals,,0014100001SezWAAAZ,Herc Rentals (8204) - Ottawa ON,"860 Belfast Road, Ottawa, Ontario, Canada, K1G 0Z6",613-244-4388,,"akshay.patil@hercrentals.com,ottawaorderdesk@hercrentals.com",,,,,,,,,FALSE,FALSE,2025-03-26T09:45:36.950Z,2025-03-26T09:45:36.950Z
5cc1d8df8e6b63e7728fdc52,Herc Rentals,,0014100001SezF9AAJ,Herc Rentals (8208) - Kingston ON,"15 Terry Fox Drive, Kingston, Ontario, Canada, K7M 7K5",613-530-3741,wesley.young@hercrentals.com,"wesley.young@hercrentals.com,matthew.pritchard@hercrentals.com,mike.lewis@hercrentals.com",,,,,,,,,FALSE,FALSE,2025-03-26T09:45:36.954Z,2025-03-26T09:45:36.954Z
5cc1d8df8e6b63e7728fdc52,Herc Rentals,,0014100001SeyvJAAR,Herc Rentals (8240) - Cambridge ON,"500 Collier Macmillan Drive, Cambridge, Ontario, Canada, N1R 6R5",519-624-7940,,"gtacentralorders@hercrentals.com,cambridgeorderdesk@hercrentals.com,ashmeet.virk@hercrentals.com",,,,,,,,,FALSE,FALSE,2025-03-26T09:45:36.958Z,2025-03-26T09:45:36.958Z
5cc1d8df8e6b63e7728fdc52,Herc Rentals,,0014100001Sez8DAAR,Herc Rentals (8222) - Hamilton ON,"2418 Barton Street East, Hamilton, Ontario, Canada, L8E 2W7",905-545-2233,brenda.miller@hertzequiprentals.com,gtacentralorders@hercrentals.com,,,,,,,,,FALSE,FALSE,2025-03-26T09:45:36.962Z,2025-03-26T09:45:36.962Z
5cc1d8df8e6b63e7728fdc52,Herc Rentals,,0014100001SezJGAAZ,Herc Rentals (8224) - London ON,"26 Royce Court, London, Ontario, Canada, N6E 1L1",+15196497014,greg.coyne@hertzequiprentals.com,"ritch.venhuizen@hercrentals.com,ritch.zenhuizen@hercrentals.com,londonorderdesk@hercrentals.com,jeffrey.beacham@hercrentals.com,rob.raes@hercrentals.com",,,,,,,,,FALSE,FALSE,2025-03-26T09:45:36.965Z,2025-04-07T15:59:27.376Z
5cc1d8df8e6b63e7728fdc52,Herc Rentals,,0014100001SezNcAAJ,Herc Rentals (8223) - Oshawa ON,"411 Bloor Street West, Oshawa, Ontario, Canada, L1J 5Y5",905-404-8411,,"gtacentralorders@hercrentals.com,ffilipi@dozr.com",,,,,,,,,FALSE,FALSE,2025-03-26T09:45:36.969Z,2025-03-26T09:45:36.969Z
5cc1d8df8e6b63e7728fdc52,Herc Rentals,,0014100001SezwhAAB,Herc Rentals (8207) - Sarnia ON,"526 Vidal Street South, Sarnia, Ontario, Canada, N7T 2V6",519-336-4020,,,,,,,,,,,FALSE,FALSE,2025-03-26T09:45:36.972Z,2025-03-26T09:45:36.972Z
5cc1d8df8e6b63e7728fdc52,Herc Rentals,,0014100001SezydAAB,Herc Rentals (8205) - St Catharines ON,"278 Saint Paul Street West, St. Catharines, Ontario, Canada, L2S 2E7",905-687-8255,,bradley.finamore@hercrentals.com,,,,,,,,,FALSE,FALSE,2025-03-26T09:45:36.976Z,2025-03-26T09:45:36.976Z
5cc1d8df8e6b63e7728fdc52,Herc Rentals,,0014100001Sf1eVAAR,Herc Rentals (8515) - Saskatoon SK,"3611 Arthur Rose Avenue, Saskatoon, Saskatchewan, Canada, S7K 4K2",306-242-5853,,olha.shuliak@hercrentals.com,,,,,,,,,FALSE,FALSE,2025-03-26T09:45:36.980Z,2025-03-26T09:45:36.980Z
5cc1d8df8e6b63e7728fdc52,Herc Rentals,,0014100001Sf06rAAB,Herc Rentals (8252) - Toronto ON,"6900 Finch Avenue West, Toronto, Ontario, Canada, M9W 0A8",416-679-4180,,gtacentralorders@hercrentals.com,,,,,,,,,FALSE,FALSE,2025-03-26T09:45:36.984Z,2025-03-26T09:45:36.984Z
5cc1d8df8e6b63e7728fdc52,Herc Rentals,,0014100001Sf0CuAAJ,Herc Rentals (8206) - Windsor ON,"5225 County Road 42, Tecumseh, Ontario, Canada, N8N 2M1",519-972-8144,,"cori.vallee@hercrentals.com,zach.delmore@hercrentals.com,windsororderdesk@hercrentals.com",,,,,,,,,FALSE,FALSE,2025-03-26T09:45:36.988Z,2025-03-26T09:45:36.988Z
5cc1d8df8e6b63e7728fdc52,Herc Rentals,,0014100001Sf05FAAR,Herc Rentals (8203) - Toronto ON,"6900 Finch Avenue West, Toronto, Ontario, Canada",416-679-4180,,"gtacentralreservations@hercrentals.com,tororderdesk@hercrentals.com,gtacentralorders@hercrentals.com",,,,,,,,,FALSE,FALSE,2025-03-26T09:45:36.992Z,2025-03-26T09:45:36.992Z
5cc1d8df8e6b63e7728fdc52,Herc Rentals,,0014100001Sf0qKAAR,Herc Rentals (8514) - Regina SK,"625 Winnipeg Street, Regina, Saskatchewan, Canada, S4P 3C6",306-775-2214,devin.chobanik@hercrentals.com,devin.chobanik@hercrentals.com,,,,,,,,,FALSE,FALSE,2025-03-26T09:45:36.995Z,2025-03-26T09:45:36.995Z
5cc1d8df8e6b63e7728fdc52,Herc Rentals,,0014100001guyUEAAY,Herc Rentals (9777) - Kapolei HI,"91-209 Kalaeloa Boulevard, Kapolei, Hawaii, United States, 96707",1 808-682-8200,,,,,,,,,,,FALSE,FALSE,2025-03-26T09:45:36.999Z,2025-03-26T09:45:36.999Z
5cc1d8df8e6b63e7728fdc52,Herc Rentals,,0014100001V5gA4AAJ,Herc (Rapid) - Toronto ON,"5 Saint Regis Crescent North, Toronto, Ontario, Canada, M3J 1Y9",+16475985030,info@rapid-rents.com,orderdesk@rapid-rents.com,,,,,,,,,FALSE,FALSE,2025-03-26T09:45:37.003Z,2025-03-26T09:45:37.003Z
5cc1d8df8e6b63e7728fdc52,Herc Rentals,,0014100001V5gJpAAJ,Herc (Rapid) - Barrie ON,"720 Bayview Dr, Barrie, Ontario, Canada, L4N 9A6",+17057981040,,orderdesk@rapid-rents.com,,,,,,,,,FALSE,FALSE,2025-03-26T09:45:37.006Z,2025-03-26T09:45:37.006Z
5cc1d8df8e6b63e7728fdc52,Herc Rentals,,0014100001V5gNRAAZ,Herc (Rapid) - Ajax ON,"232 Mackenzie Avenue, Ajax, Ontario, Canada, L1S 2E8",905-427-7444,,"orderdesk@rapid-rents.com,sean.thrussell@hercrentals.com",,,,,,,,,FALSE,FALSE,2025-03-26T09:45:37.010Z,2025-03-26T09:45:37.010Z
5cc1d8df8e6b63e7728fdc52,Herc Rentals,,0014100001JYrN9AAL,Herc Rentals - Lebanon TN,"1325 W. Main St., Lebanon, Tennessee, United States, 37087",(615) 443-7368,,"joshua.eatherly@hercrentals.com,tj.white@hercrentals.com",,,,,,,,,FALSE,FALSE,2025-03-26T09:45:37.014Z,2025-03-26T09:45:37.014Z
5cc1d8df8e6b63e7728fdc52,Herc Rentals,,0014100001JZi3nAAD,Herc Rentals (9372) - Orlando FL,"10655 Central Port Drive, Orlando, Florida, United States, 32824",407-240-2132,,"carlos.bunton@hercrentals.com,nick.desantis@hercrentals.com,joe.walker@hercrentals.com,brian.coconato@hercrentals.com,jonathon.kroop@hercrentals.com",352-431-8712,,,,,,,,FALSE,FALSE,2025-03-26T09:45:37.017Z,2025-03-26T09:45:37.017Z
5cc1d8df8e6b63e7728fdc52,Herc Rentals,,0014100001JZmlbAAD,Herc Rentals (9350) - Miami,"5850 Northwest 77th Court, Miami, Florida, United States, 33166",305-592-5770,,"blake.davis@hercrentals.com,fernando.garcia@hercrentals.com,christian.zaldivar@hercrentals.com,yasdier.esteban@hercrentals.com,ffilipi@dozr.com",352-431-8712,,,,,,,,FALSE,FALSE,2025-03-26T09:45:37.021Z,2025-03-26T09:45:37.021Z
5cc1d8df8e6b63e7728fdc52,Herc Rentals,,0014100001NfOZqAAN,Herc Rentals (9212) - Manalapan NJ,"397 New Jersey 33, Manalapan Township, New Jersey, United States, 07726",(732) 901-7368,bobp@atlantic-aerials.com,jennifer.wiamer@hercrentals.com,,,,,,,,,FALSE,FALSE,2025-03-26T09:45:37.025Z,2025-03-26T09:45:37.025Z
5cc1d8df8e6b63e7728fdc52,Herc Rentals,,0014100001QKSzUAAX,Herc Rentals 9951 - Astoria NY (Formerly Durante Rentals),"20-19 42nd Street, New York, New York, United States, 11105",+19294648995,,,,,,,,,,,FALSE,FALSE,2025-03-26T09:45:37.028Z,2025-03-26T09:45:37.028Z
5cc1d8df8e6b63e7728fdc52,Herc Rentals,,0014100001QKhUMAA1,"Herc Rentals (9351)  - Riviera Beach, FL","3849 West Blue Heron Boulevard, West Palm Beach, Florida, United States, 33404",561-848-4336,,"mike.malterer@hercrentals.com,ronnie.chapman@hercrentals.com,karissa.leon@hercrentals.com",352-431-8712,,,,,,,,FALSE,FALSE,2025-03-26T09:45:37.032Z,2025-03-26T09:45:37.032Z
5cc1d8df8e6b63e7728fdc52,Herc Rentals,,0014100001QN8nLAAT,"Herc Rentals (9469) - Longview, TX","5001 West Loop 281, Longview, Texas, United States, 75603",903-757-4171,,"justin.holman@hercrentals.com,clessa@dozr.com",,,,,,,,,FALSE,FALSE,2025-03-26T09:45:37.035Z,2025-03-26T09:45:37.035Z
5cc1d8df8e6b63e7728fdc52,Herc Rentals,,0014100001RaOEXAA3,Herc Rentals (9355) - Madison AL,"212 Lime Quarry Road, Madison, Alabama, United States, 35758",256-461-7384,,nicholas.boren@hercrentals.com,,,,,,,,,FALSE,FALSE,2025-03-26T09:45:37.040Z,2025-03-26T09:45:37.040Z
5cc1d8df8e6b63e7728fdc52,Herc Rentals,,0014100001RaOQiAAN,Herc Rentals (9268) - Mobile AL,"1907 North Beltline Highway, Mobile, Alabama, United States, 36618",+12514708600,,hayden.haynes@hercrentals.com,,,,,,,,,FALSE,FALSE,2025-03-26T09:45:37.043Z,2025-03-26T09:45:37.043Z
5cc1d8df8e6b63e7728fdc52,Herc Rentals,,0014100001RaOSyAAN,Herc Rentals (9354) - Pelham AL,"2150 Pelham Parkway, Pelham, Alabama, United States, 35124",+12059888530,aaron.stewart@hercrentals.com,"aaron.stewart@hercrentals.com,josh.buchanan@hercrentals.com,karlee.white@hercrentals.com",,,,,,,,,FALSE,FALSE,2025-03-26T09:45:37.046Z,2025-03-26T09:45:37.046Z
5cc1d8df8e6b63e7728fdc52,Herc Rentals,,0014100001RaNxnAAF,"Herc Equipment Rentals - Bonita Springs, FL - Corporate HQ","27500 Riverview Center Boulevard, Bonita Springs, Florida, United States, 34134",+12393011000,,,,,,,,,,,FALSE,FALSE,2025-03-26T09:45:37.049Z,2025-03-26T09:45:37.049Z
5cc1d8df8e6b63e7728fdc52,Herc Rentals,,0014100001RaOwHAAV,Herc Rentals (9632) - Tucson AZ,"6902 South Nogales Highway, Tucson, Arizona, United States, 85756",520-573-1344,,azcentralservices@hercrentals.com,,,,,,,,,FALSE,FALSE,2025-03-26T09:45:37.053Z,2025-03-26T09:45:37.053Z
5cc1d8df8e6b63e7728fdc52,Herc Rentals,,0014100001RaPgzAAF,Herc Rentals (9237) - Little Rock AR,"10800 Interstate 30, Little Rock, Arkansas, United States, 72209",501-455-0009,,ffilipi@dozr.com,,,,,,,,,FALSE,FALSE,2025-03-26T09:45:37.056Z,2025-03-26T09:45:37.056Z
5cc1d8df8e6b63e7728fdc52,Herc Rentals,,0014100001RaQbUAAV,Herc Rentals (9748) - Benicia CA,"5251 Industrial Way, Benicia, California, United States, 94510",707-747-4444,,,,,,,,,,,FALSE,FALSE,2025-03-26T09:45:37.059Z,2025-03-26T09:45:37.059Z
5cc1d8df8e6b63e7728fdc52,Herc Rentals,,0014100001RaOnFAAV,"Herc Rentals (9630) - Phoenix, AZ","2010 North Black Canyon Highway, Phoenix, Arizona, United States, 85009",+16022695931,azcentralservices@hercrentals.com,azcentralservices@hercrentals.com,,,,,,,,,FALSE,FALSE,2025-03-26T09:45:37.063Z,2025-03-26T09:45:37.063Z
5cc1d8df8e6b63e7728fdc52,Herc Rentals,,0014100001RaPK9AAN,Herc Rentals (9428) - Peoria AZ,"12040 North 91st Avenue, Peoria, Arizona, United States, 85345",623-760-0631,,azcentralservices@hercrentals.com,,,,,,,,,FALSE,FALSE,2025-03-26T09:45:37.067Z,2025-03-26T09:45:37.067Z
5cc1d8df8e6b63e7728fdc52,Herc Rentals,,0014100001RaPt7AAF,Herc Rentals (9438) - Springdale AR,"4269 Wagon Wheel Road, Springdale, Arkansas, United States, 72762",479-750-3313,,"blake.curtis@hercrentals.com,victor.roblesverduzco@hercrentals.com,jacob.brown@hercrentals.com,tara.steawart@hercrentals.com",,,,,,,,,FALSE,FALSE,2025-03-26T09:45:37.070Z,2025-03-26T09:45:37.070Z
5cc1d8df8e6b63e7728fdc52,Herc Rentals,,0014100001RaTatAAF,Herc Rentals (9746) - Livermore CA,"5237 Southfront Road, Livermore, California, United States, 94551",+19253734444,,"noa.fabris@hercrentals.com,ffilipi@dozr.com",,,,,,,,,FALSE,FALSE,2025-03-26T09:45:37.074Z,2025-03-26T09:45:37.074Z
5cc1d8df8e6b63e7728fdc52,Herc Rentals,,0014100001RaR1zAAF,Herc Rentals (9638) - Carson CA,"22422 Alameda Street, Carson, California, United States, 90810",310-233-5000,,,,,,,,,,,FALSE,FALSE,2025-03-26T09:45:37.077Z,2025-03-26T09:45:37.077Z
5cc1d8df8e6b63e7728fdc52,Herc Rentals,,0014100001RaQh4AAF,Herc Rentals (9747) - Berkely CA,"1475 Eastshore Highway, Berkeley, California, United States, 94710",510-559-4444,,eric.jones1@hercrentals.com,,,,,,,,,FALSE,FALSE,2025-03-26T09:45:37.083Z,2025-03-26T09:45:37.083Z
5cc1d8df8e6b63e7728fdc52,Herc Rentals,,0014100001RaT3GAAV,Herc Rentals (9641)- Indio CA,"81-495 Industrial Place, Indio, California, United States, 92201",760-342-9008,,la_central_ordering_group@hercrentals.com,,,,,,,,,FALSE,FALSE,2025-03-26T09:45:37.087Z,2025-03-26T09:45:37.087Z
5cc1d8df8e6b63e7728fdc52,Herc Rentals,,0014100001RaPyHAAV,Herc Rentals (9649) - Adelanto CA,"16600 Koala Road, Adelanto, California, United States, 92301",760-246-0370,,la_central_ordering_group@hercrentals.com,,,,,,,,,FALSE,FALSE,2025-03-26T09:45:37.090Z,2025-03-26T09:45:37.090Z
5cc1d8df8e6b63e7728fdc52,Herc Rentals,,0014100001RaRHeAAN,Herc Rentals (9740) - Corte Madera CA,"5750 Paradise Drive, Corte Madera, California, United States, 94925",415-924-4444,,,,,,,,,,,FALSE,FALSE,2025-03-26T09:45:37.094Z,2025-03-26T09:45:37.094Z
5cc1d8df8e6b63e7728fdc52,Herc Rentals,,0014100001RaThpAAF,Herc Rentals (9733) - Modesto CA,"2030 Crows Landing Road, Modesto, California, United States, 95358",209-581-9782,,"jesus.segura@hercrentals.com,alisha.blanco@hercrentals.com",,,,,,,,,FALSE,FALSE,2025-03-26T09:45:37.097Z,2025-03-26T09:45:37.097Z
5cc1d8df8e6b63e7728fdc52,Herc Rentals,,0014100001RaOfTAAV,Herc Rentals (9631) - Gilbert AZ,"755 East Baseline Road, Gilbert, Arizona, United States, 85233",+14805071680,,,,,,,,,,,FALSE,FALSE,2025-03-26T09:45:37.102Z,2025-03-26T09:45:37.102Z
5cc1d8df8e6b63e7728fdc52,Herc Rentals,,0014100001RaSw0AAF,Herc Rentals (9644) - Fresno CA,"3057 South Golden State Frontage Road, Fresno, California, United States, 93725",559-497-1960,,"wisaak@hercrentals.com,ffilipi@dozr.com",,,,,,,,,FALSE,FALSE,2025-03-26T09:45:37.104Z,2025-04-24T18:33:19.240Z
5cc1d8df8e6b63e7728fdc52,Herc Rentals,,0014100001RaRYCAA3,Herc Rentals (9647) - Foothill Ranch CA,"25831 Wright Street, Lake Forest, California, United States, 92610",949-581-7712,,"lindsay.henderson@hercrentals.com,la_central_ordering_group@hercrentals.com",,,,,,,,,FALSE,FALSE,2025-03-26T09:45:37.108Z,2025-03-26T09:45:37.108Z
5cc1d8df8e6b63e7728fdc52,Herc Rentals,,0014100001RanqpAAB,Herc Rentals (9637) - San Diego CA,"8014 Miramar Road, San Diego, California, United States, 92126",858-566-5500,,la_central_ordering_group@hercrentals.com,,,,,,,,,FALSE,FALSE,2025-03-26T09:45:37.111Z,2025-03-26T09:45:37.111Z
5cc1d8df8e6b63e7728fdc52,Herc Rentals,,0014100001RaR1pAAF,"Herc Rentals (9371) Sarasota, FL","3450 North Washington Boulevard, Sarasota, Florida, United States, 34234",941-360-9552,,kaden.clark@hercrentals.com,(352)-431-8712,,,,,,,,FALSE,FALSE,2025-03-26T09:45:37.115Z,2025-03-26T09:45:37.115Z
5cc1d8df8e6b63e7728fdc52,Herc Rentals,,0014100001RamK4AAJ,Herc Rentals (9634) - Riverside CA,"929 West La Cadena Drive, Riverside, California, United States, 92501",951-684-4991,la_central_ordering_group@hercrentals.com,la_central_ordering_group@hercrentals.com,,,,,,,,,FALSE,FALSE,2025-03-26T09:45:37.120Z,2025-03-26T09:45:37.120Z
5cc1d8df8e6b63e7728fdc52,Herc Rentals,,0014100001RamOGAAZ,Herc Rentals (9741) - Rohnert Park CA,"5500 Commerce Boulevard, Rohnert Park, California, United States, 94928",707-586-6491,,gina.moyer@hercrentals.com,,,,,,,,,FALSE,FALSE,2025-03-26T09:45:37.123Z,2025-03-26T09:45:37.123Z
5cc1d8df8e6b63e7728fdc52,Herc Rentals,,0014100001RaoqiAAB,Herc Rentals (9744) - Ukiah CA,"100 West Lake Mendocino Drive, Ukiah, California, United States, 95482",707-463-5844,,"heath.dowdy@hercrentals.com,kylee.blake@hercrentals.com",,,,,,,,,FALSE,FALSE,2025-03-26T09:45:37.127Z,2025-03-26T09:45:37.127Z
5cc1d8df8e6b63e7728fdc52,Herc Rentals,,0014100001Rao5uAAB,Herc Rentals (9749) - San Francisco CA,"435 South Van Ness Avenue, San Francisco, California, United States, 94103",415-865-4444,michael.peloquin@hercrentals.com,"michael.peloquin@hercrentals.com,amado.franco@hercrentals.com,robert.liedtke@hercrentals.com,ffilipi@dozr.com,hadiya.anderson@hercrentals.com",,,,,,,,,FALSE,FALSE,2025-03-26T09:45:37.130Z,2025-03-26T09:45:37.130Z
5cc1d8df8e6b63e7728fdc52,Herc Rentals,,0014100001RaontAAB,Herc Rentals (9646) - Taft CA,"800 Black Gold Court, Taft, California, United States, 93268",661-763-1061,,,,,,,,,,,FALSE,FALSE,2025-03-26T09:45:37.133Z,2025-03-26T09:45:37.133Z
5cc1d8df8e6b63e7728fdc52,Herc Rentals,,0014100001RaQ66AAF,Herc Rentals (9635) - Anaheim CA,"3040 East Miraloma Avenue, Anaheim, California, United States, 92806",714-666-3100,,la_central_ordering_group@hercrentals.com,,,,,,,,,FALSE,FALSE,2025-03-26T09:45:37.136Z,2025-03-26T09:45:37.136Z
5cc1d8df8e6b63e7728fdc52,Herc Rentals,,0014100001RanDxAAJ,Herc Rentals (9735) - Salinas CA,"718 Abbott Street, Salinas, California, United States, 93901",831-751-2444,,"reynaldo.salazar@hercrentals.com,ffilipi@dozr.com",,,,,,,,,FALSE,FALSE,2025-03-26T09:45:37.140Z,2025-03-26T09:45:37.140Z
5cc1d8df8e6b63e7728fdc52,Herc Rentals,,0014100001Raoh2AAB,Herc Rentals (9738) - San Jose CA,"1695 North 4th Street, San Jose, California, United States, 95112",408-451-9320,,"jason.gomes@hercrentals.com,la_central_ordering_group@hercrentals.com",,,,,,,,,FALSE,FALSE,2025-03-26T09:45:37.143Z,2025-03-26T09:45:37.143Z
5cc1d8df8e6b63e7728fdc52,Herc Rentals,,0014100001RaoieAAB,Herc Rentals (9640) - Santa Maria CA,"3475 Orcutt Road, Santa Maria, California, United States, 93455",805-934-0564,,joann.jaime@hercrentals.com,,,,,,,,,FALSE,FALSE,2025-03-26T09:45:37.146Z,2025-03-26T09:45:37.146Z
5cc1d8df8e6b63e7728fdc52,Herc Rentals,,0014100001Rar0dAAB,Herc Rentals (9639) - Ventura CA,"3500 Market Street, Ventura, California, United States, 93003",805-658-9100,,joel.alejo@hercrentals.com,,,,,,,,,FALSE,FALSE,2025-03-26T09:45:37.149Z,2025-03-26T09:45:37.149Z
5cc1d8df8e6b63e7728fdc52,Herc Rentals,,0014100001RalqtAAB,Herc Rentals (9633) - North Hollywood CA,"5556 Vineland Avenue, Los Angeles, California, United States, 91601",818-762-9282,,,,,,,,,,,FALSE,FALSE,2025-03-26T09:45:37.152Z,2025-03-26T09:45:37.152Z
5cc1d8df8e6b63e7728fdc52,Herc Rentals,,0014100001Ran6FAAR,Herc Rentals (9732) - Roseville CA,"10680 Industrial Avenue, Roseville, California, United States, 95678",+19167819400,,"a_central_ordering_group@hercrentals.com,lindsay.henderson@hercrentals.com",,,,,,,,,FALSE,FALSE,2025-03-26T09:45:37.156Z,2025-03-26T09:45:37.156Z
5cc1d8df8e6b63e7728fdc52,Herc Rentals,,0014100001RaR9UAAV,Herc Rentals (9725) - Chico CA,"571 Country Drive, Chico, California, United States, 95928",530-566-9335,,,,,,,,,,,FALSE,FALSE,2025-03-26T09:45:37.159Z,2025-03-26T09:45:37.159Z
5cc1d8df8e6b63e7728fdc52,Herc Rentals,,0014100001RamBWAAZ,Herc Rentals (9726) - Pacheco CA,"30 South Buchanan Circle, Pacheco, California, United States, 94553",925-680-0316,,,,,,,,,,,FALSE,FALSE,2025-03-26T09:45:37.163Z,2025-03-26T09:45:37.163Z
5cc1d8df8e6b63e7728fdc52,Herc Rentals,,0014100001RaQTZAA3,Herc Rentals (9643) - Bakersfield CA,"6315 Snow Road, Bakersfield, California, United States, 93308",+16613923661,,"dylan.moore@hercrentals.com,zachary.ricciardi@hercrentals.com,bradley.stebbins@hercrentals.com",,,,,,,,,FALSE,FALSE,2025-03-26T09:45:37.166Z,2025-03-26T09:45:37.166Z
5cc1d8df8e6b63e7728fdc52,Herc Rentals,,0014100001RaRcJAAV,Herc Rentals (9731) - French Camp CA,"11285 Vallejo Court, French Camp, California, United States, 95231",+12099829670,,"jazmin.ortega@hercrentals.com,andres.alvarez@hercrentals.com",,,,,,,,,FALSE,FALSE,2025-03-26T09:45:37.170Z,2025-03-26T09:45:37.170Z
5cc1d8df8e6b63e7728fdc52,Herc Rentals,,0014100001RaTQUAA3,Herc Rentals (9645) - Lancaster CA,"45710 23rd Street West, Lancaster, California, United States, 93536",661-945-1180,,,,,,,,,,,FALSE,FALSE,2025-03-26T09:45:37.173Z,2025-03-26T09:45:37.173Z
5cc1d8df8e6b63e7728fdc52,Herc Rentals,,0014100001RamHZAAZ,Herc Rentals (9625) - Paso Robles CA,"2140 Tractor Street, Paso Robles, California, United States, 93446",805-237-3745,,,,,,,,,,,FALSE,FALSE,2025-03-26T09:45:37.176Z,2025-03-26T09:45:37.176Z
5cc1d8df8e6b63e7728fdc52,Herc Rentals,,0014100001Rb0mpAAB,Herc Rentals (9348) - Fort Myers FL,"2401 North Airport Road, Fort Myers, Florida, United States, 33907",239-936-2700,andrew.mehan@hercrentals.com,"andrew.mehan@hercrentals.com,mark.schumaker@hercrentals.com,thomas.rizzo@hercrentals.com,rob.blackburn@hercrentals.com,dylan.segee@hercrentals.com,john.thompson@hercrentals.com,samuel.hubschman@hercrentals.com,jordan.boyd@hercrentals.com",,,,,,,,,FALSE,FALSE,2025-03-26T09:45:37.180Z,2025-03-26T09:45:37.180Z
5cc1d8df8e6b63e7728fdc52,Herc Rentals,,0014100001RarfeAAB,Herc's Rentals (9172) - North Haven CT,"440 Sackett Point Road, North Haven, Connecticut, United States, 06473",203-287-0160,,"eric.luersen@hercrentals.com,louis.migliozzi@hercrentals.com,rick.palmieri@hercrentals.com,tom.myjak@hercrentals.com,paul.dreyer@hercrentals.com,northhavencounter@hercrentals.com,scott.dreyer@hercrentals.com",,,,,,,,,FALSE,FALSE,2025-03-26T09:45:37.183Z,2025-03-26T09:45:37.183Z
5cc1d8df8e6b63e7728fdc52,Herc Rentals,,0014100001RarByAAJ,Herc Rentals (9730) - Sacramento CA,"901 Stillwater Road, West Sacramento, California, United States, 95605",916-372-2266,,jazmin.ortega@hercrentals.com,,,,,,,,,FALSE,FALSE,2025-03-26T09:45:37.187Z,2025-03-26T09:45:37.187Z
5cc1d8df8e6b63e7728fdc52,Herc Rentals,,0014100001RarX6AAJ,Herc Rentals (9671) - Henderson CO ,"7750 East 96th Avenue, Henderson, Colorado, United States, 80640",303-650-9000,,chad.stoner@hercrentals.com,,,,,,,,,FALSE,FALSE,2025-03-26T09:45:37.190Z,2025-03-26T09:45:37.190Z
5cc1d8df8e6b63e7728fdc52,Herc Rentals,,0014100001Rb0vsAAB,Herc Rentals (9373) - Jacksonville FL,"11451 Philips Highway, Jacksonville, Florida, United States, 32256",904-262-5838,,"ryan.fitzpatrick@hercrentals.com,parker.flye@hercrentals.com,kyle.tarbell@hercrentals.com,michael.paletta@hercrentals.com,tim.doyle@hercrentals.com,trevor.patterson@hercrentals.com",(352)-431-8712,,,,,,,,FALSE,FALSE,2025-03-26T09:45:37.193Z,2025-03-26T09:45:37.193Z
5cc1d8df8e6b63e7728fdc52,Herc Rentals,,0014100001Rb1hDAAR,Herc Rentals (9274) - Pensacola FL,"3838 West Navy Boulevard, Pensacola, Florida, United States, 32507",850-455-3928,mickey.avirett@hercrentals.com,"christa.pettijohn@hercrentals.com,mickey.avirett@hercrentals.com",352-431-8712,,,,,,,,FALSE,FALSE,2025-03-26T09:45:37.197Z,2025-03-26T09:45:37.197Z
5cc1d8df8e6b63e7728fdc52,Herc Rentals,,0014100001Rb15EAAR,Herc Rentals (9370) - Lakeland FL,"4609 U.S. 92, Lakeland, Florida, United States, 33801",863-668-0393,,"blake.davis@hercrentals.com,brian.duenas@hercrentals.com,shawn.cisneros@hercrentals.com",(352)-431-8712,,,,,,,,FALSE,FALSE,2025-03-26T09:45:37.200Z,2025-03-26T09:45:37.200Z
5cc1d8df8e6b63e7728fdc52,Herc Rentals,,0014100001Rb2PUAAZ,Herc Rentals (9375) - Sanford FL,"1501 West 1st Street, Sanford, Florida, United States, 32771",1-407-268-3964,joewalker@hercrentals.com,"jean.lumaine@hercrentals.com,ffilipi@dozr.com",(352)-431-8712,,,,,,,,FALSE,FALSE,2025-03-26T09:45:37.204Z,2025-03-26T09:45:37.204Z
5cc1d8df8e6b63e7728fdc52,Herc Rentals,,0014100001Rb1ydAAB,Herc Rentals (9367) - Pompano Beach FL,"470 Southwest 9th Terrace, Pompano Beach, Florida, United States, 33069",954-970-6880,,"cody.hatch@hercrentals.com,ryan.sexton@hercrentals.com",(352)-431-8712,,,,,,,,FALSE,FALSE,2025-03-26T09:45:37.208Z,2025-03-26T09:45:37.208Z
5cc1d8df8e6b63e7728fdc52,Herc Rentals,,0014100001Rb3plAAB,Herc Rentals (9333) - Augusta GA,"2017 Rawley Road, Augusta, Georgia, United States, 30906",706-796-0823,,"kenneth.holden@hercrentals.com,nathan.stewart@hercrentals.com,gerald.speering@hercrentals.com",,,,,,,,,FALSE,FALSE,2025-03-26T09:45:37.212Z,2025-03-26T09:45:37.212Z
5cc1d8df8e6b63e7728fdc52,Herc Rentals,,0014100001RbAlMAAV,Herc Rentals (9113) - Chicago IL,"4039 South Peoria Street, Chicago, Illinois, United States, 60609",+17732476297,,"ffilipi@dozr.com,9113_chicago@hercrentals.com",,,,,,,,,FALSE,FALSE,2025-03-26T09:45:37.217Z,2025-03-26T09:45:37.217Z
5cc1d8df8e6b63e7728fdc52,Herc Rentals,,0014100001RbA3bAAF,Herc Rentals (9346) - Savannah GA,"514 Bourne Avenue, Savannah, Georgia, United States, 31408",912-964-9474,zachary.brewton@hercrentals.com,"christy.parker@hercrentals.com,demond.grant@hercrentals.com,david.coley@hercrentals.com,ffilipi@dozr.com",,,,,,,,,FALSE,FALSE,2025-03-26T09:45:37.221Z,2025-03-26T09:45:37.221Z
5cc1d8df8e6b63e7728fdc52,Herc Rentals,,0014100001RbCLBAA3,Herc Rentals (9102) - Fort Wayne IN,"3250 Coliseum Boulevard West, Fort Wayne, Indiana, United States, 46808",260-482-2224,,hunter.massingill@hercrentals.com,,,,,,,,,FALSE,FALSE,2025-03-26T09:45:37.225Z,2025-03-26T09:45:37.225Z
5cc1d8df8e6b63e7728fdc52,Herc Rentals,,0014100001RboUlAAJ,Herc Rentals (9242) - Kenner LA,"141 West Airline Highway, Kenner, Louisiana, United States, 70062",504-441-8100,,"derek.torregano@hercrentals.com,ffilipi@dozr.com,steve.hales@hercrentals.com",,,,,,,,,FALSE,FALSE,2025-03-26T09:45:37.229Z,2025-03-26T09:45:37.229Z
5cc1d8df8e6b63e7728fdc52,Herc Rentals,,0014100001RbpEhAAJ,Herc Rentals (9169) - Washington DC,"8400 Westphalia Road, Upper Marlboro, Maryland, United States",+13016844319,,"dccounter@hercrentals.com,robert.kenly@hercrentals.com,alex.neishell@hercrentals.com",,,,,,,,,FALSE,FALSE,2025-03-26T09:45:37.233Z,2025-04-09T12:31:11.080Z
5cc1d8df8e6b63e7728fdc52,Herc Rentals,,0014100001Rbpv3AAB,Herc Rentals (9128) - Romulus MI,"29125 Smith Road, Romulus, Michigan, United States, 48174",1 734-595-7075,,"hunter.massingill@hercrentals.com,madeline.lefler@hercrentals.com,ffilipi@dozr.com,nick.mooney@hercrentals.com",,,,,,,,,FALSE,FALSE,2025-03-26T09:45:37.236Z,2025-03-26T09:45:37.236Z
5cc1d8df8e6b63e7728fdc52,Herc Rentals,,0014100001RbqQ2AAJ,Herc Rentals (9213) - Tupelo MS,"1175 D L Collums Drive, Tupelo, Mississippi, United States, 38801",662-680-3183,,"daniel.whitehead@hercrentals.com,connor.hendrix@hercrentals.com,tupelobranchcounter@hercrentals.com,brad.pickett@hercrentals.com",,,,,,,,,FALSE,FALSE,2025-03-26T09:45:37.239Z,2025-03-26T09:45:37.239Z
5cc1d8df8e6b63e7728fdc52,Herc Rentals,,0014100001RbqSmAAJ,Herc Rentals (9472) - Joplin MO,"2315 East 7th Street, Joplin, Missouri, United States, 64801",+14176598763,,,,,,,,,,,FALSE,FALSE,2025-03-26T09:45:37.243Z,2025-03-26T09:45:37.243Z
5cc1d8df8e6b63e7728fdc52,Herc Rentals,,0014100001Rb43YAAR,Herc Rentals (9336) - College Park GA,"4916 Clark Howell Highway, College Park, Georgia, United States, 30349",404-765-9226,brian.yeager@hercrentals.com,"brian.yeager@hercrentals.com,hunter.gray@hercrentals.com,bbrown00@hercrentals.com",(478)752-2033,,,,,,,,FALSE,FALSE,2025-03-26T09:45:37.246Z,2025-03-26T09:45:37.246Z
5cc1d8df8e6b63e7728fdc52,Herc Rentals,,0014100001Rb72UAAR,Herc Rentals (9339) - Marietta GA,"1013 Sandy Plains Road, Marietta, Georgia, United States, 30066",770-420-8300,aidan.goricki@hercrentals.com,"aidan.goricki@hercrentals.com,avery.king@hercrentals.com,brooks.beddow@hercrentals.com,ethan.lifchez@hercrentals.com",(478)-752-2033,,,,,,,,FALSE,FALSE,2025-03-26T09:45:37.250Z,2025-03-26T09:45:37.250Z
5cc1d8df8e6b63e7728fdc52,Herc Rentals,,0014100001RbCBkAAN,Herc Rentals (9137) - Naperville IL,"31W350 Diehl Road, Naperville, Illinois, United States, 60563",+13128427114,,"naperville_complex@hercrentals.com,cady.hanlon@hercrentals.com,stephanie.montoya@hercrentals.com,joseph.lowder@hercrentals.com",,,,,,,,,FALSE,FALSE,2025-03-26T09:45:37.253Z,2025-03-26T09:45:37.253Z
5cc1d8df8e6b63e7728fdc52,Herc Rentals,,0014100001Rbo7cAAB,Herc Rentals (9288) -  Pump and Power - Harvey LA,"1421 MacArthur Avenue, Harvey, Louisiana, United States, 70058",504-371-6631,,,,,,,,,,,FALSE,FALSE,2025-03-26T09:45:37.256Z,2025-04-15T17:36:04.917Z
5cc1d8df8e6b63e7728fdc52,Herc Rentals,,0014100001RbpLdAAJ,Herc Rentals (9114) - Frederick MD,"4622 Wedgewood Boulevard, Frederick, Maryland, United States, 21703",301-696-3040,,"brett.zimmerman@hercrentals.com,shawn.raum@hercrentals.com",,,,,,,,,FALSE,FALSE,2025-03-26T09:45:37.260Z,2025-03-26T09:45:37.260Z
5cc1d8df8e6b63e7728fdc52,Herc Rentals,,0014100001RbpXZAAZ,Herc Rentals (9108) - Worcester MA,"183 Southwest Cutoff, Worcester, Massachusetts, United States, 01604",508-719-8646,evan.comerford@hercrentals.com,"worcestercounter@hercrentals.com,jamie.estrella@hercrentals.com",,,,,,,,,FALSE,FALSE,2025-03-26T09:45:37.263Z,2025-03-26T09:45:37.263Z
5cc1d8df8e6b63e7728fdc52,Herc Rentals,,0014100001RbvYuAAJ,Herc Rentals (9167) - Newark NJ,"67 Doremus Avenue, Newark, New Jersey, United States, 07105",973-567-3461,,"newarkcounter@hercrentals.com,michael.falk@hercrentals.com,kevin.blank@hercrentals.com",,,,,,,,,FALSE,FALSE,2025-03-26T09:45:37.266Z,2025-03-26T09:45:37.266Z
5cc1d8df8e6b63e7728fdc52,Herc Rentals,,0014100001Rb2yiAAB,Herc Rentals (9368) - Tampa FL,"5725 East Adamo Drive, Tampa, Florida, United States, 33619",813-623-6581,,"sarah.mitchell@hercrentals.com,andrew.robin@hercrentals.com,brandon.house@hercrentals.com,colby.racine@hercrentals.com",(352)-431-8712,,,,,,,,FALSE,FALSE,2025-03-26T09:45:37.270Z,2025-03-26T09:45:37.270Z
5cc1d8df8e6b63e7728fdc52,Herc Rentals,,0014100001RbpALAAZ,Herc Rentals (9180) - Scarborough ME,"148 Pleasant Hill Road, Scarborough, Maine, United States, 04074",207-885-0101,,"richard.chelton@hercrentals.com,blair.cote@hercrentals.com,portlandcounter@hercrentals.com,kristofer.keller@hercrentals.com",,,,,,,,,FALSE,FALSE,2025-03-26T09:45:37.274Z,2025-03-26T09:45:37.274Z
5cc1d8df8e6b63e7728fdc52,Herc Rentals,,0014100001RbqklAAB,Herc Rentals (9661) - Las Vegas NV,"4555 South Wynn Road, Las Vegas, Nevada, United States, 89103",702-791-1100,,"michael.byrne@hercrentals.com,lori.patterson@hercrentals.com,brian.thompson@hercrentals.com,ricardo.joseph@hercrentals.com,christian.garciagonzales@hercrentals.com",,,,,,,,,FALSE,FALSE,2025-03-26T09:45:37.278Z,2025-03-26T09:45:37.278Z
5cc1d8df8e6b63e7728fdc52,Herc Rentals,,0014100001RbvyYAAR,Herc Rentals (9175) - South Hackensack NJ,"49 Wesley Street, South Hackensack, New Jersey, United States, 07606",201-645-4257,,newarkcounter@hercrentals.com,,,,,,,,,FALSE,FALSE,2025-03-26T09:45:37.281Z,2025-03-26T09:45:37.281Z
5cc1d8df8e6b63e7728fdc52,Herc Rentals,,0014100001Rb4OHAAZ,Herc Rentals (9347) - LaGrange GA,"200 South Davis Road, LaGrange, Georgia, United States, 30241",706-883-6172,lucas.blanton@hercrentals.com,"jeremy.monroe@hercrentals.com,larry.allen@hercrentals.com",(478)752-2033,,,,,,,,FALSE,FALSE,2025-03-26T09:45:37.284Z,2025-03-26T09:45:37.284Z
5cc1d8df8e6b63e7728fdc52,Herc Rentals,,0014100001RbmzDAAR,Herc Rentals (9123) - Portage IN,"6611 Shepherd Avenue, Portage, Indiana, United States, 46368",219-934-7148,,"kaley.munguia@hercrentals.com,brandy.hoover@hercrentals.com,kimberly.jefferson@hercrentals.com,mary.derouin@hercrentals.com",,,,,,,,,FALSE,FALSE,2025-03-26T09:45:37.288Z,2025-03-26T09:45:37.288Z
5cc1d8df8e6b63e7728fdc52,Herc Rentals,,0014100001Rbn19AAB,Herc Rentals (9166) - Louisville KY,"13159 Middletown Industrial Boulevard, Louisville, Kentucky, United States, 40223",502-245-8211,,"jake.ford@hercrentals.com,nicholas.cranfill@hercrentals.com,bryan.goodman@hercrentals.com",,,,,,,,,FALSE,FALSE,2025-03-26T09:45:37.292Z,2025-03-26T09:45:37.292Z
5cc1d8df8e6b63e7728fdc52,Herc Rentals,,0014100001RbvVhAAJ,Herc Rentals (9140) - Fairfield NJ,"19 Route 46, Fairfield, New Jersey, United States, 07004",973-567-3898,,jordan.rothbart@hercrentals.com,,,,,,,,,FALSE,FALSE,2025-03-26T09:45:37.302Z,2025-03-26T09:45:37.302Z
5cc1d8df8e6b63e7728fdc52,Herc Rentals,,0014100001Rbw1wAAB,Herc Rentals (9604) - Albuquerque NM,"3601 Osuna Road Northeast, Albuquerque, New Mexico, United States, 87109",505-344-5500,brandon.rice@hercrentals.com,"brandon.rice@hercrentals.com,zane.martin@hercrentals.com,dylan.williams1@hercrentals.com,david.parker00@hercrentals.com,jose.guizarcontreras@hercrentals.com",,,,,,,,,FALSE,FALSE,2025-03-26T09:45:37.305Z,2025-03-26T09:45:37.305Z
5cc1d8df8e6b63e7728fdc52,Herc Rentals,,0014100001SdEZlAAN,Herc Rentals (9511) - Bethany OK,"7940 Northwest 39th Expressway, Bethany, Oklahoma, United States, 73008",405-495-8383,,jacob.gaddis@hercrentals.com,,,,,,,,,FALSE,FALSE,2025-03-26T09:45:37.308Z,2025-03-26T09:45:37.308Z
5cc1d8df8e6b63e7728fdc52,Herc Rentals,,0014100001SdCqTAAV,Herc Rentals (9329) - Arden NC,"30 Walden Drive, Arden, North Carolina, United States, 28704",+18286547376,,"turner.swafford@hercrentals.com,jared.schumacher@hercrentals.com",,,,,,,,,FALSE,FALSE,2025-03-26T09:45:37.313Z,2025-03-26T09:45:37.313Z
5cc1d8df8e6b63e7728fdc52,Herc Rentals,,0014100001Rbw9EAAR,Herc Rentals (9178) - Bronx NY,"3967 Provost Ave, Bronx, New York, United States, 10466",718--231-7693,devon.bennett@hercrentals.com,"devon.bennett@hercrentals.com,mike.cotty@hercrentals.com,brendan.condon@hercrentals.com,bronxcounter@hercrentals.com",,,,,,,,,FALSE,FALSE,2025-03-26T09:45:37.316Z,2025-03-26T09:45:37.316Z
5cc1d8df8e6b63e7728fdc52,Herc Rentals,,0014100001SdDC1AAN,Herc Rentals (9340) - Fayetteville NC,"608 Middle Road, Fayetteville, North Carolina, United States, 28301",910-483-9666,,"danny.hunt@hercrentals.com,jeffrey.lott@hercrentals.com",,,,,,,,,FALSE,FALSE,2025-03-26T09:45:37.320Z,2025-03-26T09:45:37.320Z
5cc1d8df8e6b63e7728fdc52,Herc Rentals,,0014100001SdDdMAAV,Herc Rentals (9325) - Raleigh NC,"1409 Capital Boulevard, Raleigh, North Carolina, United States, 27603",919-834-2527,richard.hollyday@hercrentals.com,"mary.raynor@hercrentals.com,john.rogers@hercrentals.com",,,,,,,,,FALSE,FALSE,2025-03-26T09:45:37.323Z,2025-04-03T15:33:36.916Z
5cc1d8df8e6b63e7728fdc52,Herc Rentals,,0014100001SdDfXAAV,Herc Rentals (9313) - Shelby NC,"1859 East Dixon Boulevard, Shelby, North Carolina, United States, 28152",704-482-4223,,,,,,,,,,,FALSE,FALSE,2025-03-26T09:45:37.326Z,2025-03-26T09:45:37.326Z
5cc1d8df8e6b63e7728fdc52,Herc Rentals,,0014100001SdEeHAAV,Herc Rentals (9506) - Chickasha OK,"725 East Choctaw Avenue, Chickasha, Oklahoma, United States, 73018",405-224-0164,,haggen.bolan@hercrentals.com,,,,,,,,,FALSE,FALSE,2025-03-26T09:45:37.330Z,2025-04-16T16:04:01.605Z
5cc1d8df8e6b63e7728fdc52,Herc Rentals,,0014100001SdEqcAAF,Herc Rentals (9507) - Lawton OK,"901 Southeast Interstate Drive, Lawton, Oklahoma, United States, 73501",580-351-0333,,"candice.desouza@hercrentals.com,jeffery.mcconnell@hercrentals.com,orlando.calhoun@hercrentals.com",,,,,,,,,FALSE,FALSE,2025-03-26T09:45:37.333Z,2025-03-26T09:45:37.333Z
5cc1d8df8e6b63e7728fdc52,Herc Rentals,,0014100001SdEidAAF,Herc Rentals (9509) - Durant OK - BRANCH CLOSED,"2800 North 1st Avenue, Durant, Oklahoma, United States, 74701",580-924-5683,,,,,,,,,,,FALSE,TRUE,2025-03-26T09:45:37.336Z,2025-05-14T19:32:26.652Z
5cc1d8df8e6b63e7728fdc52,Herc Rentals,,0014100001SdFDbAAN,Herc Rentals (9502) - Shawnee OK,"14103 U.S. 177, Shawnee, Oklahoma, United States, 74804",405-273-7530,,"ryan.daws@hercrentals.com,joshua.mannis@hercrentals.com",,,,,,,,,FALSE,FALSE,2025-03-26T09:45:37.339Z,2025-03-26T09:45:37.339Z
5cc1d8df8e6b63e7728fdc52,Herc Rentals,,0014100001Rbw5pAAB,Herc Rentals (9151) - Astoria NY,"19-1 Steinway Street, Astoria, New York, United States, 11105",+17187775126,,"james.mcgrane@hercrentals.com,michael.leavitt@hercrentals.com,brian.cedeno@hercrentals.com,shane.brauer@hercrentals.com",,,,,,,,,FALSE,FALSE,2025-03-26T09:45:37.342Z,2025-03-26T09:45:37.342Z
5cc1d8df8e6b63e7728fdc52,Herc Rentals,,0014100001Rc1beAAB,Herc Rentals (9191) - Farmingdale NY,"206 New York 109, Farmingdale, New York, United States, 11735",631-693-6718,,angela.gatto@hercrentals.com,,,,,,,,,FALSE,FALSE,2025-03-26T09:45:37.346Z,2025-03-26T09:45:37.346Z
5cc1d8df8e6b63e7728fdc52,Herc Rentals,,0014100001SdFIgAAN,Herc Rentals (9459) - Tulsa OK,"4445 South Mingo Road, Tulsa, Oklahoma, United States, 74146",918-622-7150,,"ryan.burris@hercrentals.com,michael.white@hercrentals.com,ethan.york@hercrentals.com",,,,,,,,,FALSE,FALSE,2025-03-26T09:45:37.350Z,2025-03-26T09:45:37.350Z
5cc1d8df8e6b63e7728fdc52,Herc Rentals,,0014100001Rc1t4AAB,Herc's Rentals (9139) - Latham NY,"3 Avis Drive, Latham, New York, United States, 12110",518-576-7609,,"robert.schraver@hercrentals.com,james.mckeage@hercrentals.com,ian.guarino@hercrentals.com",,,,,,,,,FALSE,FALSE,2025-03-26T09:45:37.353Z,2025-03-26T09:45:37.353Z
5cc1d8df8e6b63e7728fdc52,Herc Rentals,,0014100001SdCjwAAF,Herc Rentals (9319) - Apex NC,"2016 Lufkin Road, Apex, North Carolina, United States, 27502",919-303-6758,jeffrey.heintzelman@hercrentals.com,"jeffrey.heintzelman@hercrentals.com,james.lordo@hercrentals.com,amada.gomez@hercrentals.com,sean.charney@hercrentals.com",,,,,,,,,FALSE,FALSE,2025-03-26T09:45:37.356Z,2025-03-26T09:45:37.356Z
5cc1d8df8e6b63e7728fdc52,Herc Rentals,,0014100001SdD0PAAV,Herc Rentals (9320) - Charlotte NC,"901 Westinghouse Boulevard, Charlotte, North Carolina, United States, 28273",704-504-8539,storm.parish@hercrentals.com,"nathan.hamilton@hercrentals.com,dex.brayiv@hercrentals.com",,,,,,,,,FALSE,FALSE,2025-03-26T09:45:37.360Z,2025-03-26T09:45:37.360Z
5cc1d8df8e6b63e7728fdc52,Herc Rentals,,0014100001SdD8OAAV,Herc Rentals (9324) - Durham NC,"1002 Ellis Road, Durham, North Carolina, United States, 27703",919-598-1935,,jacob.wiggins@hercrentals.com,,,,,,,,,FALSE,FALSE,2025-03-26T09:45:37.363Z,2025-03-26T09:45:37.363Z
5cc1d8df8e6b63e7728fdc52,Herc Rentals,,0014100001Rb8ySAAR,Herc Rentals (9342) - Valdosta GA,"1624 North Valdosta Road, Valdosta, Georgia, United States, 31602",229-244-8301,,richard.story@hercrentals.com,,,,,,,,,FALSE,FALSE,2025-03-26T09:45:37.370Z,2025-03-26T09:45:37.370Z
5cc1d8df8e6b63e7728fdc52,Herc Rentals,,0014100001Rb3ZdAAJ,Herc Rentals (9337) - Atlanta GA,"1361 Southland Circle, Atlanta, Georgia, United States, 30318",404-351-5920,abianchi@dozr.com,"herc123@herc.com,jeff.smith@hercrentals.com",,,,,,,,,FALSE,FALSE,2025-03-26T09:45:37.373Z,2025-03-26T09:45:37.373Z
5cc1d8df8e6b63e7728fdc52,Herc Rentals,,0014100001Rb9oIAAR,Herc Rentals (9344) - Winston GA,"2750 Strawn Road, Winston, Georgia, United States, 30187",678-838-0481,justin.shelby@hercrentals.com,"justin.shelby@hercrentals.com,joel.simmons@hercrentals.com,michael.ballard@hercrentals.com,ronny.hinson@hercrentals.com",(478)-752-2033,,,,,,,,FALSE,FALSE,2025-03-26T09:45:37.377Z,2025-03-26T09:45:37.377Z
5cc1d8df8e6b63e7728fdc52,Herc Rentals,,0014100001RbCU3AAN,Herc Rentals (9132) - Indianapolis IN,"9010 Corporation Drive, Indianapolis, Indiana, United States, 46256",317-849-5124,,"kolan.lemaster@hercrentals.com,nicholas.barrett@hercrentals.com",,,,,,,,,FALSE,FALSE,2025-03-26T09:45:37.381Z,2025-03-26T09:45:37.381Z
5cc1d8df8e6b63e7728fdc52,Herc Rentals,,0014100001RboixAAB,Herc Rentals (9445) - Sulphur LA,"1853 Patton Street, Sulphur, Louisiana, United States, 70665",337-625-3551,,,,,,,,,,,FALSE,FALSE,2025-03-26T09:45:37.386Z,2025-03-26T09:45:37.386Z
5cc1d8df8e6b63e7728fdc52,Herc Rentals,,0014100001RbpU1AAJ,Herc Rentals (9162) - Boston Ma,"45 Gerard Street, Boston, Massachusetts, United States, 02119",617-466-6691,gillary.hernandez@hercrentals.com,"elliot.flaharty@hercrentals.com,stephen.forgione@hercrentals.com,bostoncounter@hercrentals.com",,,,,,,,,FALSE,FALSE,2025-03-26T09:45:37.389Z,2025-03-26T09:45:37.389Z
5cc1d8df8e6b63e7728fdc52,Herc Rentals,,0014100001RbqJ1AAJ,Herc Rentals (9239) - Richland MS,"320 U.S. 49 Frontage Road, Richland, Mississippi, United States, 39218",601-939-0986,,"robert.summerlin@hercrentals.com,landon.dunham@hercrentals.com,corbin.smith@hercrentals.com,kirby.wixson@hercrentals.com",,,,,,,,,FALSE,FALSE,2025-03-26T09:45:37.393Z,2025-03-26T09:45:37.393Z
5cc1d8df8e6b63e7728fdc52,Herc Rentals,,0014100001RbqbAAAR,Herc Rentals (9423) - Springfield MO,"1907 East Bergman Street, Springfield, Missouri, United States, 65802",417-865-5561,,,,,,,,,,,FALSE,FALSE,2025-03-26T09:45:37.397Z,2025-03-26T09:45:37.397Z
5cc1d8df8e6b63e7728fdc52,Herc Rentals,,0014100001SdEwaAAF,Herc Rentals (9505) - Newcastle OK,"3231 North Meridian Avenue, Newcastle, Oklahoma, United States, 73065",+14058768653,,,,,,,,,,,FALSE,FALSE,2025-03-26T09:45:37.400Z,2025-03-26T09:45:37.400Z
5cc1d8df8e6b63e7728fdc52,Herc Rentals,,0014100001RbneFAAR,Herc Rentals (9441) - Bossier City LA,"5000 Industrial Drive Ext, Bossier City, Louisiana, United States, 71112",318-752-4414,,kmorgan@hercrentals.com,,,,,,,,,FALSE,FALSE,2025-03-26T09:45:37.403Z,2025-03-26T09:45:37.403Z
5cc1d8df8e6b63e7728fdc52,Herc Rentals,,0014100001Rb7DIAAZ,Herc Rentals (9338) - Norcross GA,"6664 Dawson Boulevard, Norcross, Georgia, United States, 30093",770-448-6780,robert.pope@hercrentals.com,"robert.pope@hercrentals.com,dylan.conley@hercrentals.com,austin.fulton@hercrentals.com,tyler.verrier@hercrentals.com",(478)-752-2033,,,,,,,,FALSE,FALSE,2025-03-26T09:45:37.407Z,2025-03-26T09:45:37.407Z
5cc1d8df8e6b63e7728fdc52,Herc Rentals,,0014100001RbpiFAAR,Herc Rentals (9127) - Erie MI,"6333 South Dixie Highway, Erie, Michigan, United States, 48133",734-585-2961,,cody.kahn@hercrentals.com,,,,,,,,,FALSE,FALSE,2025-03-26T09:45:37.410Z,2025-03-26T09:45:37.410Z
5cc1d8df8e6b63e7728fdc52,Herc Rentals,,0014100001RbpCWAAZ,Herc Rentals (9112) - Baltimore MD,"5501 O Donnell Street, Baltimore, Maryland, United States, 21224",410-633-7000,,"will.cunningham@hercrentals.com,lisa.schmid@hercrentals.com,amanda.boyer@hercrentals.com",,,,,,,,,FALSE,FALSE,2025-03-26T09:45:37.414Z,2025-03-26T09:45:37.414Z
5cc1d8df8e6b63e7728fdc52,Herc Rentals,,0014100001RbqpbAAB,Herc Rentals (9720) - Sparks NV,"1610 Kleppe Lane, Sparks, Nevada, United States, 89431",775-359-9090,,"adolfo.olveda@hercrentals.com,nathan.pappas@hercrentals.com,joseph.knudson@hercrentals.com,kirk.mccafferty@hercrentals.com",,,,,,,,,FALSE,FALSE,2025-03-26T09:45:37.418Z,2025-03-26T09:45:37.418Z
5cc1d8df8e6b63e7728fdc52,Herc Rentals,,0014100001SdCueAAF,Herc Rentals (9238) - Ayden NC,"5886 Ernest Taylor Road, Ayden, North Carolina, United States, 28513",252-746-8911,,bailey.connors@hercrentals.com,,,,,,,,,FALSE,FALSE,2025-03-26T09:45:37.422Z,2025-03-26T09:45:37.422Z
5cc1d8df8e6b63e7728fdc52,Herc Rentals,,0014100001Rc21NAAR,Herc's Rentals (9147) - Tonawanda NY,"125 Milens Road, Tonawanda, New York, United States, 14150",716-391-0581,,"franklin.ambrose@hercrentals.com,brian.stachewicz@hercrentals.com,ffilipi@dozr.com",,,,,,,,,FALSE,FALSE,2025-03-26T09:45:37.426Z,2025-04-24T17:41:30.430Z
5cc1d8df8e6b63e7728fdc52,Herc Rentals,,0014100001SdD76AAF,Herc Rentals (9314) - Clayton NC,"7950 U.S. 70, Clayton, United States",919-359-3570,matt.parish@hercrentals.com,matthew.dickey@hercrentals.com,,,,,,,,,FALSE,FALSE,2025-03-26T09:45:37.429Z,2025-03-26T09:45:37.429Z
5cc1d8df8e6b63e7728fdc52,Herc Rentals,,0014100001SdENDAA3,Herc Rentals (9138) - New Philadelphia OH,"1140 West High St, New Philadelphia, Ohio, United States, 44663",330-974-1416,,seth.ferguson@hercrentals.com,,,,,,,,,FALSE,FALSE,2025-03-26T09:45:37.437Z,2025-03-26T09:45:37.437Z
5cc1d8df8e6b63e7728fdc52,Herc Rentals,,0014100001SdDnRAAV,Herc Rentals (9323) - Winston Salem NC,"1400 South Martin Luther King Junior Drive, Winston-Salem, North Carolina, United States, 27107",336-788-8640,,"kaytlin.moon@hercrentals.com,libby.blair@hercrentals.com,nathaniel.colford@hercrentals.com",,,,,,,,,FALSE,FALSE,2025-03-26T09:45:37.440Z,2025-03-26T09:45:37.440Z
5cc1d8df8e6b63e7728fdc52,Herc Rentals,,0014100001SdFHOAA3,Herc Rentals (9503) - Stillwater OK,"123 South Perkins Road, Stillwater, Oklahoma, United States, 74074",405-372-7666,,,,,,,,,,,FALSE,FALSE,2025-03-26T09:45:37.444Z,2025-03-26T09:45:37.444Z
5cc1d8df8e6b63e7728fdc52,Herc Rentals,,0014100001SdEImAAN,Herc Rentals (9154) - Bedford Heights OH,"21913 Aurora Road, Bedford Heights, Ohio, United States, 44146",216-820-9401,dominick.crisalli@hercrentals.com,"dominick.crisalli@hercrentals.com,tudor.vidican@hercrentals.com,jake.elliott@hercrentals.com",,,,,,,,,FALSE,FALSE,2025-03-26T09:45:37.447Z,2025-03-26T09:45:37.447Z
5cc1d8df8e6b63e7728fdc52,Herc Rentals,,0014100001SdEJzAAN,Herc Rentals (9153) - Cincinnati OH,"1438 East Galbraith Road, Cincinnati, Ohio, United States, 45215",+15132428106,,"tyler.allison@hercrentals.com,ffilipi@dozr.com",,,,,,,,,FALSE,FALSE,2025-03-26T09:45:37.450Z,2025-03-26T09:45:37.450Z
5cc1d8df8e6b63e7728fdc52,Herc Rentals,,0014100001SdF40AAF,Herc Rentals (9460) - Oklahoma City OK,"5222 North Bryant Avenue, Oklahoma City, Oklahoma, United States, 73121",405-424-8822,,"john.gilmore@hercrentals.com,jimmy.carter@hercrentals.com",,,,,,,,,FALSE,FALSE,2025-03-26T09:45:37.455Z,2025-03-26T09:45:37.455Z
5cc1d8df8e6b63e7728fdc52,Herc Rentals,,0014100001SdF9oAAF,Herc Rentals (9501) - Ponca City OK,"1415 West South Ave, Ponca City, Oklahoma, United States, 74601",580-765-6956,,"spenser.bedore@hercrentals.com,ffilipi@dozr.com",,,,,,,,,FALSE,FALSE,2025-03-26T09:45:37.459Z,2025-03-26T09:45:37.459Z
5cc1d8df8e6b63e7728fdc52,Herc Rentals,,0014100001Rb3AoAAJ,Herc Rentals (9369) - Tarpon Springs FL,"39418 US Hwy 19 N, Tarpon Springs, FL 34689, USA",727-938-5922,blake.davis@hercrentals.com,"greg.decaire@hercrentals.com,scott.patchan@hercrentals.com,steelesayre@hercrentals.com",3524318712,,,,,,,,FALSE,FALSE,2025-03-26T09:45:37.462Z,2025-07-02T15:26:43.791Z
5cc1d8df8e6b63e7728fdc52,Herc Rentals,,0014100001Rb3MpAAJ,Herc Rentals (9335) - Athens GA,"1750 Monroe Highway, Bogart, Georgia, United States, 30622",770-725-2092,dylan.conley@hercrentals.com,"dylan.conley@hercrentals.com,justan.thornton@hercrentals.com",,,,,,,,,FALSE,FALSE,2025-03-26T09:45:37.465Z,2025-03-26T09:45:37.465Z
5cc1d8df8e6b63e7728fdc52,Herc Rentals,,0014100001Rb62HAAR,Herc Rentals (9327) - Macon GA,"4690 Broadway, Macon, Georgia, United States, 31206",478-788-1333,cameron.key@hercrentals.com,"cameron.key@hercrentals.com,jared.haralson@hercrentals.com,brian.yeager@hercrentals.com",,,,,,,,,FALSE,FALSE,2025-03-26T09:45:37.469Z,2025-03-26T09:45:37.469Z
5cc1d8df8e6b63e7728fdc52,Herc Rentals,,0014100001RbnahAAB,Herc Rentals (9240) - Baton Rouge LA,"8080 Airline Highway, Baton Rouge, Louisiana, United States, 70815",225-926-9239,,kevin.galloway@hercrentals.com,,,,,,,,,FALSE,FALSE,2025-03-26T09:45:37.472Z,2025-03-26T09:45:37.472Z
5cc1d8df8e6b63e7728fdc52,Herc Rentals,,0014100001Rbnk3AAB,Herc Rentals (9243) - Gonzales LA,"37486 East Highway 30, Gonzales, Louisiana, United States, 70737",+12256472500,,,,,,,,,,,FALSE,FALSE,2025-03-26T09:45:37.476Z,2025-03-26T09:45:37.476Z
5cc1d8df8e6b63e7728fdc52,Herc Rentals,,0014100001Rbqd1AAB,Herc Rentals (9456) - St Louis MO,"3030 Market Street, Saint Louis, Missouri, United States, 63103",314-534-8300,donovan.pipkens@hercrentals.com,"donovan.pipkens@hercrentals.com,jacob.mayfield@hercrentals.com,michael.maloney@hercrentals.com",,,,,,,,,FALSE,FALSE,2025-03-26T09:45:37.479Z,2025-03-26T09:45:37.479Z
5cc1d8df8e6b63e7728fdc52,Herc Rentals,,0014100001RbqexAAB,Herc Rentals (9448) - Omaha NE,"5604 Center Street, Omaha, Nebraska, United States, 68106",402-551-3447,joseph.knudson@hercrentals.com,kris.konou@hercrentals.com,,,,,,,,,FALSE,FALSE,2025-03-26T09:45:37.482Z,2025-03-26T09:45:37.482Z
5cc1d8df8e6b63e7728fdc52,Herc Rentals,,0014100001Rc1xkAAB,Herc's Rentals (9145) - Liverpool NY,"4578 Buckley Road, Liverpool, New York, United States, 13086",315-883-8342,,"ffilipi@dozr.com,austin.poticher@hercrentals.com",,,,,,,,,FALSE,FALSE,2025-03-26T09:45:37.486Z,2025-03-26T09:45:37.486Z
5cc1d8df8e6b63e7728fdc52,Herc Rentals,,0014100001SdDlQAAV,Herc Rentals (9326) - Wilmington NC,"5935 Market Street, Wilmington, North Carolina, United States, 28405",910-799-9751,trenton.tabor@hercrentals.com,"trenton.tabor@hercrentals.com,mickey.butner@hercrentals.com",,,,,,,,,FALSE,FALSE,2025-03-26T09:45:37.490Z,2025-03-26T09:45:37.490Z
5cc1d8df8e6b63e7728fdc52,Herc Rentals,,0014100001SdDxMAAV,Herc Rentals (9452) - Bismarck ND,"2300 Vermont Avenue, Bismarck, North Dakota, United States, 58504",701-224-3500,jamie.goergen@hercrentals.com,"jamie.goergen@hercrentals.com,aaron.hermanson@hercrentals.com",,,,,,,,,FALSE,FALSE,2025-03-26T09:45:37.493Z,2025-03-26T09:45:37.493Z
5cc1d8df8e6b63e7728fdc52,Herc Rentals,,0014100001SdE5xAAF,Herc Rentals (9461) - Williston ND,"5823 Jefferson Lane, Williston, North Dakota, United States, 58801",701-609-5561,,"brenda.reopelle@hercrentals.com,ffilipi@dozr.com",,,,,,,,,FALSE,FALSE,2025-03-26T09:45:37.496Z,2025-03-26T09:45:37.496Z
5cc1d8df8e6b63e7728fdc52,Herc Rentals,,0014100001SdEL7AAN,Herc Rentals (9131) - Columbus OH,"523 Stimmel Road, Columbus, Ohio, United States, 43223",614-918-8978,drew.reliford@hercrentals.com,"jamie.gerritsen@hercrentals.com,mason.schneider@hercrentals.com,zachary.herskovitz@hercrentals.com,columbuscounter@hercrentals.com,robert.reynolds@hercrentals.com",,,,,,,,,FALSE,FALSE,2025-03-26T09:45:37.500Z,2025-03-26T09:45:37.500Z
5cc1d8df8e6b63e7728fdc52,Herc Rentals,,0014100001SdFn6AAF,Herc Rentals (9716) - Coburg OR,"90675 Roberts Road, Eugene, Oregon, United States, 97408",541-431-1170,,"lori.painter@hercrentals.com,robert.bird@hercrentals.com",,,,,,,,,FALSE,FALSE,2025-03-26T09:45:37.504Z,2025-03-26T09:45:37.504Z
5cc1d8df8e6b63e7728fdc52,Herc Rentals,,0014100001SdG5PAAV,Herc Rentals (9161) - Glenshaw PA,"2001 William Flinn Highway, Glenshaw, Pennsylvania, United States, 15116",412-487-7919,,"derek.tare@hercrentals.com,ffilipi@dozr.com",,,,,,,,,FALSE,FALSE,2025-03-26T09:45:37.509Z,2025-03-26T09:45:37.509Z
5cc1d8df8e6b63e7728fdc52,Herc Rentals,,0014100001SdFpMAAV,Herc Rentals (9724) - Portland OR,"4939 Northeast Columbia Boulevard, Portland, Oregon, United States, 97218",503-287-5789,,,,,,,,,,,FALSE,FALSE,2025-03-26T09:45:37.512Z,2025-03-26T09:45:37.512Z
5cc1d8df8e6b63e7728fdc52,Herc Rentals,,0014100001SdGAoAAN,Herc Rentals (9150) - Harrisburg PA,"470 Penhar Street, Harrisburg, Pennsylvania, United States, 17111",+17175612245,,"tyler.mcdonald@hercrentals.com,randy.mcnew@hercrentals.com,caleb.zimmerman@hercrentals.com,josh.lengyel@hercrentals.com",,,,,,,,,FALSE,FALSE,2025-03-26T09:45:37.515Z,2025-03-26T09:45:37.515Z
5cc1d8df8e6b63e7728fdc52,Herc Rentals,,0014100001SdFubAAF,Herc Rentals (9718) - Salem OR,"3640 Cherry Avenue Northeast, Salem, Oregon, United States, 97303",503-390-1945,,taylor.hughes@hercrentals.com,,,,,,,,,FALSE,FALSE,2025-03-26T09:45:37.519Z,2025-03-26T09:45:37.519Z
5cc1d8df8e6b63e7728fdc52,Herc Rentals,,0014100001SdFzRAAV,Herc Rentals (9136) - Allentown PA,"4950 Tilghman Street, Allentown, Pennsylvania, United States, 18104",610-816-0429,,"patrick.reilly@hercrentals.com,john.thompson@hercrentals.com",,,,,,,,,FALSE,FALSE,2025-03-26T09:45:37.523Z,2025-03-26T09:45:37.523Z
5cc1d8df8e6b63e7728fdc52,Herc Rentals,,0014100001VI0xKAAT,Herc Rentals - Rosenberg TX (formerly Quality Rentals),"1609 Avenue H, Rosenberg, Texas, United States, 77471",1 281-342-9090,,"randy.hundley@hercrentals.com,bud.meyer@hercrentals.com",,,,,,,,,FALSE,FALSE,2025-03-26T09:45:37.526Z,2025-03-26T09:45:37.526Z
5cc1d8df8e6b63e7728fdc52,Herc Rentals,,0014100001w1rpUAAQ,Herc (Rapid)  - Mississauga ON,"1640 Enterprise Road, Mississauga, Ontario, Canada, L4W 4L4",1.844.738.7007,info@rapid-rents.com,"john.maida@hercrentals.com,misorderdesk@hercrentals.com,merv.merwan@hercrentals.com",,,,,,,,,FALSE,FALSE,2025-03-26T09:45:37.530Z,2025-03-26T09:45:37.530Z
5cc1d8df8e6b63e7728fdc52,Herc Rentals,,00141000020cUwZAAU,Herc Rentals (9280) - Panama City Fl,"8308 Panama City Beach Parkway, Panama City Beach, Florida, United States, 32407",1-850-316-9016,,"mike.carney@hercrentals.com,nick.hess@hercrentals.com,mitchell.scaglione@hercrentals.com",(352)-431-8712,,,,,,,,FALSE,FALSE,2025-03-26T09:45:37.533Z,2025-03-26T09:45:37.533Z
5cc1d8df8e6b63e7728fdc52,Herc Rentals,,0011K00002IVtKWQA1,Herc (formally Champion Rentals Inc)- Houston TX,"6903 N Shepherd Dr, Houston, Texas, United States, 77091",+13469804222,jhorsley@champrentals.com,jhorsley@champrentals.com,,,,,,,,,FALSE,FALSE,2025-03-26T09:45:37.536Z,2025-03-26T09:45:37.536Z
5cc1d8df8e6b63e7728fdc52,Herc Rentals,,0011K00002EWWQ1QAP,Herc Rentals - Bradenton FL,"5103 53rd Avenue East, Bradenton, Florida, United States, 34203",(941) 755-0333,allstarequipmentbradenton@gmail.com,allstarequipmentbradenton@gmail.com,,,,,,,,,FALSE,FALSE,2025-03-26T09:45:37.541Z,2025-03-26T09:45:37.541Z
5cc1d8df8e6b63e7728fdc52,Herc Rentals,,0011K00002FWdi3QAD,Herc Rentals (9252) - Casselberry FL,"575 Florida 436, Casselberry, Florida, United States, 32707",407-331-1944,chris@allstarequip.net,chris.delany@hercrentals.com,,,,,,,,,FALSE,FALSE,2025-03-26T09:45:37.546Z,2025-03-26T09:45:37.546Z
5cc1d8df8e6b63e7728fdc52,Herc Rentals,,0011K00002KYvqTQAT,Herc Rentals (9379) - Apopka FL,"2620 W Orange Blossom Trail, Apopka, Florida, United States, 32712",+14075534400,kyle.bowley@hercrentals.com,"angel.najar@hercrentals.com,harold.baerga@hercrentals.com",(352)-431-8712,,,,,,,,FALSE,FALSE,2025-03-26T09:45:37.549Z,2025-03-26T09:45:37.549Z
5cc1d8df8e6b63e7728fdc52,Herc Rentals,,0011K00002L2xgbQAB,Herc Rentals (9760) - Honolulu HI,"1176 Mikole St, Honolulu, Hawaii, United States, 96819",+18088481016,,,,,,,,,,,FALSE,FALSE,2025-03-26T09:45:37.552Z,2025-03-26T09:45:37.552Z
5cc1d8df8e6b63e7728fdc52,Herc Rentals,,0011K00002L2xvHQAR,Herc Rentals (9778) - Kahluli HI,"150 Paahana St, Kahului, Hawaii, United States, 96732",+18086667040,,,,,,,,,,,FALSE,FALSE,2025-03-26T09:45:37.556Z,2025-03-26T09:45:37.556Z
5cc1d8df8e6b63e7728fdc52,Herc Rentals,,0011K00002L2uFWQAZ,Herc Rentals (9343) - Covington GA,"11689 GA-142, Covington, Georgia, United States, 30014",+16786607500,mitchell.owen@hercrentals.com,mitchell.owen@hercrentals.com,,,,,,,,,FALSE,FALSE,2025-03-26T09:45:37.560Z,2025-03-26T09:45:37.560Z
5cc1d8df8e6b63e7728fdc52,Herc Rentals,,0011K00002L2qEBQAZ,Herc Rentals (9670) - Englewood (South Denver) CO,"13202 E Adam Aircraft Cir, Englewood, Colorado, United States, 80112",+13039275300,,"customercare@hercrentals.com,james.caspary@hercrentals.com,ffilipi@dozr.com",,,,,,,,,FALSE,FALSE,2025-03-26T09:45:37.564Z,2025-03-26T09:45:37.564Z
5cc1d8df8e6b63e7728fdc52,Herc Rentals,,0011K00002L2xu4QAB,Herc Rentals (9779) - Kailua Kona HI,"74 Honokohau St, Kailua-Kona, Hawaii, United States, 96740",+18083311304,,,,,,,,,,,FALSE,FALSE,2025-03-26T09:45:37.569Z,2025-03-26T09:45:37.569Z
5cc1d8df8e6b63e7728fdc52,Herc Rentals,,0011K00002L6EHmQAN,Herc Rentals (9487) - Waxahachie TX,"3851 S Interstate 35 East Service Rd, Waxahachie, Texas, United States, 75165",+14693837620,,"russell.brazir@hercrentals.com,andrew.weiss@hercrentals.com,jenna.ingrande@hercrentals.com",,,,,,,,,FALSE,FALSE,2025-03-26T09:45:37.572Z,2025-03-26T09:45:37.572Z
5cc1d8df8e6b63e7728fdc52,Herc Rentals,,0011K00002L6EDBQA3,Herc Rentals (9404) - Houston TX,"3920 North Freeway, Houston, Texas, United States",+17138848066,,"houcentralres@hercrentals.com,angel.gomez@hercrentals.com,kayla.graves@hercrentals.com,rdwyer@dozr.com",,,,,,,,,FALSE,FALSE,2025-03-26T09:45:37.575Z,2025-03-26T09:45:37.575Z
5cc1d8df8e6b63e7728fdc52,Herc Rentals,,0011K00002L6EE4QAN,Herc Rentals (9522) - McKinney TX,"193 Industrial Blvd, McKinney, Texas, United States, 75069",+14697964130,,drake.vincent@hercrentals.com,,,,,,,,,FALSE,FALSE,2025-03-26T09:45:37.579Z,2025-03-26T09:45:37.579Z
5cc1d8df8e6b63e7728fdc52,Herc Rentals,,0011K00002L6JVQQA3,Herc Rentals (9782) - Spokane Valley WA,"328 N Fancher Rd, Spokane Valley, Washington, United States, 99212",+15095354261,,connor.meinhold@hercrentals.com,,,,,,,,,FALSE,FALSE,2025-03-26T09:45:37.582Z,2025-03-26T09:45:37.582Z
5cc1d8df8e6b63e7728fdc52,Herc Rentals,,0011K00002L3IFXQA3,Herc Rentals (9107) - Billerica MA,"257 Boston Rd, Billerica, Massachusetts, United States, 01862",+19783132700,billericacounter@hercrentals.com,"katelynd.kasper@hercrentals.com,stefanie.graslie@hercrentals.com",,,,,,,,,FALSE,FALSE,2025-03-26T09:45:37.590Z,2025-03-26T09:45:37.590Z
5cc1d8df8e6b63e7728fdc52,Herc Rentals,,0011K00002L3dpgQAB,Herc Rentals (9133) - Knightdale NC,"532 Three Sisters Rd, Knightdale, North Carolina, United States, 27545",+19196796009,,terrie.mozingo@hercrentals.com,,,,,,,,,FALSE,FALSE,2025-03-26T09:45:37.594Z,2025-03-26T09:45:37.594Z
5cc1d8df8e6b63e7728fdc52,Herc Rentals,,0011K00002L3ZlxQAF,Herc Rentals (9426) - St Peters MO,"8016 Veterans Memorial Pkwy, St Peters, Missouri, United States, 63376",+16366964004,michael.olsen@hercrentals.com,"michael.olsen@hercrentals.com,joseph.bremerkamp@hercrentals.com",,,,,,,,,FALSE,FALSE,2025-03-26T09:45:37.599Z,2025-03-26T09:45:37.599Z
5cc1d8df8e6b63e7728fdc52,Herc Rentals,,0011K00002L3aVKQAZ,Herc Rentals (9179) - Toms River NJ,"1408 Lakewood Rd, Toms River, New Jersey, United States, 08755",+17325040880,sarah.gallini@hercrentals.com,"sarah.gallini@hercrentals.com,brandon.sankey@hercrentals.com",,,,,,,,,FALSE,FALSE,2025-03-26T09:45:37.603Z,2025-03-26T09:45:37.603Z
5cc1d8df8e6b63e7728fdc52,Herc Rentals,,0011K00002ObhR3QAJ,Herc Rentals - Garden Grove CA (Formerly Summit Equipment Rentals),"7572 Anthony Ave, Garden Grove, California, United States, 92841",9512463313,,,,07:00-17:00,07:00-17:00,07:00-17:00,07:00-17:00,07:00-17:00,,,FALSE,FALSE,2025-03-26T09:45:37.606Z,2025-03-26T09:45:37.606Z
5cc1d8df8e6b63e7728fdc52,Herc Rentals,,0011K00002ObhOOQAZ,Herc Rentals - Chula Vista CA (Formerly Summit Equipment Rentals),"128 Mace St, Chula Vista, California, United States, 91911",6195857368,,,,07:00-17:00,07:00-17:00,07:00-17:00,07:00-17:00,07:00-17:00,,,FALSE,FALSE,2025-03-26T09:45:37.610Z,2025-03-26T09:45:37.610Z
5cc1d8df8e6b63e7728fdc52,Herc Rentals,,0011K00002ObhQPQAZ,Herc Rentals - Menifee CA (formerly Summit Equipment Rentals),"26105 Sherman Rd, Menifee, California, United States, 92585",9512463313,,,,07:00-17:00,07:00-17:00,07:00-17:00,07:00-17:00,07:00-17:00,,,FALSE,FALSE,2025-03-26T09:45:37.614Z,2025-03-26T09:45:37.614Z
5cc1d8df8e6b63e7728fdc52,Herc Rentals,,0011K00002OzMvzQAF,Herc Rentals - San Mateo CA,"1414 E 3rd Ave, San Mateo, California, United States, 94401",+16503428941,,rob.gottula@hercrentals.com,,,,,,,,,FALSE,FALSE,2025-03-26T09:45:37.617Z,2025-03-26T09:45:37.617Z
5cc1d8df8e6b63e7728fdc52,Herc Rentals,,0011K00002QjMZPQA3,Herc Rentals 9953 - Hasbrouck Heights NJ (formerly Durante Rentals),"50-54 New Jersey 17, Hasbrouck Heights, New Jersey, United States",+12017206969,,,,,,,,,,,FALSE,FALSE,2025-03-26T09:45:37.621Z,2025-03-26T09:45:37.621Z
5cc1d8df8e6b63e7728fdc52,Herc Rentals,,0011K00002TABQrQAP,Herc (formerly Alltrade)  - Brampton ON,"89 Heart Lake Road South, Brampton, Canada",+14167986600,rentals@alltraderentals.com,"ronnie.welsh@hercrentals.com,jesse.formosa@hercrentals.com,brporderdesk@hercrentals.com",,,,,,,,,FALSE,FALSE,2025-03-26T09:45:37.624Z,2025-03-26T09:45:37.624Z
5cc1d8df8e6b63e7728fdc52,Herc Rentals,,0011K00002TAJ2fQAH,Herc Rentals (9570) - Houston (Shepherd Drive) TX,"6903 North Shepherd Drive, Houston, Texas, United States",+17136940133,,"houcentralres@hercrentals.com,amber.reyesperez@hercrentals.com",,,,,,,,,FALSE,FALSE,2025-03-26T09:45:37.627Z,2025-03-26T09:45:37.627Z
5cc1d8df8e6b63e7728fdc52,Herc Rentals,,0011K00002TWXt4QAH,Herc Rentals (9216) - Daytona Beach FL,"874 South Nova Road, Ormond Beach, Florida, United States",+13862528296,infodeland@ser-usa.com,william.green@hercrentals.com,,,,,,,,,FALSE,FALSE,2025-03-26T09:45:37.631Z,2025-03-26T09:45:37.631Z
5cc1d8df8e6b63e7728fdc52,Herc Rentals,,0011K00002So3KNQAZ,Herc Rentals (Formerly Otay Mesa Sales Inc) - San Diego CA,"1596 Radar Rd, San Diego, United States",8446829725,austin.baker@hercrentals.com,austin.baker@hercrentals.com,,07:00-17:00,07:00-17:00,07:00-17:00,07:00-17:00,07:00-17:00,,,FALSE,FALSE,2025-03-26T09:45:37.635Z,2025-04-15T22:12:11.771Z
5cc1d8df8e6b63e7728fdc52,Herc Rentals,,0011K00002VP1YiQAL,Herc Rentals (9555) - Bryan TX,"2787 N Earl Rudder Fwy, Bryan, United States",+19796060227,,"sherry.speed@hercrentals.com,jake.hoepner@hercrentals.com",,,,,,,,,FALSE,FALSE,2025-03-26T09:45:37.638Z,2025-03-26T09:45:37.638Z
5cc1d8df8e6b63e7728fdc52,Herc Rentals,,0011K00002WMhBRQA1,Herc Rentals (9488) -TRUCKS- Grand Prarie TX,"3606 E Jefferson St, Grand Prairie, United States",+14696747300,,,,,,,,,,,FALSE,FALSE,2025-03-26T09:45:37.651Z,2025-03-26T09:45:37.651Z
5cc1d8df8e6b63e7728fdc52,Herc Rentals,,0011K00002X5cbkQAB,Herc Rentals - Denver CO (Formerly Rental Equipment Center),"220 E 56th Ave, Denver, United States",3032882271,,"chris.dewey@hercrentals.com,desiree.ware@hercrentals.com,denvercounter@hercrentals.com",,07:00-17:00,07:00-17:00,07:00-17:00,07:00-17:00,07:00-17:00,,,FALSE,FALSE,2025-03-26T09:45:37.656Z,2025-03-26T09:45:37.656Z
5cc1d8df8e6b63e7728fdc52,Herc Rentals,,0011K00002XE6FmQAL,Herc Rentals (9364) - Tampa FL,"6515 N 50th St, Tampa, United States",+18135777850,,"joey.conover@hercrentals.com,cam.lewis@hercrentals.com",,,,,,,,,FALSE,FALSE,2025-03-26T09:45:37.663Z,2025-03-26T09:45:37.663Z
5cc1d8df8e6b63e7728fdc52,Herc Rentals,,0011K00002X8MUtQAN,Herc Rentals (9186) - Londonderry NH,"3 Symmes Dr, Londonderry, United States",+16036680129,,"clayton.stewart@hercrentals.com,brian.quirk@hercrentals.com,nate.demers@hercrentals.com,clayton.stuart@hercrentals.com",,,,,,,,,FALSE,FALSE,2025-03-26T09:45:37.667Z,2025-03-26T09:45:37.667Z
5cc1d8df8e6b63e7728fdc52,Herc Rentals,,001Ah000003dRXqIAM,HERC (Formerly MAC Equipment) - Albany NY,"120 Watervliet Ave, Albany, United States",5182722700,jan@macequipmentllc.com,"linda@dozr.com,jan@macequipmentllc.com",,07:00-17:00,07:00-17:00,07:00-17:00,07:00-17:00,07:00-17:00,,,FALSE,FALSE,2025-03-26T09:45:37.670Z,2025-03-26T09:45:37.670Z
5cc1d8df8e6b63e7728fdc52,Herc Rentals,,001Ah000003i8A2IAI,Herc Rentals - Ocala FL,"512 N Magnolia Ave, Ocala, United States",+13524216970,,jackson.bennett@hercrentals.com,,,,,,,,,FALSE,FALSE,2025-03-26T09:45:37.674Z,2025-03-26T09:45:37.674Z
5cc1d8df8e6b63e7728fdc52,Herc Rentals,,001Ah0000043lvVIAQ,Herc Rentals (Formerly Otay Mesa Sales Inc) - Phoenix AZ,"1649 S 59th Ave, Phoenix, United States",+18668716188,armando.rimadaramirez@hercrentals.com,armando.rimadaramirez@hercrentals.com,,07:00-17:00,07:00-17:00,07:00-17:00,07:00-17:00,07:00-17:00,,,FALSE,FALSE,2025-03-26T09:45:37.677Z,2025-03-26T09:45:37.677Z
5cc1d8df8e6b63e7728fdc52,Herc Rentals,,001Ah0000043lyKIAQ,Herc Rentals (Formerly Otay Mesa Sales Inc) - Yuma AZ,"2632 E 16th St, Yuma, United States",+16199333231,christopher.heck@hercrentals.com,christopher.heck@hercrentals.com,,07:00-17:00,07:00-17:00,07:00-17:00,07:00-17:00,07:00-17:00,,,FALSE,FALSE,2025-03-26T09:45:37.681Z,2025-03-26T09:45:37.681Z
5cc1d8df8e6b63e7728fdc52,Herc Rentals,,001Ah0000047cikIAA,Herc Rentals (9563)- Berea OH,"1004 W Bagley Rd, Berea, United States",+14402348800,,"tudor.vidican@hercrentals.com,brandon.cutlip@hercrentals.com",,,,,,,,,FALSE,FALSE,2025-03-26T09:45:37.684Z,2025-03-26T09:45:37.684Z
5cc1d8df8e6b63e7728fdc52,Herc Rentals,,001Ah000004BfqfIAC,Herc Rentals (9263) - Streamwood IL,"1339 Yorkshire Dr, Streamwood, United States",+16302896666,,mina.lurvey@hercrentals.com,,,,,,,,,FALSE,FALSE,2025-03-26T09:45:37.688Z,2025-03-26T09:45:37.688Z
5cc1d8df8e6b63e7728fdc52,Herc Rentals,,001Ah000004CwXdIAK,Herc Rentals (9129) - Pontiac MI,"959 Cesar E Chavez Ave, Pontiac, United States",+12486486888,,"mark.murdock@hercrentals.com,patty.gonzales@hercrentals.com,noel.morgan@hercrentals.com,alyssa.nichols@hercrentals.com,alyssa.linton@hercrentals.com",,,,,,,,,FALSE,FALSE,2025-03-26T09:45:37.691Z,2025-03-26T09:45:37.691Z
5cc1d8df8e6b63e7728fdc52,Herc Rentals,,001Ah000004GsMeIAK,Herc Rentals - Columbus MS,"4335 Motley Rd, Columbus, United States",+16622421907,,"yonesha.james@hercrentals.com,kirby.wixson@hercrentals.com",,,,,,,,,FALSE,FALSE,2025-03-26T09:45:37.694Z,2025-03-26T09:45:37.694Z
5cc1d8df8e6b63e7728fdc52,Herc Rentals,,001Ah000004JmERIA0,Herc Rentals (9187) - Dover NH,"349 Mast Rd, Dover, United States",+16033434583,,steve.fitzgerald@hercrentals.com,,,,,,,,,FALSE,FALSE,2025-03-26T09:45:37.697Z,2025-03-26T09:45:37.697Z
5cc1d8df8e6b63e7728fdc52,Herc Rentals,,001Ah000004QULpIAO,Herc Rentals (9923) - Chandler AZ (formerly MAK Equipment Rentals & Sales),"331 S Price Rd, Chandler, United States",+16022695931,,scott.brown@hercrentals.com,14802270110,07:00-16:00,07:00-16:00,07:00-16:00,07:00-16:00,07:00-16:00,,,FALSE,FALSE,2025-03-26T09:45:37.701Z,2025-03-26T09:45:37.701Z
5cc1d8df8e6b63e7728fdc52,Herc Rentals,,001Ah000004fNJ3IAM,Herc Rentals (9564)- Bridgeville PA,"1889 Mayview Rd, Bridgeville, United States",+14128387600,,"ryan.smith@hercrentals.com,dillon.dugan@hercrentals.com,shawn.davis@hercrentals.com,bridgevillecounter@hercrentals.com,chad.vallecorsa@hercrentals.com",,,,,,,,,FALSE,FALSE,2025-03-26T09:45:37.704Z,2025-03-26T09:45:37.704Z
5cc1d8df8e6b63e7728fdc52,Herc Rentals,,6393afc8fbbac5001a8d389b,Herc Rentals - 9717 Des Moines WA,"22868 Pacific Hwy S, Des Moines, US",2537965070,,drew.neidigh@hercrentals.com,,,,,,,,,FALSE,FALSE,2025-03-26T09:45:37.708Z,2025-03-26T09:45:37.708Z
5cc1d8df8e6b63e7728fdc52,Herc Rentals,,639c6efba0d0760013706b26,Herc Rentals (9110) - Boston MA,"1675 Main St, Brockton, US",5085132900,,samantha.allen@hercrentals.com,,,,,,,,,FALSE,FALSE,2025-03-26T09:45:37.711Z,2025-03-26T09:45:37.711Z
5cc1d8df8e6b63e7728fdc52,Herc Rentals,,63aee4f896f3970013d077b2,Herc Rentals (9548) - Austin TX,"10926 South Highway 183, Austin, Texas, United States",+15122439822,,"jeremy.davis@hercrentals.com,dustin.short@hercrentals.com,rudy.martinez@hercrentals.com",,,,,,,,,FALSE,FALSE,2025-03-26T09:45:37.714Z,2025-03-26T09:45:37.714Z
5cc1d8df8e6b63e7728fdc52,Herc Rentals,,001Ah000005lSBXIA2,Herc Rentals (3545) - Tyler TX,"401 N NE Loop 323, Tyler, United States",+19035953820,,"ricohmfd@hercrentals.com,dusty.williams@hercrentals.com,todd.smith@hercrentals.com",,,,,,,,,FALSE,FALSE,2025-03-26T09:45:37.718Z,2025-03-26T09:45:37.718Z
5cc1d8df8e6b63e7728fdc52,Herc Rentals,,001Ah000005q5kFIAQ,Herc Rentals (9669) - Littleton CO,"9791 Titan Park Cir, Littleton, United States",+18882383808,,stephen.leddy@hercrentals.com,,,,,,,,,FALSE,FALSE,2025-03-26T09:45:37.721Z,2025-03-26T09:45:37.721Z
5cc1d8df8e6b63e7728fdc52,Herc Rentals,,001Ah000005vT1FIAU,Herc Rentals (9543) - Houston TX,"8660 S Loop E, Houston, United States",+17136431300,,rebeca.garcia@hercrentals.com,,,,,,,,,FALSE,FALSE,2025-03-26T09:45:37.724Z,2025-03-26T09:45:37.724Z
5cc1d8df8e6b63e7728fdc52,Herc Rentals,,001Ah000005ygYYIAY,Herc Rentals (9573) - Cypress TX,"15226 Cypress North Houston Rd, Cypress, Texas, United States, 77429",+13469804222,,houcentralres@hercrentals.com,,,,,,,,,FALSE,FALSE,2025-03-26T09:45:37.728Z,2025-03-26T09:45:37.728Z
5cc1d8df8e6b63e7728fdc52,Herc Rentals,,001Ah0000065eWSIAY,Herc Rentals (9266) - Louisville KY,"130 Outer Loop, Louisville, Kentucky, United States, 40214",+15027805814,,noah.roehrig@hercrentals.com,,,,,,,,,FALSE,FALSE,2025-03-26T09:45:37.731Z,2025-03-26T09:45:37.731Z
5cc1d8df8e6b63e7728fdc52,Herc Rentals,,001Ah0000068jZtIAI,Herc Rentals (9771) - Hillsboro OR,"4505 SE Witch Hazel Rd, Hillsboro, Oregon, United States, 97123",+15036489292,,nick.gardner@hercrentals.com,,,,,,,,,FALSE,FALSE,2025-03-26T09:45:37.734Z,2025-03-26T09:45:37.734Z
5cc1d8df8e6b63e7728fdc52,Herc Rentals,,001Ah0000069i8nIAA,Herc Rentals (9121) - Williamsburg VA,"1700 Endeavor Dr, Williamsburg, Virginia, United States, 23185",+17575276200,,chris.johnston1@hercrentals.com,,,,,,,,,FALSE,FALSE,2025-03-26T09:45:37.738Z,2025-03-26T09:45:37.738Z
5cc1d8df8e6b63e7728fdc52,Herc Rentals,,642c6390971a590012ffb498,Herc Rentals (9251) - Naples FL,"6167 Taylor Rd, Naples, Florida, United States, 34109",+12395940075,,bradley.bolock@hercrentals.com,,,,,,,,,FALSE,FALSE,2025-03-26T09:45:37.741Z,2025-03-26T09:45:37.741Z
5cc1d8df8e6b63e7728fdc52,Herc Rentals,,001Ah000006Sg90IAC,Herc Rentals -  Loveland CO (formerly Rental Equipment Center),"4000 Patton Ave, Loveland, Colorado, United States, 80538",+13037663892,,,,,,,,,,,FALSE,FALSE,2025-03-26T09:45:37.745Z,2025-03-26T09:45:37.745Z
5cc1d8df8e6b63e7728fdc52,Herc Rentals,,001Ah000006ZfTdIAK,Herc Rentals (9227) - Bensenville IL,"770 Larsen Ln, Bensenville, Illinois, United States, 60106",+16306130000,,"brett.martinez@hercrentals.com,ffilipi@dozr.com",,,,,,,,,FALSE,FALSE,2025-03-26T09:45:37.748Z,2025-03-26T09:45:37.748Z
5cc1d8df8e6b63e7728fdc52,Herc Rentals,,001Ah000006bwRRIAY,Herc Rental (8542) - Edmonton AB,"15811 118 Ave NW, Edmonton, Alberta, Canada, T5V 1B7",+17804524410,,,,,,,,,,,FALSE,FALSE,2025-03-26T09:45:37.751Z,2025-03-26T09:45:37.751Z
5cc1d8df8e6b63e7728fdc52,Herc Rentals,,001Ah000006ms9lIAA,Herc Rentals (9561) - Oak Park MI,"13133 Cloverdale St, Oak Park, Michigan, United States, 48237",+12483996600,,"timothy.alwardt@hercrentals.com,oakparkcounter@hercrentals.com,brandan.weick@hercrentals.com",,,,,,,,,FALSE,FALSE,2025-03-26T09:45:37.755Z,2025-03-26T09:45:37.755Z
5cc1d8df8e6b63e7728fdc52,Herc Rentals,,001Ah000006xOzbIAE,Herc Rentals (8534) - Port Coquitlam BC,"1464 Spitfire Pl, Port Coquitlam, British Columbia, Canada, V3C 6L4",+16044651377,,"rhys.cratty@hercrentals.com,brittany.carter@hercrentals.com",,,,,,,,,FALSE,FALSE,2025-03-26T09:45:37.758Z,2025-03-26T09:45:37.758Z
5cc1d8df8e6b63e7728fdc52,Herc Rentals,,001OJ000001YmHmYAK,Herc Rentals 9901 - St Louis MO,"5411 Brown Ave, St. Louis, Missouri, United States, 63120",+13143852222,,"caleb.riess@hercrentals.com,lynne.fiddleman@hercrentals.com",,,,,,,,,FALSE,FALSE,2025-03-26T09:45:37.762Z,2025-03-26T09:45:37.762Z
5cc1d8df8e6b63e7728fdc52,Herc Rentals,,001OJ000002a4wqYAA,Herc Rentals (9556) - Carlsbad NM,"4620 National Parks Hwy, Carlsbad, New Mexico, United States, 88220",+15756892299,,,,,,,,,,,FALSE,FALSE,2025-03-26T09:45:37.766Z,2025-03-26T09:45:37.766Z
5cc1d8df8e6b63e7728fdc52,Herc Rentals,,001OJ0000034OtFYAU,Herc Rentals (9267) - Bloomfield CT,"9 Belden Rd, Bloomfield, Connecticut, United States, 06002",+19599005900,,louis.migliozzi@hercrentals.com,,,,,,,,,FALSE,FALSE,2025-03-26T09:45:37.769Z,2025-03-26T09:45:37.769Z
5cc1d8df8e6b63e7728fdc52,Herc Rentals,,001OJ000004FzYIYA0,Herc Rentals (9902) - Scott City MO,"2620 E Outer Rd, Scott City, Missouri, United States, 63780",+15738031514,,conner.mckinney@hercrentals.com,,,,,,,,,FALSE,FALSE,2025-03-26T09:45:37.773Z,2025-03-26T09:45:37.773Z
5cc1d8df8e6b63e7728fdc52,Herc Rentals,,001OJ000007gVWcYAM,Herc Rentals (233) - Rockledge FL,"1100 Viera Blvd, Rockledge, Florida, United States, 32955",+13214568980,,nick.desantis@hercrentals.com,,,,,,,,,FALSE,FALSE,2025-03-26T09:45:37.778Z,2025-03-26T09:45:37.778Z
5cc1d8df8e6b63e7728fdc52,Herc Rentals,,001OJ000007hA08YAE,Herc Rentals (8272) - Toronto ON,"309 Cherry St, Toronto, Ontario, Canada, M5A 3L3",+16475775353,,,,,,,,,,,FALSE,FALSE,2025-03-26T09:45:37.782Z,2025-03-26T09:45:37.782Z
5cc1d8df8e6b63e7728fdc52,Herc Rentals,,001OJ000007hQUfYAM,Herc Rentals (8215) - Toronto ON,"6 Carlaw Ave, Toronto, Ontario, Canada, M4M 2R5",+18669134704,,troy.mcclure@hercrentals.com,,,,,,,,,FALSE,FALSE,2025-03-26T09:45:37.785Z,2025-03-26T09:45:37.785Z
5cc1d8df8e6b63e7728fdc52,Herc Rentals,,001OJ000009fpFuYAI,Herc Rentals (9444) - Mandeville LA,"22004 Alpha Blvd, Mandeville, Louisiana, United States, 70471",+19858755380,,"dane.ziegler@hercrentals.com,mark.chiasson@hercrentals.com",,,,,,,,,FALSE,FALSE,2025-03-26T09:45:37.788Z,2025-03-26T09:45:37.788Z
5cc1d8df8e6b63e7728fdc52,Herc Rentals,,001OJ000009gd7pYAA,Herc Rentals (9519) - Moore OK,"3315 I-35 Frontage Rd, Moore, Oklahoma, United States, 73160",+14053006670,,"tyler.price@hercrentals.com,joshua.mannis@hercrentals.com",,,,,,,,,FALSE,FALSE,2025-03-26T09:45:37.791Z,2025-03-26T09:45:37.791Z
5cc1d8df8e6b63e7728fdc52,Herc Rentals,,001OJ00000BXRWEYA5,Herc Rentals (9269) - Joliet QC,"100 Barney Dr, Joliet, Illinois, United States, 60435",+18155318660,selyna.nugent@hercrentals.com,selyna.nugent@hercrentals.com,,,,,,,,,FALSE,FALSE,2025-03-26T09:45:37.795Z,2025-03-26T09:45:37.795Z
5cc1d8df8e6b63e7728fdc52,Herc Rentals,,001OJ00000BZ8EVYA1,Herc Rentals (9273) - North Jacksonville FL,"1140 New Berlin Rd, Jacksonville, Florida, United States, 32218",+19048656707,accounting@dozr.com,accounting@dozr.com,,,,,,,,,FALSE,FALSE,2025-03-26T09:45:37.798Z,2025-03-26T09:45:37.798Z
5cc1d8df8e6b63e7728fdc52,Herc Rentals,,001OJ00000CoCruYAF,Herc Rentals (9920) - West Haven UT,"3115 S 1900 W, West Haven, Utah, United States, 84401",+18335442697,,,,,,,,,,,FALSE,FALSE,2025-03-26T09:45:37.801Z,2025-03-26T09:45:37.801Z
5cc1d8df8e6b63e7728fdc52,Herc Rentals,,001OJ00000CxS7pYAF,Herc Rentals (9220) - Rochester NY,"737 Atlantic Ave, Rochester, New York, United States, 14609",+15856788235,,,,,,,,,,,FALSE,FALSE,2025-03-26T09:45:37.806Z,2025-03-26T09:45:37.806Z
5cc1d8df8e6b63e7728fdc52,Herc Rentals,,001OJ00000EFFRiYAP,Herc Rentals (950) - Honolulu HI,"1019 Ulupono St, Honolulu, Hawaii, United States, 96819",+18088474267,,"myron.tagovailoaamosa@hercrentals.com,ryan.gomes@hercrentals.com",,,,,,,,,FALSE,FALSE,2025-03-26T09:45:37.809Z,2025-03-26T09:45:37.809Z
5cc1d8df8e6b63e7728fdc52,Herc Rentals,,001OJ00000FyqnvYAB,Herc Rentas (9942) - Neenah WI,"2380 Holly Rd, Neenah, Wisconsin, United States, 54956",+19207499500,,hayden.freeman@hercrentals.com,,,,,,,,,FALSE,FALSE,2025-03-26T09:45:37.813Z,2025-03-26T09:45:37.813Z
5cc1d8df8e6b63e7728fdc52,Herc Rentals,,001OJ00000GvdxvYAB,Herc Rentals (9572) - Porter TX,"24850 US-59, Porter, Texas, United States, 77365",+12818158742,,,,,,,,,,,FALSE,FALSE,2025-03-26T09:45:37.816Z,2025-03-26T09:45:37.816Z
5cc1d8df8e6b63e7728fdc52,Herc Rentals,,001OJ00000Gx0u5YAB,Herc Rentals (9247) - Piedmont SC,"121 Hurricane Creek Rd, Piedmont, South Carolina, United States, 29673",+18647810165,,"dr.silkwood@hercrentals.com,cal.schoffstall@hercrentals.com",,,,,,,,,FALSE,FALSE,2025-03-26T09:45:37.820Z,2025-03-26T09:45:37.820Z
5cc1d8df8e6b63e7728fdc52,Herc Rentals,,001OJ00000Kn9g9YAB,Herc Rentals (9270) - Maple Grove MN,"10939 89th Ave N, Maple Grove, Minnesota, United States, 55369",+17633473930,,,,,,,,,,,FALSE,FALSE,2025-03-26T09:45:37.823Z,2025-03-26T09:45:37.823Z
5cc1d8df8e6b63e7728fdc52,Herc Rentals,,001OJ00000LHDsqYAH,Herc Rentals (9292) - Statesville NC,"1470 Salisbury Rd, Statesville, North Carolina, United States, 28677",+13363778076,,,,,,,,,,,FALSE,FALSE,2025-03-26T09:45:37.827Z,2025-03-26T09:45:37.827Z
5cc1d8df8e6b63e7728fdc52,Herc Rentals,,001OJ00000LLMeBYAX,Herc Rentals (8271) - Mississauga ON,"6900 Finch Ave W, Toronto, Ontario, Canada, M9W 0A8",+14166794180,,misorderdesk@hercrentals.com,,,,,,,,,FALSE,FALSE,2025-03-26T09:45:37.830Z,2025-03-26T09:45:37.830Z
5cc1d8df8e6b63e7728fdc52,Herc Rentals,,001OJ00000MMthAYAT,Herc Rentals (9264) - Ashland VA,"10990 Air Park Rd, Ashland, Virginia, United States, 23005",+18044066150,,,,,,,,,,,FALSE,FALSE,2025-03-26T09:45:37.834Z,2025-03-26T09:45:37.834Z
5cc1d8df8e6b63e7728fdc52,Herc Rentals,,001OJ00000OOktYYAT,Herc Rentals (9941) - Sussex WI,"W230 N6080 Hi Tech Dr, Sussex, Wisconsin, United States, 53089",+12622469300,,bruce.vriezen@hercrentals.com,,,,,,,,,FALSE,FALSE,2025-03-26T09:45:37.837Z,2025-04-03T19:24:05.808Z
5cc1d8df8e6b63e7728fdc52,Herc Rentals,,001OJ00000SuyivYAB,Herc Rentals (9552) - Caddo Mills TX,"4899 I-30 Frontage Rd, Caddo Mills, Texas, United States, 75135",+19032139100,,,,,,,,,,,FALSE,FALSE,2025-03-26T09:45:37.840Z,2025-03-26T09:45:37.840Z
5cc1d8df8e6b63e7728fdc52,Herc Rentals,,001OJ00000UO50UYAT,Herc Rentals (9525) - Cedar Hill TX,"914 Cedarview Dr, Cedar Hill, Texas, United States, 75104",+14697806095,,alexis.serna1@hercrentals.com,,,,,,,,,FALSE,FALSE,2025-04-09T17:41:42.188Z,2025-04-17T12:29:25.085Z
5cc1d8df8e6b63e7728fdc52,Herc Rentals,,6862f7f01a74570018691590,Herc Rentals - St Louis (West) MO,"10022 Meeks Blvd, St. Louis, MO 63132, USA",13146690500,,,,,,,,,,,FALSE,FALSE,2025-06-30T20:47:44.919Z,2025-06-30T20:47:44.919Z
5cc1d8df8e6b63e7728fdc52,Herc Rentals,,697a588dd617d4001ec275b4,Herc Rentals,"9200 E 96th Ave, Commerce City, Colorado, United States, 80640",+17205069729,ronnie.federico@hercrentals.com,ronnie.federico@hercrentals.com,,,,,,,,,TRUE,FALSE,2026-01-28T19:49:32.155Z,2026-01-28T19:49:32.155Z